name,published_at,status,url,validity,valid_from,valid_to,new,address,latitude,longitude
148. Grundschule Dresden in Dresden,2021-11-26,befristet teilweise geschlossen,https://www.smk.sachsen.de/ppdf/2021_11_26_148_GS_Dresden.pdf,27.11.2021 bis 03.12.2021,2021-11-27 00:00:00,['2021-03-12 00:00:00'],True,"Martha-Fraenkel-Straße 8, 01097 Dresden, Deutschland",51.0703633,13.7423917
108. Grundschule Dresden „Sonnenblumenschule“ in Dresden,2021-11-26,befristet teilweise geschlossen,https://www.smk.sachsen.de/ppdf/2021_11_26_108_GS_Dresden.pdf,27.11.2021 bis 03.12.2021,2021-11-27 00:00:00,['2021-03-12 00:00:00'],True,"Hepkestraße 28, 01309 Dresden, Deutschland",51.0377795,13.7840508
102. Grundschule „Johanna“ Dresden in Dresden,2021-11-26,befristet vollständig geschlossen,https://www.smk.sachsen.de/ppdf/2021_11_26_102_GS_Dresden.pdf,27.11.2021 bis 03.12.2021,2021-11-27 00:00:00,['2021-03-12 00:00:00'],True,"Pfotenhauerstraße 40, 01307 Dresden, Deutschland",51.0559243,13.7661343
"63. Grundschule Dresden ""Johann Gottlieb Naumann"" in Dresden",2021-11-26,befristet vollständig geschlossen,https://www.smk.sachsen.de/ppdf/2021_11_26_63_GS_Dresden.pdf,27.11.2021 bis 30.11.2021,2021-11-27 00:00:00,['2021-11-30 00:00:00'],True,"Wägnerstraße 24-26, 01309 Dresden, Deutschland",51.0487124,13.8040732
Gymnasium Dresden-Cotta in Dresden,2021-11-26,befristet teilweise geschlossen,https://www.smk.sachsen.de/ppdf/2021_11_26_GY_DD_Cotta.pdf,29.11.2021 bis 03.12.2021,2021-11-29 00:00:00,['2021-03-12 00:00:00'],True,"Cossebauder Str. 35, 01157 Dresden, Deutschland",51.05757,13.68674
Pestalozzi-Gymnasium Dresden in Dresden,2021-11-26,befristet teilweise geschlossen,https://www.smk.sachsen.de/ppdf/2021_11_26_Pestalozzi_Gymnasium_Dresden.pdf,27.11.2021 bis 03.12.2021,2021-11-27 00:00:00,['2021-03-12 00:00:00'],True,"Pestalozzipl. 22, 01127 Dresden, Deutschland",51.0796444,13.732667
101. Oberschule Dresden Johannstadt „Johannes Gutenberg“ in Dresden,2021-11-25,befristet teilweise geschlossen,https://www.smk.sachsen.de/ppdf/2021_11_25_101_OS_Dresden.pdf,26.11.2021 bis 03.12.2021,2021-11-26 00:00:00,['2021-03-12 00:00:00'],False,"Pfotenhauerstraße 42, 01307 Dresden, Deutschland",51.05612,13.76749
59. Grundschule „Jürgen Reichen“ Dresden in Dresden,2021-11-25,befristet vollständig geschlossen,https://www.smk.sachsen.de/ppdf/2021_11_25_59_GS_Dresden.pdf,26.11.2021 bis 07.12.2021,2021-11-26 00:00:00,['2021-07-12 00:00:00'],False,"Kurparkstraße 12, 01324 Dresden, Deutschland",51.0638516,13.8297264
59. Grundschule „Jürgen Reichen“ Dresden in Dresden,2021-11-25,Widerruf,https://www.smk.sachsen.de/ppdf/2021_11_25_59_GS_Dresden_Widerruf.pdf,26.11.2021,2021-11-26 00:00:00,2021-11-26 00:00:00,False,"Kurparkstraße 12, 01324 Dresden, Deutschland",51.0638516,13.8297264
8. Grundschule Dresden in Dresden,2021-11-25,befristet teilweise geschlossen,https://www.smk.sachsen.de/ppdf/21_11_25_8_GS_Dresden.pdf,26.11.2021 bis 03.12.2021,2021-11-26 00:00:00,['2021-03-12 00:00:00'],False,"Konkordienstraße 12, 01127 Dresden, Deutschland",51.07556,13.72783
36. Oberschule Dresden in Dresden,2021-11-25,befristet teilweise geschlossen,https://www.smk.sachsen.de/ppdf/21_11_25_36_OS_Dresden.pdf,26.11.2021 bis 30.11.2021,2021-11-26 00:00:00,['2021-11-30 00:00:00'],False,"Emil-Ueberall-Straße 34, 01159 Dresden, Deutschland",51.04346839999999,13.690052
"4. Grundschule Dresden ""Am Rosengarten"" in Dresden",2021-11-25,befristet vollständig geschlossen,https://www.smk.sachsen.de/ppdf/21_11_25_4_GS_Rosengarten_Dresden.pdf,27.11.2021 bis 10.12.2021,2021-11-27 00:00:00,['2021-10-12 00:00:00'],False,"Löwenstraße 2, 01099 Dresden, Deutschland",51.0616237,13.7599201
"70. Grundschule Dresden ""An der Südhöhe"" in Dresden",2021-11-25,befristet vollständig geschlossen,https://www.smk.sachsen.de/ppdf/2021_11_25_70_Grundschule_Dresden.pdf,26.11.2021 bis 03.12.2021,2021-11-26 00:00:00,['2021-03-12 00:00:00'],False,"Südhöhe 31, 01217 Dresden, Deutschland",51.01896,13.74081
Oberschule Weißig in Dresden,2021-11-25,befristet teilweise geschlossen,https://www.smk.sachsen.de/ppdf/2021_11_25_OS_Weissig_DD.pdf,26.11.2021 bis 03.12.2021,2021-11-26 00:00:00,['2021-03-12 00:00:00'],False,"Gönnsdorfer Weg 1, 01328 Dresden, Deutschland",51.0584588,13.883973
121. Oberschule Dresden in Dresden,2021-11-24,befristet teilweise geschlossen,https://www.smk.sachsen.de/ppdf/2021_11_24_121_OS_Dresden.pdf,25.11.2021 bis 29.11.2021,2021-11-25 00:00:00,['2021-11-29 00:00:00'],False,"Gamigstraße 28, 01239 Dresden, Deutschland",51.00742839999999,13.7915324
Gymnasium Tolkewitz in Dresden,2021-11-24,befristet teilweise geschlossen,https://www.smk.sachsen.de/ppdf/21_11_24_Gymnasium_Dresden_Tolkewitz.pdf,25.11.2021 bis 01.12.2021,2021-11-25 00:00:00,['2021-01-12 00:00:00'],False,"Wehlener Str. 38, 01279 Dresden, Deutschland",51.03547020000001,13.8160117
Schule mit dem Förderschwerpunkt geistige Entwicklung „Robinsonschule“ Dresden - Schulteil Marienberger Straße in Dresden,2021-11-24,befristet teilweise geschlossen,https://www.smk.sachsen.de/ppdf/21_11_24_FS_Robinsonschule_Dresden.pdf,25.11.2021 bis 03.12.2021,2021-11-25 00:00:00,['2021-03-12 00:00:00'],False,"Schweizer Str. 7, 01069 Dresden, Deutschland",51.03915,13.7258601
81. Grundschule Dresden in Dresden,2021-11-24,befristet teilweise geschlossen,https://www.smk.sachsen.de/ppdf/21_11_24_81_GS_Dresden.pdf,25.11.2021 bis 30.11.2021,2021-11-25 00:00:00,['2021-11-30 00:00:00'],False,"Robert-Weber-Straße 5, 01187 Dresden, Deutschland",51.02424999999999,13.68951
"35. Grundschule Dresden ""Heinrich Graf von Bünau"" in Dresden",2021-11-24,befristet vollständig geschlossen,https://www.smk.sachsen.de/ppdf/2021_11_24_GS35_DD.pdf,27.11.2021 bis 03.12.2021,2021-11-27 00:00:00,['2021-03-12 00:00:00'],False,"Bünaustraße 12, 01159 Dresden, Deutschland",51.0418305,13.6986805
47. Grundschule Dresden in Dresden,2021-11-24,befristet teilweise geschlossen,https://www.smk.sachsen.de/ppdf/2021_11_24_47_Grundschule_Dresden.pdf,25.11.2021 bis 03.12.2021,2021-11-25 00:00:00,['2021-03-12 00:00:00'],False,"Mockritzer Str. 19, 01219 Dresden, Deutschland",51.02384,13.76169
"Schule mit dem Förderschwerpunkt emotionale und soziale Entwicklung ""Erich Kästner"" in Dresden",2021-11-23,befristet teilweise geschlossen,https://www.smk.sachsen.de/ppdf/2021_11_23_FS_Kaestner_DD.pdf,24.11.2021 bis 26.11.2021,2021-11-24 00:00:00,['2021-11-26 00:00:00'],False,"Zinzendorfstraße 4, 01069 Dresden, Deutschland",51.0437473,13.743694
Grundschule Cossebaude in Dresden,2021-11-23,befristet teilweise geschlossen,https://www.smk.sachsen.de/ppdf/2021_11_23_GS_Cossebaude.pdf,gestaffelt 24.11.2021 bis 03.12.2021,,['2021-03-12 00:00:00'],False,"Bahnhofstraße 5, 01156 Dresden, Deutschland",51.0859,13.63033
Schule zur Lernförderung – „A. S. Makarenko“ Förderzentrum in Dresden,2021-11-23,befristet teilweise geschlossen,https://www.smk.sachsen.de/ppdf/21_11_23_FZ_Makarenko_Dresden.pdf,24.11.2021 bis 30.11.2021,2021-11-24 00:00:00,['2021-11-30 00:00:00'],False,"Leisniger Str. 76, 01127 Dresden, Deutschland",51.0825365,13.7220184
Schule zur Lernförderung – „A. S. Makarenko“ Förderzentrum in Dresden,2021-11-23,Widerruf zur befristeten teilweisen Schließung,https://www.smk.sachsen.de/ppdf/21_11_23_FZ_Makarenko_Dresden_Widerruf.pdf,24.11.2021,2021-11-24 00:00:00,2021-11-24 00:00:00,False,"Leisniger Str. 76, 01127 Dresden, Deutschland",51.0825365,13.7220184
Oberschule Weißig in Dresden,2021-11-23,befristet teilweise geschlossen,https://www.smk.sachsen.de/ppdf/21_11_23_OS_Weissig.pdf,24.11.2021 bis 30.11.2021,2021-11-24 00:00:00,['2021-11-30 00:00:00'],False,"Gönnsdorfer Weg 1, 01328 Dresden, Deutschland",51.0584588,13.883973
71. Grundschule Dresden „Am Kaitzbach“ in Dresden,2021-11-23,befristet vollständig geschlossen,https://www.smk.sachsen.de/ppdf/2021_11_23_71GS_DD.pdf,25.11.2021 bis 30.11.2021,2021-11-25 00:00:00,['2021-11-30 00:00:00'],False,"Franzweg 4, 01217 Dresden, Deutschland",51.014971,13.729148
76. Oberschule Dresden in Dresden,2021-11-23,befristet teilweise geschlossen,https://www.smk.sachsen.de/ppdf/2021_11_23_76_OS_Dresden.pdf,24.11.2021 bis 26.11.2021,2021-11-24 00:00:00,['2021-11-26 00:00:00'],False,"Merbitzer Str. 9, 01157 Dresden, Deutschland",51.0665051,13.6712307
88. Grundschule Dresden in Dresden,2021-11-23,befristet vollständig geschlossen,https://www.smk.sachsen.de/ppdf/2021_11_23_88GS_DD.pdf,24.11.2021 bis 26.11.2021,2021-11-24 00:00:00,['2021-11-26 00:00:00'],False,"Dresdner Str. 50, 01326 Dresden, Deutschland",51.01621,13.8650501
Gymnasium Bürgerwiese Dresden in Dresden,2021-11-23,befristet teilweise geschlossen,https://www.smk.sachsen.de/ppdf/21_11_23_Gymnasium_Buergerwiese_Dresden.pdf,24.11.2021 bis 26.11.2021,2021-11-24 00:00:00,['2021-11-26 00:00:00'],False,"Parkstraße 4, 01069 Dresden, Deutschland",51.0386886,13.7444305
89. Grundschule Dresden in Dresden,2021-11-22,befristet vollständig geschlossen,https://www.smk.sachsen.de/ppdf/2021_11_22_89_Grundschule_Dresden.pdf,23.11.2021 bis 03.12.2021,2021-11-23 00:00:00,['2021-03-12 00:00:00'],False,"Sosaer Str. 10, 01257 Dresden, Deutschland",50.9995288,13.8248406
Gymnasium Dresden-Tolkewitz in Dresden,2021-11-22,befristet teilweise geschlossen,https://www.smk.sachsen.de/ppdf/2021_11_22_Gym_Tolkewitz.pdf,23.11.2021 bis 26.12.2021,2021-11-23 00:00:00,['2021-12-26 00:00:00'],False,"Wehlener Str. 38, 01279 Dresden, Deutschland",51.03547020000001,13.8160117
62. Oberschule „Friedrich Schiller“ Dresden in Dresden,2021-11-22,befristet teilweise geschlossen,https://www.smk.sachsen.de/ppdf/21_11_22_62_OS_Dresden.pdf,23.11.2021 bis 30.11.2021,2021-11-23 00:00:00,['2021-11-30 00:00:00'],False,"Fidelio-F.-Finke-Straße 15, 01326 Dresden, Deutschland",51.0520173,13.8163321
106. Grundschule Dresden in Dresden,2021-11-22,befristet teilweise geschlossen,https://www.smk.sachsen.de/ppdf/21_11_22_106_GS_Dresden.pdf,23.11.2021 bis 26.11.2021,2021-11-23 00:00:00,['2021-11-26 00:00:00'],False,"Großenhainer Str. 187, 01129 Dresden, Deutschland",51.0907828,13.7210057
"Schule ""Am Leubnitzbach"", Schule mit dem Förderschwerpunkt emotionale und soziale Entwicklung in Dresden",2021-11-22,befristet teilweise geschlossen,https://www.smk.sachsen.de/ppdf/2021_11_22_Foerderschule_am_Leubnitzbach.pdf,23.11.2021 bis 26.11.2021,2021-11-23 00:00:00,['2021-11-26 00:00:00'],False,"Karl-Laux-Straße 5, 01219 Dresden, Deutschland",51.0136228,13.7707873
12. Grundschule Dresden in Dresden,2021-11-22,befristet teilweise geschlossen,https://www.smk.sachsen.de/ppdf/2021_11_22_12_Grundschule_Dresden.pdf,23.11.2021 bis 26.11.2021,2021-11-23 00:00:00,['2021-11-26 00:00:00'],False,"Hebbelstraße 20, 01157 Dresden, Deutschland",51.0544532,13.6854273
Gymnasium Linkselbisch-Ost Dresden in Dresden,2021-11-22,befristet teilweise geschlossen,https://www.smk.sachsen.de/ppdf/21_11_22_Gymnasium_LEO_Dresden.pdf,23.11.2021 bis 26.11.2021,2021-11-23 00:00:00,['2021-11-26 00:00:00'],False,"Berthelsdorfer Weg 2, 01279 Dresden, Deutschland",51.03211,13.8122
92. Grundschule „An der Aue“ Dresden in Dresden,2021-11-22,befristet teilweise geschlossen,https://www.smk.sachsen.de/ppdf/22_11_22_92_GS_Dresden.pdf,23.11.2021 bis 26.11.2021,2021-11-23 00:00:00,['2021-11-26 00:00:00'],False,"Großzschachwitzer Str. 29, 01259 Dresden, Deutschland",51.0035888,13.8434295
"43. Grundschule Dresden ""Thomas Müntzer"" in Dresden",2021-11-22,befristet teilweise geschlossen,https://www.smk.sachsen.de/ppdf/2021_11_22_43_Grundschule.pdf,23.11.2021 bis 03.12.2021,2021-11-23 00:00:00,['2021-03-12 00:00:00'],False,"Riegelpl. 2, 01139 Dresden, Deutschland",51.0829692,13.6869111
84. Grundschule Dresden „In der Gartenstadt“ in Dresden,2021-11-22,befristet teilweise geschlossen,https://www.smk.sachsen.de/ppdf/2021_11_22_84GS_Dresden.pdf,23.11.2021 bis 26.11.2021,2021-11-23 00:00:00,['2021-11-26 00:00:00'],False,"Heinrich-Tessenow-Weg 28, 01109 Dresden, Deutschland",51.1134097,13.7557601
102. Grundschule „Johanna“ Dresden in Dresden,2021-11-22,befristet vollständig geschlossen,https://www.smk.sachsen.de/ppdf/2021_11_22_102GS_Dresden.pdf,23.11.2021 bis 26.11.2021,2021-11-23 00:00:00,['2021-11-26 00:00:00'],False,"Pfotenhauerstraße 40, 01307 Dresden, Deutschland",51.0559243,13.7661343
26. Grundschule Dresden „Am Markusplatz“ in Dresden,2021-11-22,befristet vollständig geschlossen,https://www.smk.sachsen.de/ppdf/21_11_22_26_GS_Dresden.pdf,24.11.2021 bis 03.12.2021,2021-11-24 00:00:00,['2021-03-12 00:00:00'],False,"Osterbergstraße 22, 01127 Dresden, Deutschland",51.0780517,13.7218857
122. Grundschule Dresden „Am Palitzschhof“ in Dresden,2021-11-22,befristet vollständig geschlossen,https://www.smk.sachsen.de/ppdf/21_11_22_122_GS_Dresden.pdf,25.11.2021 bis 03.12.2021,2021-11-25 00:00:00,['2021-03-12 00:00:00'],False,"Gamigstraße 30, 01239 Dresden, Deutschland",51.0068999,13.7906919
"70. Grundschule Dresden ""An der Südhöhe"" in Dresden",2021-11-22,befristet teilweise geschlossen,https://www.smk.sachsen.de/ppdf/2021_11_22_70_GS_An_der_Suedhoehe.pdf,23.11.2021 bis 03.12.2021,2021-11-23 00:00:00,['2021-03-12 00:00:00'],False,"Südhöhe 31, 01217 Dresden, Deutschland",51.01896,13.74081
76. Oberschule Dresden in Dresden,2021-11-22,befristet teilweise geschlossen,https://www.smk.sachsen.de/ppdf/2021_11_22_76OS_DD.pdf,23.11.2021 bis 26.11.2021,2021-11-23 00:00:00,['2021-11-26 00:00:00'],False,"Merbitzer Str. 9, 01157 Dresden, Deutschland",51.0665051,13.6712307
96. Grundschule „Am Froschtunnel“ Dresden in Dresden,2021-11-22,befristet teilweise geschlossen,https://www.smk.sachsen.de/ppdf/2021_11_22_96GS_DD.pdf,23.11.2021 bis 01.12.2021,2021-11-23 00:00:00,['2021-01-12 00:00:00'],False,"Liebstädter Str. 37, 01277 Dresden, Deutschland",51.0308158,13.7950673
10. Grundschule Dresden,2021-11-22,befristet vollständig geschlossen,https://www.smk.sachsen.de/ppdf/21_11_22_10_GS_Dresden.pdf,23.11.2021 bis 26.11.2021,2021-11-23 00:00:00,['2021-11-26 00:00:00'],False,"Struvestraße 10, 01069 Dresden, Deutschland",51.04111,13.74085
50. Grundschule Dresden „Gertrud Caspari“ in Dresden,2021-11-22,befristet teilweise geschlossen,https://www.smk.sachsen.de/ppdf/21_11_22_50_GS_Dresden.pdf,23.11.2021 bis 26.11.2021,2021-11-23 00:00:00,['2021-11-26 00:00:00'],False,"Dörnichtweg 54, 01109 Dresden, Deutschland",51.1231,13.77927
62. Grundschule Dresden „Friedrich Schiller“ in Dresden,2021-11-22,befristet teilweise geschlossen,https://www.smk.sachsen.de/ppdf/21_11_22_62_GS_Dresden.pdf,23.11.2021 bis 26.11.2021,2021-11-23 00:00:00,['2021-11-26 00:00:00'],False,"Pillnitzer Landstraße 38, 01326 Dresden, Deutschland",51.050468,13.819445
"Albert-Schweitzer-Schule, Förderzentrum mit dem Förderschwerpunkt Lernen, in Dresden",2021-11-19,befristet vollständig geschlossen,https://www.smk.sachsen.de/ppdf/2021_11_19_Albert-Schweitzer-Schule_Dresden.pdf,20.11.2021 bis 30.11.2021,2021-11-20 00:00:00,['2021-11-30 00:00:00'],False,"Georg-Palitzsch-Straße 42, 01239 Dresden, Deutschland",51.00183,13.79655
128. Oberschule Dresden „Carola von Wasa“ in Dresden,2021-11-19,befristet teilweise geschlossen,https://www.smk.sachsen.de/ppdf/21_11_19_128_OS_Dresden.pdf,20.11.2021 bis 24.11.2021,2021-11-20 00:00:00,['2021-11-24 00:00:00'],False,"Rudolf-Bergander-Ring 3, 01219 Dresden, Deutschland",51.02144,13.77875
"30. Grundschule Dresden ""Am Hechtpark"" in Dresden",2021-11-19,befristet vollständig geschlossen,https://www.smk.sachsen.de/ppdf/21_11_19_30_GS_Dresden.pdf,20.11.2021 bis 26.11.2021,2021-11-20 00:00:00,['2021-11-26 00:00:00'],False,"Hechtstraße 55, 01097 Dresden, Deutschland",51.0768654,13.746819
"Förderzentrum ""Dinglingerschule"" Dresden mit dem Förderschwerpunkt Lernen in Dresden",2021-11-19,befristet teilweise geschlossen,https://www.smk.sachsen.de/ppdf/2021_11_19_Dinglingerschule.pdf,20.11.2021 bis 25.11.2021 bzw. 29.11.2021,2021-11-20 00:00:00,"['2021-11-25 00:00:00', '2021-11-29 00:00:00']",False,"Marienberger Str. 7, 01279 Dresden, Deutschland",51.02731,13.8062
93. Grundschule Dresden in Dresden,2021-11-19,befristet vollständig geschlossen,https://www.smk.sachsen.de/ppdf/2021_11_19_GS93_Dresden.pdf,20.11.2021 bis 29.11.2021,2021-11-20 00:00:00,['2021-11-29 00:00:00'],False,"Dobritzer Weg 1, 01237 Dresden, Deutschland",51.0152332,13.8154845
Hans-Erlwein-Gymnasium Dresden in Dresden,2021-11-19,befristet teilweise geschlossen,https://www.smk.sachsen.de/ppdf/2021_11_19_Hans-Erlwein-Gymnasiums_Dresden.pdf,20.11.2021 bis 26.11.2021,2021-11-20 00:00:00,['2021-11-26 00:00:00'],False,"Eibenstocker Str. 30, 01277 Dresden, Deutschland",51.0378195,13.7937648
59. Grundschule „Jürgen Reichen“ Dresden in Dresden,2021-11-19,befristet teilweise geschlossen,https://www.smk.sachsen.de/ppdf/2021_11_19_59_Grundschule_Reichen.pdf,20.11.2021 bis 01.12.2021,2021-11-20 00:00:00,['2021-01-12 00:00:00'],False,"Kurparkstraße 12, 01324 Dresden, Deutschland",51.0638516,13.8297264
129. Grundschule Dresden in Dresden,2021-11-19,befristet teilweise geschlossen,https://www.smk.sachsen.de/ppdf/2021_11_19_129_Grundschule_Dresden.pdf,20.11.2021 bis 26.11.2021,2021-11-20 00:00:00,['2021-11-26 00:00:00'],False,"Otto-Dix-Ring 57, 01219 Dresden, Deutschland",51.0180995,13.7765949
84. Grundschule Dresden „In der Gartenstadt“ in Dresden,2021-11-19,befristet teilweise geschlossen,https://www.smk.sachsen.de/ppdf/2021_11_19_84_Grundschule_Dresden.pdf,20.11.2021 bis 26.11.2021,2021-11-20 00:00:00,['2021-11-26 00:00:00'],False,"Heinrich-Tessenow-Weg 28, 01109 Dresden, Deutschland",51.1134097,13.7557601
Grundschule Weixdorf in Dresden,2021-11-19,befristet teilweise geschlossen,https://www.smk.sachsen.de/ppdf/2021_11_19_Grundschule_Weixdorf.pdf,20.11.2021 bis 26.11.2021,2021-11-20 00:00:00,['2021-11-26 00:00:00'],False,"Am Zollhaus 1, 01108 Dresden, Deutschland",51.14753,13.80317
16. Grundschule Dresden „Josephine“ in Dresden,2021-11-19,befristet vollständig geschlossen,https://www.smk.sachsen.de/ppdf/21_11_19_16_GS_Dresden_Josephine.pdf,22.11.2021 bis 26.11.2021,2021-11-22 00:00:00,['2021-11-26 00:00:00'],False,"Josephinenstraße 6, 01069 Dresden, Deutschland",51.04527,13.72957
Gymnasium Linkselbisch-Ost Dresden in Dresden,2021-11-19,befristet teilweise geschlossen,https://www.smk.sachsen.de/ppdf/21_11_19_Gymnasium_Linkselbisch_Ost.pdf,20.11.2021 bis 26.11.2021,2021-11-20 00:00:00,['2021-11-26 00:00:00'],False,"Berthelsdorfer Weg 2, 01279 Dresden, Deutschland",51.03211,13.8122
47. Grundschule Dresden in Dresden,2021-11-19,befristet teilweise geschlossen,https://www.smk.sachsen.de/ppdf/2021_11_19_47_Grundschule_Dresden.pdf,22.11.2021 bis 01.12.2021,2021-11-22 00:00:00,['2021-01-12 00:00:00'],False,"Mockritzer Str. 19, 01219 Dresden, Deutschland",51.02384,13.76169
4. Grundschule Dresden „Am Rosengarten“ in Dresden,2021-11-18,Widerruf,https://www.smk.sachsen.de/ppdf/21_11_18_4_GS_Dresden_Widerruf.pdf,19.11.2021,2021-11-19 00:00:00,2021-11-19 00:00:00,False,"Löwenstraße 2, 01099 Dresden, Deutschland",51.0616237,13.7599201
Pestalozzi-Gymnasium Dresden in Dresden,2021-11-18,befristet teilweise geschlossen,https://www.smk.sachsen.de/ppdf/21_11_18_Pestalozzi_Gymnasium_DD.pdf,19.11.2021 bis 26.11.2021,2021-11-19 00:00:00,['2021-11-26 00:00:00'],False,"Pestalozzipl. 22, 01127 Dresden, Deutschland",51.0796444,13.732667
44. Grundschule Dresden in Dresden,2021-11-18,befristet vollständig geschlossen,https://www.smk.sachsen.de/ppdf/2021_11_18_GS_44_Dresden.pdf,20.11.2021 bis 26.11.2021,2021-11-20 00:00:00,['2021-11-26 00:00:00'],False,"Salbachstraße 10, 01279 Dresden, Deutschland",51.0324839,13.8228209
108. Grundschule „Sonnenblumenschule“ in Dresden,2021-11-18,befristet teilweise geschlossen,https://www.smk.sachsen.de/ppdf/2021_11_18_108_GS_DD.pdf,19.11.2021 bis 26.11.2021,2021-11-19 00:00:00,['2021-11-26 00:00:00'],False,"Hepkestraße 28, 01309 Dresden, Deutschland",51.0377795,13.7840508
Oberschule Weißig in Dresden,2021-11-18,befristet teilweise geschlossen,https://www.smk.sachsen.de/ppdf/2021_11_18_OS_Weissig.pdf,19.11.2021 bis 26.11.2021,2021-11-19 00:00:00,['2021-11-26 00:00:00'],False,"Gönnsdorfer Weg 1, 01328 Dresden, Deutschland",51.0584588,13.883973
47. Grundschule Dresden in Dresden,2021-11-18,befristet teilweise geschlossen,https://www.smk.sachsen.de/ppdf/21_11_18_47_GS_Dresden.pdf,19.11.2021 bis 26.11.2021,2021-11-19 00:00:00,['2021-11-26 00:00:00'],False,"Mockritzer Str. 19, 01219 Dresden, Deutschland",51.02384,13.76169
"Berufliches Schulzentrum für Dienstleistung, Gestaltung und Sozialwesen Dresden in Dresden",2021-11-18,befristet teilweise geschlossen,https://www.smk.sachsen.de/ppdf/21_11_18_BSZ_Dresden.pdf,19.11.2021 bis 26.11.2021,2021-11-19 00:00:00,['2021-11-26 00:00:00'],False,"Chemnitzer Str. 83, 01187 Dresden, Deutschland",51.0325305,13.7114892
"63. Grundschule Dresden ""Johann Gottlieb Naumann"" in Dresden",2021-11-18,befristet teilweise geschlossen,https://www.smk.sachsen.de/ppdf/2021_11_18_63_Grundschule_Dresden.pdf,19.11.2021 bis 21.11.2021,2021-11-19 00:00:00,['2021-11-21 00:00:00'],False,"Wägnerstraße 24-26, 01309 Dresden, Deutschland",51.0487124,13.8040732
75. Grundschule Dresden in Dresden,2021-11-18,befristet vollständig geschlossen,https://www.smk.sachsen.de/ppdf/2021_11_18_75_GS_DD.pdf,19.11.2021 bis 26.11.2021,2021-11-19 00:00:00,['2021-11-26 00:00:00'],False,"Warthaer Str. 60, 01157 Dresden, Deutschland",51.05975,13.66767
Schule zur Lernförderung – Förderzentrum Makarenko in Dresden,2021-11-18,befristet teilweise geschlossen,https://www.smk.sachsen.de/ppdf/2021_11_18_Foerderzentrum_Makarenko.pdf,20.11.2021 bis 26.11.2021,2021-11-20 00:00:00,['2021-11-26 00:00:00'],False,"Leisniger Str. 76, 01127 Dresden, Deutschland",51.0825365,13.7220184
Grundschule Naußlitz in Dresden,2021-11-18,befristet vollständig geschlossen,https://www.smk.sachsen.de/ppdf/2021_11_18_GS_Nausslitz.pdf,19.11.2021 bis 26.11.2021,2021-11-19 00:00:00,['2021-11-26 00:00:00'],False,"Saalhausener Str. 61, 01159 Dresden, Deutschland",51.03569,13.6812
32. Oberschule Dresden in Dresden,2021-11-18,befristet teilweise geschlossen,https://www.smk.sachsen.de/ppdf/21_11_18_32_OS_Dresden.pdf,19.11.2021 bis 26.11.2021,2021-11-19 00:00:00,['2021-11-26 00:00:00'],False,"Kipsdorfer Str. 153, 01279 Dresden, Deutschland",51.03477239999999,13.8152402
35. Grundschule Dresden „Heinrich Graf von Bünau“ in Dresden,2021-11-18,befristet vollständig geschlossen,https://www.smk.sachsen.de/ppdf/21_11_18_35_GS_Dresden.pdf,22.11.2021 bis 26.11.2021,2021-11-22 00:00:00,['2021-11-26 00:00:00'],False,"Bünaustraße 12, 01159 Dresden, Deutschland",51.0418305,13.6986805
144. Grundschule Dresden in Dresden,2021-11-18,befristet vollständig geschlossen,https://www.smk.sachsen.de/ppdf/21_11_18_144_GS_Dresden.pdf,19.11.2021 bis 23.11.2021,2021-11-19 00:00:00,['2021-11-23 00:00:00'],False,"Micktner Str. 10, 01139 Dresden, Deutschland",51.0805768,13.7084972
Oberschule Dresden-Pieschen in Dresden,2021-11-18,befristet vollständig geschlossen,https://www.smk.sachsen.de/ppdf/21_11_18_OS_Pieschen.pdf,19.11.2021 bis 26.11.2021,2021-11-19 00:00:00,['2021-11-26 00:00:00'],False,"Erfurter Str. 17, 01127 Dresden, Deutschland",51.072224,13.7326764
4. Grundschule Dresden „Am Rosengarten“ in Dresden,2021-11-18,befristet vollständig geschlossen,https://www.smk.sachsen.de/ppdf/21_11_21_4_GS_Dresden.pdf,19.11.2021 bis 26.11.2021,2021-11-19 00:00:00,['2021-11-26 00:00:00'],False,"Löwenstraße 2, 01099 Dresden, Deutschland",51.0616237,13.7599201
Berufliches Schulzentrum für Gesundheit und Sozialwesen „Karl August Lingner“ Dresden in Dresden,2021-11-18,befristet teilweise geschlossen,https://www.smk.sachsen.de/ppdf/21_11_18_BSZ_Karl_August_Lingner.pdf,18.11.2021 bis 24.11.2021,2021-11-18 00:00:00,['2021-11-24 00:00:00'],False,"Maxim-Gorki-Straße 39, 01127 Dresden, Deutschland",51.08852,13.7321399
47. Grundschule Dresden in Dresden,2021-11-16,befristet teilweise geschlossen,https://www.smk.sachsen.de/ppdf/21_11_16_47_GS_DD.pdf,18.11.2021 bis 26.11.2021,2021-11-18 00:00:00,['2021-11-26 00:00:00'],False,"Mockritzer Str. 19, 01219 Dresden, Deutschland",51.02384,13.76169
122. Grundschule „Am Palitzschhof“ Dresden in Dresden,2021-11-16,befristet vollständig geschlossen,https://www.smk.sachsen.de/ppdf/21_11_16_AV_GS_Palitzschhof_Dresden.pdf,18.11.2021 bis 24.11.2021,2021-11-18 00:00:00,['2021-11-24 00:00:00'],False,"Gamigstraße 30, 01239 Dresden, Deutschland",51.0068999,13.7906919
120. Grundschule „Am Geberbach“ Dresden in Dresden,2021-11-16,befristet vollständig geschlossen,https://www.smk.sachsen.de/ppdf/21_11_16_120_GS_Dresden.pdf,18.11.2021 bis 26.11.2021,2021-11-18 00:00:00,['2021-11-26 00:00:00'],False,"Trattendorfer Str. 1, 01239 Dresden, Deutschland",51.01039,13.79914
43. Grundschule Dresden „Thomas Müntzer“ in Dresden,2021-11-16,befristet teilweise geschlossen,https://www.smk.sachsen.de/ppdf/21_11_16_AV_43_GS_Dresden.pdf,18.11.2021 bis 26.11.2021,2021-11-18 00:00:00,['2021-11-26 00:00:00'],False,"Riegelpl. 2, 01139 Dresden, Deutschland",51.0829692,13.6869111
Oberschule Dresden-Pieschen in Dresden,2021-11-16,befristet teilweise geschlossen,https://www.smk.sachsen.de/ppdf/21_11_16_OS_Pieschen.pdf,18.11.2021 bis 19.11.2021,2021-11-18 00:00:00,['2021-11-19 00:00:00'],False,"Erfurter Str. 17, 01127 Dresden, Deutschland",51.072224,13.7326764
4. Grundschule Dresden „Am Rosengarten“ in Dresden,2021-11-16,befristet teilweise geschlossen,https://www.smk.sachsen.de/ppdf/21_11_16_4_GS_Dresden.pdf,18.11.2021 bis 26.11.2021,2021-11-18 00:00:00,['2021-11-26 00:00:00'],False,"Löwenstraße 2, 01099 Dresden, Deutschland",51.0616237,13.7599201
76. Oberschule Dresden in Dresden,2021-11-16,befristet teilweise geschlossen,https://www.smk.sachsen.de/ppdf/21_11_16_76_OS_Dresden.pdf,18.11.2021 bis 24.11.2021,2021-11-18 00:00:00,['2021-11-24 00:00:00'],False,"Merbitzer Str. 9, 01157 Dresden, Deutschland",51.0665051,13.6712307
39. Grundschule Dresden in Dresden,2021-11-16,befristet vollständig geschlossen,https://www.smk.sachsen.de/ppdf/21_11_16_39_GS_DD.pdf,18.11.2021 bis 24.11.2021,2021-11-18 00:00:00,['2021-11-24 00:00:00'],False,"Schleiermacherstraße 8, 01187 Dresden, Deutschland",51.0282893,13.7036414
71. Grundschule Dresden „Am Kaitzbach“ in Dresden,2021-11-15,befristet vollständig geschlossen,https://www.smk.sachsen.de/ppdf/21_11_15_71_Grundschule_Dresden2.pdf,16.11.2021 bis 24.11.2021,2021-11-16 00:00:00,['2021-11-24 00:00:00'],False,"Franzweg 4, 01217 Dresden, Deutschland",51.014971,13.729148
26. Grundschule Dresden „Am Markusplatz“ in Dresden,2021-11-15,befristet vollständig geschlossen,https://www.smk.sachsen.de/ppdf/21_11_15_26_GS_DD2.pdf,16.11.2021 bis 23.11.2021,2021-11-16 00:00:00,['2021-11-23 00:00:00'],False,"Osterbergstraße 22, 01127 Dresden, Deutschland",51.0780517,13.7218857
Oberschule Weißig in Dresden,2021-11-15,befristet teilweise geschlossen,https://www.smk.sachsen.de/ppdf/21_11_15_OS_Weißig.pdf,16.11.2021 bis 26.11.2021,2021-11-16 00:00:00,['2021-11-26 00:00:00'],False,"Gönnsdorfer Weg 1, 01328 Dresden, Deutschland",51.0584588,13.883973
43. Grundschule Dresden „Thomas Müntzer“ in Dresden,2021-11-15,befristet teilweise geschlossen,https://www.smk.sachsen.de/ppdf/15_11_2021_43_GS_Dresden.pdf,16.11.2021 bis 23.11.2021,2021-11-16 00:00:00,['2021-11-23 00:00:00'],False,"Riegelpl. 2, 01139 Dresden, Deutschland",51.0829692,13.6869111
Grundschule Klaffenbach in Chemnitz,2021-11-25,befristet vollständig geschlossen,https://www.smk.sachsen.de/ppdf/2021_11_25_Grundschule_Klaffenbach.pdf,26.11.2021 bis 08.12.2021,2021-11-26 00:00:00,['2021-08-12 00:00:00'],False,"Klaffenbacher Hauptstraße 85, 09123 Chemnitz, Deutschland",50.7618208,12.9133558
Grundschule Kleinolbersdorf in Chemnitz,2021-11-25,befristet vollständig geschlossen,https://www.smk.sachsen.de/ppdf/21_11_25_GS_Kleinolbersdorf.pdf,26.11.2021 bis 03.12.2021,2021-11-26 00:00:00,['2021-03-12 00:00:00'],False,"Ferdinandstraße 97, 09128 Chemnitz, Deutschland",50.800936,13.0192335
Grundschule Ebersdorf in Chemnitz,2021-11-25,befristet teilweise geschlossen,https://www.smk.sachsen.de/ppdf/2021_11_25_Grundschule_Ebersdorf.pdf,26.11.2021 bis 03.12.2021,2021-11-26 00:00:00,['2021-03-12 00:00:00'],False,"Lichtenauer Str. 45, 09131 Chemnitz, Deutschland",50.8764493,12.970747
Schlossgrundschule Chemnitz in Chemnitz,2021-11-25,befristet vollständig geschlossen,https://www.smk.sachsen.de/ppdf/21_11_25_Schlossschule_Chemnitz.pdf,27.11.2021 bis 01.12.2021,2021-11-27 00:00:00,['2021-01-12 00:00:00'],False,"Küchwaldstraße 4, 09113 Chemnitz, Deutschland",50.84702,12.9134101
Johann-Wolfgang-von-Goethe-Gymnasium Chemnitz in Chemnitz,2021-11-24,befristet teilweise geschlossen,https://www.smk.sachsen.de/ppdf/21_11_24_Goethe_Gymnasium_Chemnitz.pdf,25.11.2021 bis 03.12.2021,2021-11-25 00:00:00,['2021-03-12 00:00:00'],False,"Bernsdorfer Str. 126, 09126 Chemnitz, Deutschland",50.81607640000001,12.9421191
Evangelisches Schulzentrum Chemnitz in Chemnitz,2021-11-24,befristet teilweise geschlossen,https://www.smk.sachsen.de/ppdf/2021_11_24_Ev_Schulzentrum_Chemnitz.pdf,25.11.2021 bis 30.11.2021,2021-11-25 00:00:00,['2021-11-30 00:00:00'],False,"Ludwig-Richter-Straße 21, 09131 Chemnitz, Deutschland",50.8532678,12.9493231
Albert-Schweitzer-Oberschule Chemnitz in Chemnitz,2021-11-24,befristet teilweise geschlossen,https://www.smk.sachsen.de/ppdf/2021_11_24_OS_Schweitzer_Chemnitz.pdf,25.11.2021 bis 02.12.2021,2021-11-25 00:00:00,['2021-02-12 00:00:00'],False,"Albert-Köhler-Straße 48, 09122 Chemnitz, Deutschland",50.79299959999999,12.8889563
Charles-Darwin-Grundschule in Chemnitz,2021-11-23,befristet vollständig geschlossen,https://www.smk.sachsen.de/ppdf/2021_11_23_GS_Charles_Darwin_Chemnitz.pdf,25.11.2021 bis 03.12.2021,2021-11-25 00:00:00,['2021-03-12 00:00:00'],False,"Alfred-Neubert-Straße 25, 09123 Chemnitz, Deutschland",50.7841266,12.9018116
Evangelisches Schulzentrum Chemnitz in Chemnitz,2021-11-23,befristet teilweise geschlossen,https://www.smk.sachsen.de/ppdf/21_11_23_Evangelisches_Schulzentrum_Chemnitz.pdf.pdf,24.11.2021 bis 26.11.2021,2021-11-24 00:00:00,['2021-11-26 00:00:00'],False,"Ludwig-Richter-Straße 21, 09131 Chemnitz, Deutschland",50.8532678,12.9493231
Grundschule Altendorf in Chemnitz OT Altendorf,2021-11-22,befristet vollständig geschlossen,https://www.smk.sachsen.de/ppdf/21_11_22_GS_Altendorf.pdf,23.11.2021 bis 26.11.2021,2021-11-23 00:00:00,['2021-11-26 00:00:00'],False,"Ernst-Heilmann-Straße 11, 09116 Chemnitz, Deutschland",50.8326232,12.8843336
Kirchner-Grundschule Chemnitz in Chemnitz,2021-11-22,befristet teilweise geschlossen,https://www.smk.sachsen.de/ppdf/2021_11_22_Kirchner_GS_Chemnitz.pdf,23.11.2021 bis 03.12.2021,2021-11-23 00:00:00,['2021-03-12 00:00:00'],False,"Chemnitzer Str. 2, 09228 Chemnitz, Deutschland",50.8809631,12.8696851
Schlossgrundschule Chemnitz in Chemnitz,2021-11-22,befristet vollständig geschlossen,https://www.smk.sachsen.de/ppdf/21_11_22_Schloss_GS_Chemnitz.pdf,23.11.2021 bis 26.11.2021,2021-11-23 00:00:00,['2021-11-26 00:00:00'],False,"Küchwaldstraße 4, 09113 Chemnitz, Deutschland",50.84702,12.9134101
Berufliches Schulzentrum für Wirtschaft II Chemnitz in Chemnitz,2021-11-22,befristet teilweise geschlossen,https://www.smk.sachsen.de/ppdf/21_11_22_BSZ_Wirtschaft_II_Chemnitz.pdf,23.11.2021 bis 03.12.2021,2021-11-23 00:00:00,['2021-03-12 00:00:00'],False,"Kanzlerstraße 9, 09112 Chemnitz, Deutschland",50.83232,12.90565
Grundschule Reichenbrand in Chemnitz OT Reichenbrand,2021-11-16,befristet vollständig geschlossen,https://www.smk.sachsen.de/ppdf/21_11_16_GS_Reichenbrand.pdf,18.11.2021 bis 24.11.2021,2021-11-18 00:00:00,['2021-11-24 00:00:00'],False,"Lennestraße 1, 09117 Chemnitz, Deutschland",50.81142,12.82487
Johann- Heinrich- Pestalozzi- Schule - Förderzentrum mit dem Förderschwerpunkt Lernen der Stadt Leipzig in Leipzig,2021-11-26,befristet teilweise geschlossen,https://www.smk.sachsen.de/ppdf/21_11_26_FS_Pestalozzi_Leipzig.pdf,29.11.2021 bis 06.12.2021,2021-11-29 00:00:00,['2021-06-12 00:00:00'],True,"Hannoversche Str. 2, 04157 Leipzig, Deutschland",51.3748382,12.3635868
Wilhelm-Busch-Schule - Grundschule der Stadt Leipzig in Leipzig,2021-11-26,befristet teilweise geschlossen,https://www.smk.sachsen.de/ppdf/2021_11_26_Wilhelm_Busch_Schule_Grundschule_Leipzig.pdf,27.11.2021 bis 03.12.2021,2021-11-27 00:00:00,['2021-03-12 00:00:00'],True,"Heinrichstraße 43, 04317 Leipzig, Deutschland",51.33607,12.40083
"Leibnizschule, Gymnasium der Stadt Leipzig, in Leipzig",2021-11-25,befristet teilweise geschlossen,https://www.smk.sachsen.de/ppdf/21_11_25_Leibnizgymnasium_Leipzig.pdf,26.11.2021 bis 03.12.2021,2021-11-26 00:00:00,['2021-03-12 00:00:00'],False,"Nordpl. 13, 04105 Leipzig, Deutschland",51.35217429999999,12.3750167
Gymnasium Engelsdorf in Leipzig,2021-11-25,befristet teilweise geschlossen,https://www.smk.sachsen.de/ppdf/2021_11_25_GY_Engelsdorf.pdf,29.11.2021 bis 07.12.2021,2021-11-29 00:00:00,['2021-07-12 00:00:00'],False,"Arthur-Winkler-Straße 6, 04319 Leipzig, Deutschland",51.3351465,12.4811229
Schule Grünau - Förderzentrum mit dem Förderschwerpunkt Lernen der Stadt Leipzig in Leipzig,2021-11-25,befristet teilweise geschlossen,https://www.smk.sachsen.de/ppdf/21_11_25_FZ_Lernen_Gruenau_Leipzig.pdf,29.11.2021 bis 10.12.2021,2021-11-29 00:00:00,['2021-10-12 00:00:00'],False,"Miltitzer Weg 1, 04205 Leipzig, Deutschland",51.32149560000001,12.2655266
90. Schule - Grundschule der Stadt Leipzig in Leipzig,2021-11-25,befristet vollständig geschlossen,https://www.smk.sachsen.de/ppdf/2021_11_25_90_Grundschule_der_Stadt_Leipzig.pdf,26.11.2021 bis 03.12.2021,2021-11-26 00:00:00,['2021-03-12 00:00:00'],False,"Garskestraße 21, 04205 Leipzig, Deutschland",51.326379,12.2872895
Förderzentrum Samuel Heinicke Leipzig in Leipzig,2021-11-25,befristet teilweise geschlossen,https://www.smk.sachsen.de/ppdf/2021_11_25_FZ_Samuel_Heinicke_Leipzig.pdf,26.11.2021 bis 03.12.2021,2021-11-26 00:00:00,['2021-03-12 00:00:00'],False,"Karl-Siegismund-Straße 2, 04317 Leipzig, Deutschland",51.3280406,12.398327
Theodor-Körner-Schule - Grundschule der Stadt Leipzig in Leipzig,2021-11-25,befristet vollständig geschlossen,https://www.smk.sachsen.de/ppdf/2021_11_25_Theodor_Koerner_Schule_Leipzig.pdf,26.11.2021 bis 09.12.2021,2021-11-26 00:00:00,['2021-09-12 00:00:00'],False,"Schlehenweg 32, 04329 Leipzig, Deutschland",51.3528967,12.464912
8. Schule - Grundschule der Stadt Leipzig in Leipzig,2021-11-24,befristet teilweise geschlossen,https://www.smk.sachsen.de/ppdf/21_11_24_8_GS_Leipzig.pdf,25.11.2021 bis 03.12.2021,2021-11-25 00:00:00,['2021-03-12 00:00:00'],False,"Wincklerstraße 3/5, 04279 Leipzig, Deutschland",51.2863867,12.3958073
"Adolph-Diesterweg-Schule, Förderzentrum mit dem Förderschwerpunkt Lernen der Stadt Leipzig, in Leipzig",2021-11-24,befristet teilweise geschlossen,https://www.smk.sachsen.de/ppdf/21_11_24_Adolph_Diesterweg_Schule.pdf,26.11.2021 bis 10.12.2021,2021-11-26 00:00:00,['2021-10-12 00:00:00'],False,"Portitzer Str. 1, 04318 Leipzig, Deutschland",51.34432700000001,12.4253548
Schule am Grünen Gleis - Grundschule der Stadt Leipzig in Leipzig OT Kleinzschocher,2021-11-24,befristet vollständig geschlossen,https://www.smk.sachsen.de/ppdf/2021_11_24_GS_am_Gruenen_Gleis_Leipzig.pdf,27.11.2021 bis 10.12.2021,2021-11-27 00:00:00,['2021-10-12 00:00:00'],False,"Baumannstraße 13, 04229 Leipzig, Deutschland",51.3179037,12.3237382
Schule Seehausen - Grundschule der Stadt Leipzig in Leipzig,2021-11-23,befristet teilweise geschlossen,https://www.smk.sachsen.de/ppdf/2021_11_23_GS_Seehausen_Leipzig.pdf,24.11.2021 bis 26.11.2021,2021-11-24 00:00:00,['2021-11-26 00:00:00'],False,"Stahmelner Str. 1, 04159 Leipzig, Deutschland",51.3731681,12.3213291
Erich-Zeigner-Schule – Grundschule der Stadt Leipzig in Leipzig,2021-11-23,befristet vollständig geschlossen,https://www.smk.sachsen.de/ppdf/21_11_23_Erich_Zeigner_GS_Leipzig.pdf,25.11.2021 bis 03.12.2021,2021-11-25 00:00:00,['2021-03-12 00:00:00'],False,"Erich-Zeigner-Allee 24, 04229 Leipzig, Deutschland",51.3299277,12.3396535
Heinrich-Mann-Schule - Grundschule der Stadt Leipzig in Leipzig,2021-11-22,befristet teilweise geschlossen,https://www.smk.sachsen.de/ppdf/21_11_22_Heinrich_Mann_GS_Leipzig.pdf,23.11.2021 bis 26.11.2021,2021-11-23 00:00:00,['2021-11-26 00:00:00'],False,"Franzosenallee 21, 04289 Leipzig, Deutschland",51.3020986,12.4361014
Schule Portitz – Grundschule der Stadt Leipzig in Leipzig,2021-11-19,befristet vollständig geschlossen,https://www.smk.sachsen.de/ppdf/2021_11_19_Schule_Portitz_Leipzig.pdf,20.11.2021 bis 26.11.2021,2021-11-20 00:00:00,['2021-11-26 00:00:00'],False,"Göbschelwitzer Weg 1, 04349 Leipzig, Deutschland",51.3872025,12.4538704
85. Schule – Grundschule der Stadt Leipzig in Leipzig,2021-11-19,befristet vollständig geschlossen,https://www.smk.sachsen.de/ppdf/2021_11_19_85_Schule_Leipzig.pdf,20.11.2021 bis 26.11.2021,2021-11-20 00:00:00,['2021-11-26 00:00:00'],False,"Stuttgarter Allee 3, 04209 Leipzig, Deutschland",51.3140909,12.2918854
DPFA-Regenbogen-Grundschule Leipzig in Leipzig,2021-11-19,befristet vollständig geschlossen,https://www.smk.sachsen.de/ppdf/21_11_19_DPFA_Regenbogen_GS.pdf,20.11.2021 bis 26.11.2021,2021-11-20 00:00:00,['2021-11-26 00:00:00'],False,"Raschwitzer Str. 15, 04279 Leipzig, Deutschland",51.2952307,12.3849095
120. Schule - Grundschule der Stadt Leipzig,2021-11-18,befristet teilweise geschlossen,https://www.smk.sachsen.de/ppdf/21_11_18_120_GS_Leipzig.pdf,19.11.2021 bis 26.11.2021,2021-11-19 00:00:00,['2021-11-26 00:00:00'],False,"Martin-Herrmann-Straße 1, 04249 Leipzig, Deutschland",51.307737,12.3226035
Fanny-Hensel-Schule - Grundschule der Stadt Leipzig in Leipzig,2021-11-18,befristet vollständig geschlossen,https://www.smk.sachsen.de/ppdf/21_11_18_Fanny_Hensel_Schule.pdf,19.11.2021 bis 26.11.2021,2021-11-19 00:00:00,['2021-11-26 00:00:00'],False,"Weißenfelser Str. 13, 04229 Leipzig, Deutschland",51.33044599999999,12.3394508
Schule am Addis-Abeba-Platz - Grundschule der Stadt Leipzig in Leipzig,2021-11-18,befristet teilweise geschlossen,https://www.smk.sachsen.de/ppdf/21_11_18_Schule_am_Addis_Abeba_Platz.pdf,19.11.2021 bis 26.11.2021,2021-11-19 00:00:00,['2021-11-26 00:00:00'],False,"Addis-Abeba-Platz 1, 04103 Leipzig, Deutschland",51.3338602,12.3796802
Schule am Grünen Gleis - Grundschule der Stadt Leipzig in Leipzig OT Kleinzschocher,2021-11-18,befristet vollständig geschlossen,https://www.smk.sachsen.de/ppdf/2021_11_18_Gruenen_Gleis.pdf,19.11.2021 bis 26.11.2021,2021-11-19 00:00:00,['2021-11-26 00:00:00'],False,"Baumannstraße 13, 04229 Leipzig, Deutschland",51.3179037,12.3237382
Lessingschule - Grundschule der Stadt Leipzig in Leipzig,2021-11-18,eingeschränkter Regelbetrieb,https://www.smk.sachsen.de/ppdf/21_11_18_Lessing_GS_Leipzig.pdf,19.11.2021 bis 03.12.2021,2021-11-19 00:00:00,['2021-03-12 00:00:00'],False,"Lessingstraße 25-27, 04109 Leipzig, Deutschland",51.342102,12.3626895
Hans-Kroch-Schule - Grundschule der Stadt Leipzig in Leipzig,2021-11-18,befristet vollständig geschlossen,https://www.smk.sachsen.de/ppdf/2021_11_18_Hans-Kroch-Schule_Leipzig.pdf,19.11.2021 bis 26.11.2021,2021-11-19 00:00:00,['2021-11-26 00:00:00'],False,"Jörgen-Schmidtchen-Weg 8, 04157 Leipzig, Deutschland",51.38013,12.3626001
100. Schule – Grundschule der Stadt Leipzig in Leipzig,2021-11-18,befristet vollständig geschlossen,https://www.smk.sachsen.de/ppdf/21_11_18_100_GS_Leipzig.pdf,19.11.2021 bis 24.11.2021,2021-11-19 00:00:00,['2021-11-24 00:00:00'],False,"Miltitzer Allee 1, 04207 Leipzig, Deutschland",51.3046922,12.2682755
Franz-Mehring-Schule – Grundschule der Stadt Leipzig in Leipzig,2021-11-16,befristet teilweise geschlossen,https://www.smk.sachsen.de/ppdf/21_11_16_GS_Franz_Mehring_Leipzig.pdf,18.11.2021 bis 26.11.2021,2021-11-18 00:00:00,['2021-11-26 00:00:00'],False,"Gletschersteinstraße 9, 04299 Leipzig, Deutschland",51.31636,12.42544
Schule Portitz – Grundschule der Stadt Leipzig in Leipzig,2021-11-16,befristet teilweise geschlossen,https://www.smk.sachsen.de/ppdf/21_11_16_GS_Portitz_Leipzig.pdf,18.11.2021 bis 24.11.2021,2021-11-18 00:00:00,['2021-11-24 00:00:00'],False,"Göbschelwitzer Weg 1, 04349 Leipzig, Deutschland",51.3872025,12.4538704
Erich-Zeigner-Schule - Grundschule der Stadt Leipzig in Leipzig,2021-11-16,befristet vollständig geschlossen,https://www.smk.sachsen.de/ppdf/21_11_16_Zeigner_Leipzig.pdf,18.11.2021 bis 24.11.2021,2021-11-18 00:00:00,['2021-11-24 00:00:00'],False,"Erich-Zeigner-Allee 24, 04229 Leipzig, Deutschland",51.3299277,12.3396535
Freie Schule Weißenberg - Oberschule in Weißenberg,2021-11-26,befristet teilweise geschlossen,https://www.smk.sachsen.de/ppdf/21_11_26_Freie_Schule_Weissenberg.pdf,29.11.2021 bis 05.12.2021,2021-11-29 00:00:00,['2021-05-12 00:00:00'],True,"Reichenbacher Str. 2, 02627 Weißenberg, Deutschland",51.1955665,14.6645459
ABC Grundschule Neschwitz in Neschwitz,2021-11-26,befristet teilweise geschlossen,https://www.smk.sachsen.de/ppdf/21_11_26_ABC_GS_Neschwitz.pdf,29.11.2021 bis 03.12.2021,2021-11-29 00:00:00,['2021-03-12 00:00:00'],True,"Kastanienallee 9, 02699 Neschwitz, Deutschland",51.271393,14.3239064
Dr.-Salvador-Allende-Oberschule Bautzen in Bautzen,2021-11-26,befristet teilweise geschlossen,https://www.smk.sachsen.de/ppdf/21_11_26_Dr_Salvador_Allende_OS.pdf,27.11.2021 bis 03.12.2021,2021-11-27 00:00:00,['2021-03-12 00:00:00'],True,"Dr.-Salvador-Allende-Straße 52, 02625 Bautzen, Deutschland",51.1762548,14.4480425
Oberschule Malschwitz in Malschwitz,2021-11-25,befristet teilweise geschlossen,https://www.smk.sachsen.de/ppdf/2021_11_25_OS_Malschwitz.pdf,26.11.2021 bis 03.12.2021,2021-11-26 00:00:00,['2021-03-12 00:00:00'],False,"Guttauer Landstraße 17, 02694 Malschwitz, Deutschland",51.2377589,14.522081
"Grundschule ""Friedrich Schiller"" in Cunewalde",2021-11-25,befristet teilweise geschlossen,https://www.smk.sachsen.de/ppdf/2021_11_25_Grundschule_Friedrich_Schiller.pdf,26.11.2021 bis 03.12.2021,2021-11-26 00:00:00,['2021-03-12 00:00:00'],False,"Oberlausitzer Str. 21, 02733 Cunewalde, Deutschland",51.096698,14.482171
Grundschule Königswartha in Königswartha,2021-11-25,befristet teilweise geschlossen,https://www.smk.sachsen.de/ppdf/2021_11_25_GS_Koenigswartha.pdf,26.11.2021 bis 03.12.2021,2021-11-26 00:00:00,['2021-03-12 00:00:00'],False,"Nordstraße 5, 02699 Königswartha, Deutschland",51.3140337,14.3298463
Humboldt-Gymnasium Radeberg in Radeberg,2021-11-25,befristet teilweise geschlossen,https://www.smk.sachsen.de/ppdf/2021_11_25_Humboldt_Gymnasium_Radeberg.pdf,26.11.2021 bis 03.12.2021,2021-11-26 00:00:00,['2021-03-12 00:00:00'],False,"Freudenberg 9, 01454 Radeberg, Deutschland",51.115981,13.9198346
Ferdinand-Sauerbruch-Gymnasium Großröhrsdorf in Großröhrsdorf,2021-11-24,befristet vollständig geschlossen,https://www.smk.sachsen.de/ppdf/2021_11_24_Ferdinand_Sauerbruch_Gymnasium_Großroehrsdorf.pdf,25.11.2021 bis 03.12.2021,2021-11-25 00:00:00,['2021-03-12 00:00:00'],False,"Melanchthonstraße 21, 01900 Großröhrsdorf, Deutschland",51.1432234,14.0287766
Grundschule Ottendorf-Okrilla in Ottendorf-Okrilla,2021-11-24,befristet teilweise geschlossen,https://www.smk.sachsen.de/ppdf/21_11_24_GS_Ottendorf_Okrilla.pdf,25.11.2021 bis 01.12.2021,2021-11-25 00:00:00,['2021-01-12 00:00:00'],False,"Radeburger Str. 23A, 01458 Ottendorf-Okrilla, Deutschland",51.1834542,13.8249274
"Freie Schule Weißenberg, Oberschule in Weißenberg",2021-11-24,befristet teilweise geschlossen,https://www.smk.sachsen.de/ppdf/21_11_24_Freie_Schule_Weissenberg.pdf,25.11.2021 bis 03.12.2021,2021-11-25 00:00:00,['2021-03-12 00:00:00'],False,"Reichenbacher Str. 2, 02627 Weißenberg, Deutschland",51.1955665,14.6645459
Grundschule Schönteichen in Kamenz,2021-11-24,befristet teilweise geschlossen,https://www.smk.sachsen.de/ppdf/21_11_24_GS_Schoenteichen_Kamenz.pdf,25.11.2021 bis 03.12.2021,2021-11-25 00:00:00,['2021-03-12 00:00:00'],False,"Am Schlosspark 2A, 01920 Kamenz, Deutschland",51.2804708,14.0344754
Gottlieb-Daimler-Oberschule Bautzen in Bautzen,2021-11-24,befristet vollständig geschlossen,https://www.smk.sachsen.de/ppdf/2021_11_24_G_Daimler_Oberschule_Bautzen.pdf,29.11.2021 bis 10.12.2021,2021-11-29 00:00:00,['2021-10-12 00:00:00'],False,"Daimlerstraße 6, 02625 Bautzen, Deutschland",51.1780317,14.4084236
Grundschule Großröhrsdorf – Praßlerschule in Großröhrsdorf,2021-11-24,befristet vollständig geschlossen,https://www.smk.sachsen.de/ppdf/2021_11_24_GS_Grossroehrsdorf.pdf,27.11.2021 bis 07.12.2021,2021-11-27 00:00:00,['2021-07-12 00:00:00'],False,"Lutherstraße 21, 01900 Großröhrsdorf, Deutschland",51.1430815,14.0201203
Grundschule Malschwitz in Malschwitz OT Baruth,2021-11-24,befristet vollständig geschlossen,https://www.smk.sachsen.de/ppdf/21_11_24_GS_Malschwitz.pdf,29.11.2021 bis 02.12.2021,2021-11-29 00:00:00,['2021-02-12 00:00:00'],False,"Am Park 3, 02694 Malschwitz, Deutschland",51.22276000000001,14.59003
Grundschule Medingen „Sonnenblumenschule“ in Ottendorf-Okrilla OT Medingen,2021-11-24,befristet teilweise geschlossen,https://www.smk.sachsen.de/ppdf/21_11_24_GS_Medingen_Sonnenblumenschule.pdf,25.11.2021 bis 01.12.2021,2021-11-25 00:00:00,['2021-01-12 00:00:00'],False,"Weixdorfer Str. 23, 01458 Ottendorf-Okrilla, Deutschland",51.1787259,13.7881935
Ernst-Rietschel-Oberschule Pulsnitz in Pulsnitz,2021-11-23,befristet teilweise geschlossen,https://www.smk.sachsen.de/ppdf/21_11_23_Ernst_Rietschel_OS_Pulsnitz.pdf,24.11.2021 bis 30.11.2021,2021-11-24 00:00:00,['2021-11-30 00:00:00'],False,"Kühnstraße 1, 01896 Pulsnitz, Deutschland",51.1848227,14.0202802
Frédéric-Joliot-Curie-Grundschule Bautzen in Bautzen,2021-11-23,befristet teilweise geschlossen,https://www.smk.sachsen.de/ppdf/21_11_23_Frederic_Juliot_Curie_GS_Bautzen.pdf,24.11.2021 bis 03.12.2021,2021-11-24 00:00:00,['2021-03-12 00:00:00'],False,"Frederic-Joliot-Curie-Straße 65, 02625 Bautzen, Deutschland",51.19004,14.44518
Grundschule Steinigtwolmsdorf in Steinigtwolmsdorf,2021-11-22,befristet vollständig geschlossen,https://www.smk.sachsen.de/ppdf/21_11_22_GS_Steinigtwolmsdorf.pdf,23.11.2021 bis 03.12.2021,2021-11-23 00:00:00,['2021-03-12 00:00:00'],False,"Neustädter Str. 1, 01904 Steinigtwolmsdorf, Deutschland",51.0626065,14.3435353
Grundschule Haselbachtal in Haselbachtal,2021-11-22,befristet teilweise geschlossen,https://www.smk.sachsen.de/ppdf/21_11_22_GS_Haselbachtal.pdf,23.11.2021 bis 30.11.2021,2021-11-23 00:00:00,['2021-11-30 00:00:00'],False,"Niedergersdorfer Str. 43, 01920 Haselbachtal, Deutschland",51.22728,14.0584297
Pestalozzioberschule Radeberg Oberschule in Radeberg,2021-11-22,befristet vollständig,https://www.smk.sachsen.de/ppdf/2021_11_22_OS_Pesta_Radeberg.pdf,23.11.2021 bis 03.12.2021,2021-11-23 00:00:00,['2021-03-12 00:00:00'],False,"Pestalozzistraße 1, 01454 Radeberg, Deutschland",51.1139898,13.9198239
Grundschule Leppersdorf in Wachau OT Leppersdorf,2021-11-22,befristet teilweise geschlossen,https://www.smk.sachsen.de/ppdf/2021_11_22_GS_Leppersdorf.pdf,23.11.2021 bis 03.12.2021,2021-11-23 00:00:00,['2021-03-12 00:00:00'],False,"Alte Hauptstraße 12, 01454 Wachau, Deutschland",51.1520389,13.9599341
Sorbisches Gymnasium Bautzen in Bautzen,2021-11-22,befristet teilweise geschlossen,https://www.smk.sachsen.de/ppdf/2021_11_22_GY_Sorb_Bautzen.pdf,23.11.2021 bis 26.11.2021,2021-11-23 00:00:00,['2021-11-26 00:00:00'],False,"Friedrich-List-Straße 8, 02625 Bautzen, Deutschland",51.18642,14.43491
"Grundschule ""Geschwister Scholl"" Goldbach in Bischofswerda OT Goldbach",2021-11-22,befristet vollständig geschlossen,https://www.smk.sachsen.de/ppdf/2021_11_22_GS_Goldbach.pdf,23.11.2021 bis 26.11.2021,2021-11-23 00:00:00,['2021-11-26 00:00:00'],False,"Goldbacher Str. 26, 01877 Bischofswerda, Deutschland",51.120544,14.1423758
Berufliches Schulzentrum „Konrad Zuse“ Hoyerswerda in Hoyerswerda,2021-11-22,befristet teilweise geschlossen,https://www.smk.sachsen.de/ppdf/2021_11_22_BSZ_K_Zuse_Hoyerswerda.pdf,23.11.2021 bis 26.11.2021,2021-11-23 00:00:00,['2021-11-26 00:00:00'],False,"Käthe-Kollwitz-Straße 5, 02977 Hoyerswerda, Deutschland",51.45594,14.264312
Grundschule Oberlichtenau in Pulsnitz,2021-11-22,befristet teilweise geschlossen,https://www.smk.sachsen.de/ppdf/21_11_22_GS_Oberlichtenau.pdf,23.11.2021 bis 03.11.2021,2021-11-23 00:00:00,['2021-03-11 00:00:00'],False,"Keulenbergstraße 6, 01896 Pulsnitz, Deutschland",51.22134,13.9887401
Lessing-Grundschule Großpostwitz in Großpostwitz,2021-11-22,befristet teilweise geschlossen,https://www.smk.sachsen.de/ppdf/21_11_22_GS_Grosspostwitz.pdf,23.11.2021 bis 02.12.2021,2021-11-23 00:00:00,['2021-02-12 00:00:00'],False,"Cosuler Str. 4, 02692 Großpostwitz/Oberlausitz, Deutschland",51.1183,14.44668
Philipp-Melanchthon-Gymnasium Bautzen in Bautzen,2021-11-22,befristet teilweise geschlossen,https://www.smk.sachsen.de/ppdf/2021_11_22_PhilippMelanchthon_Gym_Bautzen.pdf,23.11.2021 bis 03.12.2021,2021-11-23 00:00:00,['2021-03-12 00:00:00'],False,"Bahnhofstraße 2, 02625 Bautzen, Deutschland",51.17665,14.4288101
Schiller-Gymnasium Bautzen in Bautzen,2021-11-22,befristet teilweise geschlossen,https://www.smk.sachsen.de/ppdf/2021_11_22_Schiller_Gym_Bautzen.pdf,23.11.2021 bis 30.11.2021,2021-11-23 00:00:00,['2021-11-30 00:00:00'],False,"Schilleranlagen 2, 02625 Bautzen, Deutschland",51.17654,14.4250356
Grundschule Großröhrsdorf Praßerschule in Großröhrsdorf,2021-11-19,befristet vollständig geschlossen,https://www.smk.sachsen.de/ppdf/2021_11_19_GS_Prasserschule.pdf,20.11.2021 bis 26.11.2021,2021-11-20 00:00:00,['2021-11-26 00:00:00'],False,"Lutherstraße 21, 01900 Großröhrsdorf, Deutschland",51.1430815,14.0201203
Max-Militzer-Grundschule Bautzen in Bautzen,2021-11-19,befristet teilweise geschlossen,https://www.smk.sachsen.de/ppdf/2021_11_19_GS_Militzer.pdf,20.11.2021 bis 26.11.2021,2021-11-20 00:00:00,['2021-11-26 00:00:00'],False,"Hanns-Eisler-Straße 10, 02625 Bautzen, Deutschland",51.1741798,14.4515437
Ferdinand-Sauerbruch-Gymnasium Großröhrsdorf in Großröhrsdorf,2021-11-19,befristet teilweise geschlossen,https://www.smk.sachsen.de/ppdf/2021_11_19_Ferdinand-Sauerbruch-Gymnasiums_Grossroehrsdorf.pdf,20.11.2021 bis 26.11.2021,2021-11-20 00:00:00,['2021-11-26 00:00:00'],False,"Melanchthonstraße 21, 01900 Großröhrsdorf, Deutschland",51.1432234,14.0287766
WIR - Freie Oberschule Bernsdorf in Bernsdorf,2021-11-19,befristet vollständig geschlossen,https://www.smk.sachsen.de/ppdf/21_11_19_OS_Bernsdorf.pdf,20.11.2021 bis 30.11.2021,2021-11-20 00:00:00,['2021-11-30 00:00:00'],False,"Alte Schulstraße 3, 02994 Bernsdorf, Deutschland",51.3699716,14.0634502
Grundschule Süd Bischofswerda in Bischofswerda,2021-11-19,befristet vollständig geschlossen,https://www.smk.sachsen.de/ppdf/21_11_19_GS_Sued_Bischofswerda.pdf,22.11.2021 bis 30.11.2021,2021-11-22 00:00:00,['2021-11-30 00:00:00'],False,"Ernst-Thälmann-Straße 2, 01877 Bischofswerda, Deutschland",51.1200223,14.1928584
Grundschule Kirchstraße Bischofswerda in Bischofswerda,2021-11-19,befristet vollständig geschlossen,https://www.smk.sachsen.de/ppdf/21_11_19_GS_Kirchstrasse.pdf,20.11.2021 bis 26.11.2021,2021-11-20 00:00:00,['2021-11-26 00:00:00'],False,"Kirchstraße 27, 01877 Bischofswerda, Deutschland",51.13049849999999,14.1831749
Grundschule „Hans Coppi“ Lauta in Lauta,2021-11-19,befristet teilweise geschlossen,https://www.smk.sachsen.de/ppdf/21_11_19_GS_Hans_Coppi_Lauta.pdf,22.11.2021 bis 26.11.2021,2021-11-22 00:00:00,['2021-11-26 00:00:00'],False,"Hans-Sachs-Straße 20, 02991 Lauta, Deutschland",51.4430018,14.0845949
Bewegte Grundschule Hermsdorf in Ottendorf-Okrilla,2021-11-19,befristet teilweise geschlossen,https://www.smk.sachsen.de/ppdf/21_11_19_Bewegte_GS_Hermsdorf.pdf,22.11.2021 bis 24.11.2021,2021-11-22 00:00:00,['2021-11-24 00:00:00'],False,"Else-Sommer-Straße 5, 01458 Ottendorf-Okrilla, Deutschland",51.1679913,13.8230527
Gottlieb-Daimler-Oberschule Bautzen,2021-11-18,befristet teilweise geschlossen,https://www.smk.sachsen.de/ppdf/21_11_18_Daimler_OS_Bautzen.pdf,19.11.2021 bis 26.11.2021,2021-11-19 00:00:00,['2021-11-26 00:00:00'],False,"Daimlerstraße 6, 02625 Bautzen, Deutschland",51.1780317,14.4084236
Sorbische Oberschule Ralbitz in Ralbitz-Rosenthal,2021-11-18,befristet vollständig geschlossen,https://www.smk.sachsen.de/ppdf/21_11_18_Sorbische_OS_Ralbitz.pdf,19.11.2021 bis 26.11.2021,2021-11-19 00:00:00,['2021-11-26 00:00:00'],False,"Truppener Str. 1, 01920 Ralbitz-Rosenthal, Deutschland",51.3024,14.25005
Grundschule „Friedrich Schiller“ Cunewalde in Cunewalde,2021-11-18,befristet teilweise geschlossen,https://www.smk.sachsen.de/ppdf/21_11_18_GS_Cunewalde.pdf,19.11.2021 bis 26.11.2021,2021-11-19 00:00:00,['2021-11-26 00:00:00'],False,"Oberlausitzer Str. 21, 02733 Cunewalde, Deutschland",51.096698,14.482171
Grundschule Malschwitz in Malschwitz OT Baruth,2021-11-18,befristet vollständig geschlossen,https://www.smk.sachsen.de/ppdf/21_11_18_GS_Malschwitz.pdf,20.11.2021 bis 26.11.2021,2021-11-20 00:00:00,['2021-11-26 00:00:00'],False,"Am Park 3, 02694 Malschwitz, Deutschland",51.22276000000001,14.59003
Grundschule Schirgiswalde „Goetheschule“ in Schirgiswalde-Kirschau,2021-11-18,befristet teilweise geschlossen,https://www.smk.sachsen.de/ppdf/21_11_18_GS_Schirgiswalde.pdf,20.11.2021 bis 26.11.2021,2021-11-20 00:00:00,['2021-11-26 00:00:00'],False,"Kirchberg 7, 02681 Schirgiswalde-Kirschau, Deutschland",51.0791042,14.43041
Philipp-Melanchthon Gymnasium Bautzen in Bautzen,2021-11-18,befristet teilweise geschlossen,https://www.smk.sachsen.de/ppdf/2021_11_18_Melanchthon-Gymnasium_Bautzen.pdf,19.11.2021 bis 26.11.2021,2021-11-19 00:00:00,['2021-11-26 00:00:00'],False,"Bahnhofstraße 2, 02625 Bautzen, Deutschland",51.17665,14.4288101
Gotthold-Ephraim-Lessing-Gymnasium Kamenz in Kamenz,2021-11-18,befristet vollständig geschlossen,https://www.smk.sachsen.de/ppdf/21_11_18_Lessing_Gymnasium_Kamenz.pdf,20.11.2021 bis 26.11.2021,2021-11-20 00:00:00,['2021-11-26 00:00:00'],False,"Macherstraße 146, 01917 Kamenz, Deutschland",51.2899953,14.1143767
Frédéric-Joliot-Curie-Grundschule Bautzen in Bautzen,2021-11-16,befristet teilweise geschlossen,https://www.smk.sachsen.de/ppdf/21_11_16_GS_Curie_BZ.pdf,18.11.2021 bis 26.11.2021,2021-11-18 00:00:00,['2021-11-26 00:00:00'],False,"Frederic-Joliot-Curie-Straße 65, 02625 Bautzen, Deutschland",51.19004,14.44518
Grundschule Ottendorf-Okrilla in Ottendorf-Okrilla,2021-11-16,befristet teilweise geschlossen,https://www.smk.sachsen.de/ppdf/21_11_16_GS_Ottendorf_Okrilla.pdf,18.11.2021 bis 24.11.2021,2021-11-18 00:00:00,['2021-11-24 00:00:00'],False,"Radeburger Str. 23A, 01458 Ottendorf-Okrilla, Deutschland",51.1834542,13.8249274
Humboldt-Gymnasium in Radeberg,2021-11-15,befristet teilweise geschlossen,https://www.smk.sachsen.de/ppdf/15_11_2021_Humboldt_Gym_Radeberg.pdf,16.11.2021 bis 23.11.2021,2021-11-16 00:00:00,['2021-11-23 00:00:00'],False,"Freudenberg 9, 01454 Radeberg, Deutschland",51.115981,13.9198346
Frédéric-Joliot-Curie-Grundschule Bautzen in Bautzen,2021-11-12,eingeschränkter Regelbetrieb,https://www.smk.sachsen.de/ppdf/21_11_12_AV_Frederic-Joliot-Curie.pdf,13.11.2021 bis 26.11.2021,2021-11-13 00:00:00,['2021-11-26 00:00:00'],False,"Frederic-Joliot-Curie-Straße 65, 02625 Bautzen, Deutschland",51.19004,14.44518
Grundschule Sehmatal in Sehmatal-Neudorf,2021-11-26,befristet teilweise geschlossen,https://www.smk.sachsen.de/ppdf/2021_11_26_GS_Sehmatal.pdf,29.11.2021 bis 05.12.2021,2021-11-29 00:00:00,['2021-05-12 00:00:00'],True,"Siedlung 3, 09465 Sehmatal, Deutschland",50.48611,12.9708301
Grundschule Crottendorf in Crottendorf,2021-11-26,befristet teilweise geschlossen,https://www.smk.sachsen.de/ppdf/2021_11_26_Grundschule_Crottendorf.pdf,27.11.2021 bis 08.12.2021,2021-11-27 00:00:00,['2021-08-12 00:00:00'],True,"Annaberger Str. 266, 09474 Crottendorf, Deutschland",50.5056178,12.9376153
"Bildungszentrum Adam Ries, Oberschule in Annaberg-Buchholz",2021-11-26,befristet teilweise geschlossen,https://www.smk.sachsen.de/ppdf/2021_11_26_OS_Adam_Ries_AnnabergB.pdf,27.11.2021 bis 03.12.2021,2021-11-27 00:00:00,['2021-03-12 00:00:00'],True,"Oberer Kirchpl. 1, 09456 Annaberg-Buchholz, Deutschland",50.5783405,13.0057991
Grundschule Antonsthal in Breitenbrunn OT Antonsthal,2021-11-25,befristet teilweise geschlossen,https://www.smk.sachsen.de/ppdf/2021_11_25_GS_Antonsthal.pdf,26.11.2021 bis 03.12.2021,2021-11-26 00:00:00,['2021-03-12 00:00:00'],False,"Bergstraße 3, 08359 Breitenbrunn/Erzgebirge, Deutschland",50.4982,12.7617301
Oberschule Aue Zelle in Aue,2021-11-25,befristet teilweise geschlossen,https://www.smk.sachsen.de/ppdf/2021_11_25_OS_Aue_Zelle.pdf,26.11.2021 bis 03.12.2021,2021-11-26 00:00:00,['2021-03-12 00:00:00'],False,"Agricolastraße 5, 08280 Aue-Bad Schlema, Deutschland",50.59332999999999,12.70492
Grundschule Schlettau in Schlettau,2021-11-25,befristet teilweise geschlossen,https://www.smk.sachsen.de/ppdf/2021_11_25_Grundschule_Schlettau.pdf,26.11.2021 bis 03.12.2021,2021-11-26 00:00:00,['2021-03-12 00:00:00'],False,"Beutengraben 1, 09487 Schlettau, Deutschland",50.5585691,12.9528769
Grundschule Stützengrün in Stützengrün,2021-11-25,befristet teilweise geschlossen,https://www.smk.sachsen.de/ppdf/21_11_25_GS_Stuetzengruen.pdf,29.11.2021 bis 03.12.2021,2021-11-29 00:00:00,['2021-03-12 00:00:00'],False,"Schulstraße 43, 08328 Stützengrün, Deutschland",50.5249416,12.5326501
"Grundschule ""Samuel von Pufendorf"" Zwönitz in Zwönitz OT Dorfchemnitz",2021-11-25,befristet teilweise geschlossen,https://www.smk.sachsen.de/ppdf/2021_11_25_GS_Pufendorf_Zwoenitz.pdf,26.11.2021 bis 03.12.2021,2021-11-26 00:00:00,['2021-03-12 00:00:00'],False,"08297 Zwönitz, Deutschland",50.6663889,12.8362614
Grundschule Lauterbach in Marienberg OT Lauterbach,2021-11-24,befristet teilweise geschlossen,https://www.smk.sachsen.de/ppdf/2021_11_24_Grundschule_Lauterbach.pdf,25.11.2021 bis 03.12.2021,2021-11-25 00:00:00,['2021-03-12 00:00:00'],False,"An den Kirchen 1, 09496 Marienberg, Deutschland",50.6778317,13.1775446
Geschwister-Scholl-Oberschule Schönheide in Schönheide,2021-11-24,befristet teilweise geschlossen,https://www.smk.sachsen.de/ppdf/21_11_24_Geschwister_Scholl_OS_Schoenheide.pdf,25.11.2021 bis 26.11.2021,2021-11-25 00:00:00,['2021-11-26 00:00:00'],False,"Hauptstraße 70, 08304 Schönheide, Deutschland",50.5025776,12.5313503
"Oberschule ""Johann Heinrich Pestalozzi"" in Annaberg-Buchholz",2021-11-24,befristet teilweise geschlossen,https://www.smk.sachsen.de/ppdf/2021_11_24_OS_Pesta_Annaberg.pdf,26.11.2021 bis 03.12.2021,2021-11-26 00:00:00,['2021-03-12 00:00:00'],False,"Schlettauer Str. 7, 09456 Annaberg-Buchholz, Deutschland",50.5670216,12.995113
Förderzentrum Annaberg mit den Förderschwerpunkten Lernen und Sprache in Annaberg-Buchholz,2021-11-24,befristet teilweise geschlossen,https://www.smk.sachsen.de/ppdf/2021_11_24_FZ_Annaberg.pdf,25.11.2021 bis 03.12.2021,2021-11-25 00:00:00,['2021-03-12 00:00:00'],False,"Adam-Ries-Straße 18, 09456 Annaberg-Buchholz, Deutschland",50.5864755,13.0113738
Grundschule Mildenau in Mildenau,2021-11-24,befristet vollständig geschlossen,https://www.smk.sachsen.de/ppdf/21_11_24_GS_Mildenau.pdf,25.11.2021 bis 03.12.2021,2021-11-25 00:00:00,['2021-03-12 00:00:00'],False,"Allee 4, 09456 Mildenau, Deutschland",50.5954398,13.0673126
Grundschule „Johann Wolfgang von Goethe“ in Olbernhau,2021-11-24,befristet teilweise geschlossen,https://www.smk.sachsen.de/ppdf/21_11_24_Goethe_GS_Olbernhau.pdf,25.11.2021 bis 03.12.2021,2021-11-25 00:00:00,['2021-03-12 00:00:00'],False,"Grünthaler Str. 14, 09526 Olbernhau, Deutschland",50.66049,13.33794
"Berufliches Schulzentrum für Ernährung, Technik und Wirtschaft des Erzgebirgskreises in Annaberg-Buchholz",2021-11-24,befristet teilweise geschlossen,https://www.smk.sachsen.de/ppdf/21_11_24_BSZ_ETW_Erzgebirge.pdf,25.11.2021 bis 03.12.2021,2021-11-25 00:00:00,['2021-03-12 00:00:00'],False,"Bärensteiner Str. 2, 09456 Annaberg-Buchholz, Deutschland",50.5727773,13.0020873
"Bildungszentrum Adam Ries, Oberschule in Annaberg-Buchholz",2021-11-24,befristet teilweise geschlossen,https://www.smk.sachsen.de/ppdf/2021_11_24_OS_Adam_Ries_Annaberg.pdf,25.11.2021 bis 03.12.2021,2021-11-25 00:00:00,['2021-03-12 00:00:00'],False,"Oberer Kirchpl. 1, 09456 Annaberg-Buchholz, Deutschland",50.5783405,13.0057991
Turley-Oberschule Oelsnitz in Oelsnitz/Erzgeb.,2021-11-24,befristet teilweise geschlossen,https://www.smk.sachsen.de/ppdf/21_11_24_Turley_Oberschule_Oelsnitz.pdf,25.11.2021 bis 03.12.2021,2021-11-25 00:00:00,['2021-03-12 00:00:00'],False,"Turleyring 37, 09376 Oelsnitz/Erzgebirge, Deutschland",50.7245879,12.7246893
Berufsfachschule und Fachschule für Sozialwesen in Aue-Bad Schlema,2021-11-24,befristet teilweise geschlossen,https://www.smk.sachsen.de/ppdf/2021_11_24_Berufsfachschule_und_Fachschule_fuer_Sozialwesen_Aue.pdf,25.11.2021 bis 03.12.2021,2021-11-25 00:00:00,['2021-03-12 00:00:00'],False,"Hammerpl. 2, 08280 Aue-Bad Schlema, Deutschland",50.5815314,12.6859052
"Stadtschule Schwarzenberg, Oberschule in Schwarzenberg/Erzgebirge",2021-11-24,befristet teilweise geschlossen,https://www.smk.sachsen.de/ppdf/21_11_24_OS_Schwarzenberg.pdf,25.11.2021 bis 01.12.2021,2021-11-25 00:00:00,['2021-01-12 00:00:00'],False,"Erlaer Str. 6, 08340 Schwarzenberg/Erzgebirge, Deutschland",50.53646,12.78184
Landkreis-Gymnasium St. Annen – Schulteil Oberwiesenthal (Eliteschule des Wintersports) in Oberwiesenthal,2021-11-22,befristet teilweise geschlossen,https://www.smk.sachsen.de/ppdf/2021_11_22_GY_St_Annen_Oberwiesenthal.pdf,23.11.2021 bis 26.11.2021,2021-11-23 00:00:00,['2021-11-26 00:00:00'],False,"Dr.-Jäger-Straße 2, 09484 Oberwiesenthal, Deutschland",50.4273377,12.9727812
Grundschule Bärenstein in Bärenstein,2021-11-22,befristet teilweise geschlossen,https://www.smk.sachsen.de/ppdf/2021_11_22_Grundschule_Baerenstein.pdf,23.11.2021 bis 30.11.2021,2021-11-23 00:00:00,['2021-11-30 00:00:00'],False,"Max-Harnisch-Straße 6, 09471 Bärenstein, Deutschland",50.49701,13.02407
Matthes-Enderlein-Gymnasium Zwönitz in Zwönitz,2021-11-23,befristet teilweise geschlossen,https://www.smk.sachsen.de/ppdf/21_11_23_Matthes_Enderlein_Gymnasium.pdf,24.11.2021 bis 01.12.2021,2021-11-24 00:00:00,['2021-01-12 00:00:00'],False,"Matthes-Enderlein-Straße 2, 08297 Zwönitz, Deutschland",50.6336939,12.8088764
Grundschule Burkhardtsdorf in Burkhardtsdorf,2021-11-23,Widerruf zur befristeten teilweisen Schließung,https://www.smk.sachsen.de/ppdf/21_11_23_GS_Burkhardtsdorf_Widerruf.pdf,24.11.2021,2021-11-24 00:00:00,2021-11-24 00:00:00,False,"Am Markt 6, 09235 Burkhardtsdorf, Deutschland",50.7348733,12.9206478
Grundschule Burkhardtsdorf in Burkhardtsdorf,2021-11-23,befristet vollständig geschlossen,https://www.smk.sachsen.de/ppdf/21_11_23_GS_Burkhardtsdorf.pdf,24.11.2021 bis 03.12.2021,2021-11-24 00:00:00,['2021-03-12 00:00:00'],False,"Am Markt 6, 09235 Burkhardtsdorf, Deutschland",50.7348733,12.9206478
"Förderzentrum „Johann Heinrich Pestalozzi“ Marienberg, Schule mit dem Förderschwerpunkt Lernen, in Marienberg",2021-11-23,befristet teilweise geschlossen,https://www.smk.sachsen.de/ppdf/21_11_23_FZ_Pestalozzi_Marienberg.pdf,24.11.2021 bis 03.12.2021,2021-11-24 00:00:00,['2021-03-12 00:00:00'],False,"Zschopauer Str. 52B, 09496 Marienberg, Deutschland",50.6552534,13.1579494
Schule des Friedens Grundschule in Oelsnitz/Erzgebirge,2021-11-23,befristet teilweise geschlossen,https://www.smk.sachsen.de/ppdf/2021_11_23_GS_Schule_des_Friedens_Oelsnitz.pdf,24.11.2021 bis 03.12.2021,2021-11-24 00:00:00,['2021-03-12 00:00:00'],False,"Oberwürschnitzer Str. 19, 09376 Oelsnitz/Erzgebirge, Deutschland",50.7086,12.73405
Evangelischen Oberschule Burkhardtsdorf in Burkhardtsdorf,2021-11-23,befristet vollständig geschlossen,https://www.smk.sachsen.de/ppdf/21_11_23_OS_Burkhardtsdorf.pdf,24.11.2021 bis 03.12.2021,2021-11-24 00:00:00,['2021-03-12 00:00:00'],False,"Am Markt 15, 09235 Burkhardtsdorf, Deutschland",50.7353965,12.9212838
Grundschule Auerbach in Auerbach,2021-11-22,befristet vollständig geschlossen,https://www.smk.sachsen.de/ppdf/2021_11_22_Grundschule_Auerbach_Erzgebirgs.pdf,23.11.2021 bis 03.12.2021,2021-11-23 00:00:00,['2021-03-12 00:00:00'],False,"Hauptstraße 87A, 09392 Auerbach, Deutschland",50.68703,12.91385
Oberschule Olbernhau in Olbernhau,2021-11-22,befristet teilweise geschlossen,https://www.smk.sachsen.de/ppdf/2021_11_22_OS Olbernhau.pdf,23.11.2021 bis 26.11.2021,2021-11-23 00:00:00,['2021-11-26 00:00:00'],False,"Albertstraße 23, 09526 Olbernhau, Deutschland",50.658299,13.3394908
Heinrich-Heine-Oberschule in Lauter-Bernsbach,2021-11-22,befristet teilweise geschlossen,https://www.smk.sachsen.de/ppdf/21_11_22_Heinrich_Heine_OS_Lauter_Bernsbach.pdf,23.11.2021 bis 30.11.2021,2021-11-23 00:00:00,['2021-11-30 00:00:00'],False,"Hermann-Uhlig-Platz 2, 08315 Lauter-Bernsbach, Deutschland",50.5601484,12.7359893
Grundschule „Johann Wolfgang von Goethe“ Zwönitz in Zwönitz,2021-11-22,befristet teilweise geschlossen,https://www.smk.sachsen.de/ppdf/21_11_22_Johann_Wolfgang_von_Goethe.pdf,23.11.2021 bis 03.12.2021,2021-11-23 00:00:00,['2021-03-12 00:00:00'],False,"Matthes-Enderlein-Straße 1, 08297 Zwönitz, Deutschland",50.6336144,12.8080428
Grundschule Crottendorf in Crottendorf,2021-11-22,befristet teilweise geschlossen,https://www.smk.sachsen.de/ppdf/21_11_22_GS_Crottendorf.pdf,gestaffelt 23.11.2021 bis 03.12.2021,,['2021-03-12 00:00:00'],False,"Annaberger Str. 266, 09474 Crottendorf, Deutschland",50.5056178,12.9376153
„Glück auf“ – Oberschule Eibenstock in Eibenstock,2021-11-22,befristet teilweise geschlossen,https://www.smk.sachsen.de/ppdf/2021_11_22_OS_Eibenstock.pdf,23.11.2021 bis 03.12.2021,2021-11-23 00:00:00,['2021-03-12 00:00:00'],False,"Schulstraße 1, 08309 Eibenstock, Deutschland",50.4951869,12.5967201
Oberschule Aue-Zelle in Aue,2021-11-22,befristet teilweise geschlossen,https://www.smk.sachsen.de/ppdf/21_11_22_OS_Aue_Zelle.pdf,23.11.2021 bis 26.11.2021,2021-11-23 00:00:00,['2021-11-26 00:00:00'],False,"Agricolastraße 5, 08280 Aue-Bad Schlema, Deutschland",50.59332999999999,12.70492
Oberschule des Bildungszentrums Adam Ries in Annaberg-Buchholz,2021-11-22,befristet teilweise geschlossen,https://www.smk.sachsen.de/ppdf/2021_11_22_OS_Bildungszentrum_Adam_Ries_in_Annaberg_Buchholz.pdf,23.11.2021 bis 26.11.2021,2021-11-23 00:00:00,['2021-11-26 00:00:00'],False,"Oberer Kirchpl. 1, 09456 Annaberg-Buchholz, Deutschland",50.5783405,13.0057991
Oberschule „August Bebel“ in Zschopau,2021-11-22,befristet teilweise geschlossen,https://www.smk.sachsen.de/ppdf/2021_11_22_OS_A_Bebel_Zschopau.pdf,23.11.2021 bis 03.12.2021,2021-11-23 00:00:00,['2021-03-12 00:00:00'],False,"Neckarsulmer Ring 17, 09405 Zschopau, Deutschland",50.75532399999999,13.0670389
Grundschule Grünhain-Beierfeld in Grünfeld-Beierfeld,2021-11-22,befristet teilweise geschlossen,https://www.smk.sachsen.de/ppdf/2021_11_22_GS_Gruenhain_Beierfeld.pdf,23.11.2021 bis 26.11.2021,2021-11-23 00:00:00,['2021-11-26 00:00:00'],False,"Pestalozzistraße 1, 08344 Grünhain-Beierfeld, Deutschland",50.56321430000001,12.7866904
Grundschule Lengefeld in Pockau-Lengefeld,2021-11-22,befristet vollständig geschlossen,https://www.smk.sachsen.de/ppdf/21_11_22_GS_Lengefeld.pdf,23.11.2021 bis 03.12.2021,2021-11-23 00:00:00,['2021-03-12 00:00:00'],False,"Schulstraße 9, 09514 Pockau-Lengefeld, Deutschland",50.7183083,13.1976807
Grundschule Burkhardtsdorf in Burkhardtsdorf,2021-11-19,befristet teilweise geschlossen,https://www.smk.sachsen.de/ppdf/2021_11_19_Grundschule_Burkhardtsdorf.pdf,20.11.2021 bis 26.11.2021,2021-11-20 00:00:00,['2021-11-26 00:00:00'],False,"Am Markt 6, 09235 Burkhardtsdorf, Deutschland",50.7348733,12.9206478
Freie Schule Erzgebirgsblick Gelenau in Gelenau,2021-11-19,befristet teilweise geschlossen,https://www.smk.sachsen.de/ppdf/21_11_19_Freie_Schule_Erzgebirgsblick.pdf,20.11.2021 bis 26.11.2021,2021-11-20 00:00:00,['2021-11-26 00:00:00'],False,"Str. d. Einheit 79, 09423 Gelenau/Erzgeb., Deutschland",50.71241699999999,12.980485
Grundschule Schlettau in Schlettau,2021-11-19,befristet teilweise geschlossen,https://www.smk.sachsen.de/ppdf/2021_11_19_GS_Schlettau.pdf,20.11.2021 bis 26.11.2021,2021-11-20 00:00:00,['2021-11-26 00:00:00'],False,"Beutengraben 1, 09487 Schlettau, Deutschland",50.5585691,12.9528769
Grundschule Geyer in Geyer,2021-11-19,befristet vollständig geschlossen,https://www.smk.sachsen.de/ppdf/21_11_19_GS_Geyer.pdf,22.11.2021 bis 26.11.2021,2021-11-22 00:00:00,['2021-11-26 00:00:00'],False,"Ehrenfriedersdorfer Str. 11, 09468 Geyer, Deutschland",50.6251127,12.9253257
Oberschule Bergstadt Schneeberg in Schneeberg,2021-11-19,befristet teilweise geschlossen,https://www.smk.sachsen.de/ppdf/21_11_19_OS_Bergstadt_Schneeberg.pdf,22.11.2021 bis 26.11.2021,2021-11-22 00:00:00,['2021-11-26 00:00:00'],False,"Marienstraße 2A, 08289 Schneeberg, Deutschland",50.5818928,12.6345716
Oberschule des Bildungszentrums Adam-Ries in Annaberg-Buchholz,2021-11-19,befristet teilweise geschlossen,https://www.smk.sachsen.de/ppdf/2021_11_19_OS_Adam-Ries_Annaberg-Buchholz.pdf,20.11.2021 bis 26.11.2021,2021-11-20 00:00:00,['2021-11-26 00:00:00'],False,"Oberer Kirchpl. 1, 09456 Annaberg-Buchholz, Deutschland",50.5783405,13.0057991
Evangelischen Schulzentrums Leukersdorf in Jahnsdorf/Leukersdorf,2021-11-19,befristet teilweise geschlossen,https://www.smk.sachsen.de/ppdf/2021_11_19_Evangelisches_Schulzentrum_Leukersdorf.pdf,20.11.2021 bis 26.11.2021,2021-11-20 00:00:00,['2021-11-26 00:00:00'],False,"Schulstraße 8, 09387 Jahnsdorf/Erzgeb, Deutschland",50.768181,12.811454
Förderzentrum „Johann Heinrich Pestalozzi“ mit dem Förderschwerpunkt Lernen in Marienberg,2021-11-18,befristet teilweise geschlossen,https://www.smk.sachsen.de/ppdf/2021_11_18_FZ _Pestalozzi_Marienberg.pdf,19.11.2021 bis 26.11.2021,2021-11-19 00:00:00,['2021-11-26 00:00:00'],False,"Turnvater-Jahn-Weg 6, 09496 Marienberg, Deutschland",50.6546521,13.1626656
Oberschule Grünhain-Beierfeld in Grünhain-Beierfeld,2021-11-18,befristet vollständig geschlossen,https://www.smk.sachsen.de/ppdf/21_11_18_OS_Gruenhain_Beierfeld.pdf,19.11.2021 bis 26.11.2021,2021-11-19 00:00:00,['2021-11-26 00:00:00'],False,"Pestalozzistraße 1, 08344 Grünhain-Beierfeld, Deutschland",50.56321430000001,12.7866904
Friedrich-Fröbel-Grundschule in Annaberg-Buchholz,2021-11-16,befristet teilweise geschlossen,https://www.smk.sachsen.de/ppdf/21_11_18_GS_Friedrich_Froebel.pdf,18.11.2021 bis 26.11.2021,2021-11-18 00:00:00,['2021-11-26 00:00:00'],False,"Schulgasse 2, 09456 Annaberg-Buchholz, Deutschland",50.566335,12.9964374
Grundschule Stützengrün in Stützengrün,2021-11-16,befristet vollständig geschlossen,https://www.smk.sachsen.de/ppdf/21_11_16_GS_Stuetzengruen.pdf,18.11.2021 bis 26.11.2021,2021-11-18 00:00:00,['2021-11-26 00:00:00'],False,"Schulstraße 43, 08328 Stützengrün, Deutschland",50.5249416,12.5326501
Oberschule am Steegenwald Lugau in Lugau/ Erzgebirge,2021-11-16,befristet vollständig geschlossen,https://www.smk.sachsen.de/ppdf/21_11_16_AV_OS_Lugau.pdf,18.11.2021 bis 26.11.2021,2021-11-18 00:00:00,['2021-11-26 00:00:00'],False,"Sallauminer Str. 88, 09385 Lugau/Erzgeb., Deutschland",50.74003219999999,12.7506873
Förderzentrum „Am Bergbaumuseum“ in Oelsnitz/ Erzgebirge,2021-11-16,befristet teilweise geschlossen,https://www.smk.sachsen.de/ppdf/21_11_16_AV_FS_Oelsnitz.pdf,18.11.2021 bis 26.11.2021,2021-11-18 00:00:00,['2021-11-26 00:00:00'],False,"Turleyring 39, 09376 Oelsnitz/Erzgebirge, Deutschland",50.7241059,12.7250157
Grundschule Gornsdorf in Gornsdorf,2021-11-15,befristet vollständig geschlossen,https://www.smk.sachsen.de/ppdf/21_11_15_GS_Gornsdorf.pdf,16.11.2021 bis 24.11.2021,2021-11-16 00:00:00,['2021-11-24 00:00:00'],False,"Hauptstraße 78a, 09390 Gornsdorf, Deutschland",50.7085941,12.8844283
Landau-Gymnasium Weißwasser in Weißwasser,2021-11-24,befristet teilweise geschlossen,https://www.smk.sachsen.de/ppdf/21_11_24_Landau_Gymnasium_Weisswasser.pdf,25.11.2021 bis 01.12.2021,2021-11-25 00:00:00,['2021-01-12 00:00:00'],False,"Ziegelstraße 2, 02943 Weißwasser/Oberlausitz, Deutschland",51.5045716,14.6330339
Oberschule „Geschwister Scholl“ Krauschwitz in Krauschwitz,2021-11-23,befristet teilweise geschlossen,https://www.smk.sachsen.de/ppdf/2021_11_23_OS_Geschwister_Scholl_Krauschwitz.pdf,24.11.2021 bis 30.11.2021,2021-11-24 00:00:00,['2021-11-30 00:00:00'],False,"Geschwister-Scholl-Straße 99, 02957 Krauschwitz, Deutschland",51.52117,14.70717
Christian-Weise-Gymnasium Zittau in Zittau,2021-11-23,befristet teilweise geschlossen,https://www.smk.sachsen.de/ppdf/2021_11_23_Christian_Weise_Gym_Zittau.pdf,24.11.2021 bis 03.12.2021,2021-11-24 00:00:00,['2021-03-12 00:00:00'],False,"Theaterring 5, 02763 Zittau, Deutschland",50.8987282,14.8064621
Grundschule Seifhennersdorf,2021-11-23,befristet teilweise geschlossen,https://www.smk.sachsen.de/ppdf/21_11_23_GS_Seifhennersdorf.pdf,24.11.2021 bis 30.11.2021,2021-11-24 00:00:00,['2021-11-30 00:00:00'],False,"Bahnhofstraße 2, 02782 Seifhennersdorf, Deutschland",50.9338291,14.6136433
Oberschule an der Weinau in Zittau,2021-11-22,befristet teilweise geschlossen,https://www.smk.sachsen.de/ppdf/2021_11_22_OS_Weinau_Zittau.pdf,23.11.2021 bis 26.11.2021,2021-11-23 00:00:00,['2021-11-26 00:00:00'],False,"Weinauallee 1, 02763 Zittau, Deutschland",50.89928,14.82354
Park-Oberschule Zittau in Zittau,2021-11-22,befristet teilweise geschlossen,https://www.smk.sachsen.de/ppdf/2021_11_22_Park_OS_Zittau.pdf,23.11.2021 bis 26.11.2021,2021-11-23 00:00:00,['2021-11-26 00:00:00'],False,"Karl-Liebknecht-Ring 4, 02763 Zittau, Deutschland",50.8937164,14.8114779
Oberschule Rauschwalde in Görlitz,2021-11-22,befristet teilweise geschlossen,https://www.smk.sachsen.de/ppdf/2021_11_22_OS_rauschwalde_Goerlitz.pdf,23.11.2021 bis 26.11.2021,2021-11-23 00:00:00,['2021-11-26 00:00:00'],False,"Eibenweg 1, 02827 Görlitz, Deutschland",51.1426104,14.9435155
Grundschule C. W. Arldt Ruppersdorf,2021-11-19,befristet vollständig geschlossen,https://www.smk.sachsen.de/ppdf/2021_11_19_GS-Ruppersdorf.pdf,20.11.2021 bis 26.11.2021,2021-11-20 00:00:00,['2021-11-26 00:00:00'],False,"Volksbadstraße 4, 02747 Herrnhut, Deutschland",50.9998181,14.7215468
Oberschule „Klaus Riedel“ Bernstadt in Bernstadt a. d. Eigen,2021-11-19,befristet teilweise geschlossen,https://www.smk.sachsen.de/ppdf/21_11_19_OS_Klaus_Riedel.pdf,22.11.2021 bis 26.11.2021,2021-11-22 00:00:00,['2021-11-26 00:00:00'],False,"Schulstraße 1, 02748 Bernstadt auf dem Eigen, Deutschland",51.050067,14.8265766
Grundschule „Neißekinder“ Sagar in Krauschwitz OT Sagar,2021-11-16,befristet vollständig geschlossen,https://www.smk.sachsen.de/ppdf/21_11_16_GS_Sagar.pdf,18.11.2021 bis 26.11.2021,2021-11-18 00:00:00,['2021-11-26 00:00:00'],False,"Schulstraße 31, 02957 Krauschwitz, Deutschland",51.5147223,14.7632368
Grundschule Markkleeberg-Großstädteln in Markkleeberg,2021-11-26,befristet teilweise geschlossen,https://www.smk.sachsen.de/ppdf/21_11_26_GS_Markkleeberg_Grossstaedteln.pdf,27.11.2021 bis 01.12.2021,2021-11-27 00:00:00,['2021-01-12 00:00:00'],True,"Rathausstraße 75, 04416 Markkleeberg, Deutschland",51.27854989999999,12.3609334
Grundschule „Kinder dieser Welt“ in Borna,2021-11-26,befristet teilweise geschlossen,https://www.smk.sachsen.de/ppdf/21_11_26_GS_Kinder_dieser_Welt.pdf,27.11.2021 bis 03.12.2021,2021-11-27 00:00:00,['2021-03-12 00:00:00'],True,"Deutzener Str. 25, 04552 Borna, Deutschland",51.122336,12.4856955
Schule mit dem Förderschwerpunkt Lernen Borna in Borna,2021-11-26,befristet teilweise geschlossen,https://www.smk.sachsen.de/ppdf/21_11_26_Schule_Foerderschwerpunkt_Lernen_Borna.pdf,29.11.2021 bis 06.12.2021,2021-11-29 00:00:00,['2021-06-12 00:00:00'],True,"Luckaer Str. 14A, 04552 Borna, Deutschland",51.1201532,12.4830291
"Oberschule ""Werner Seelenbinder"" Bad Lausick in Bad Lausick",2021-11-26,befristet vollständig geschlossen,https://www.smk.sachsen.de/ppdf/21_11_26_OS_Werner_Seelenbinder.pdf,27.11.2021 bis 03.12.2021,2021-11-27 00:00:00,['2021-03-12 00:00:00'],True,"Frohburger Str. 9, 04651 Bad Lausick, Deutschland",51.1425979,12.6390027
Dr.-Margarete-Blank-Grundschule Borsdorf in Borsdorf,2021-11-26,befristet teilweise geschlossen,https://www.smk.sachsen.de/ppdf/2021_11_26_Grundschule_Borsdorf.pdf,29.11.2021 bis 10.12.2021,2021-11-29 00:00:00,['2021-10-12 00:00:00'],True,"Sommerfelder Str. 6, 04451 Borsdorf, Deutschland",51.3625835,12.5280016
"Grundschule ""Zum Elefanten"" Kühren in Wurzen",2021-11-26,befristet vollständig geschlossen,https://www.smk.sachsen.de/ppdf/2021_11_26_Grundschule_Zum_Elefanten_Kuehren.pdf,27.11.2021 bis 03.12.2021,2021-11-27 00:00:00,['2021-03-12 00:00:00'],True,"Nordstraße 4, 04808 Wurzen, Deutschland",51.3468297,12.8389567
Grundschule Bücherwurm in Grimma,2021-11-26,befristet teilweise geschlossen,https://www.smk.sachsen.de/ppdf/2021_11_26_GS_Buecherwurm_Grimma.pdf,29.11.2021 bis 08.12.2021,2021-11-29 00:00:00,['2021-08-12 00:00:00'],True,"Vorwerkstraße 34, 04668 Grimma, Deutschland",51.23679,12.7069501
Grundschule Markranstädt in Markranstädt,2021-11-25,befristet vollständig geschlossen,https://www.smk.sachsen.de/ppdf/2021_11_25_GS_Markranstaedt.pdf,27.11.2021 bis 03.12.2021,2021-11-27 00:00:00,['2021-03-12 00:00:00'],False,"Neue Str. 31, 04420 Markranstädt, Deutschland",51.3036228,12.2242685
Schule mit dem Förderschwerpunkt Lernen Borna in Borna,2021-11-25,befristet teilweise geschlossen,https://www.smk.sachsen.de/ppdf/2021_11_25_FS_Lernen_Borna.pdf,26.11.2021 bis 03.12.2021,2021-11-26 00:00:00,['2021-03-12 00:00:00'],False,"Luckaer Str. 14A, 04552 Borna, Deutschland",51.1201532,12.4830291
Grundschule „Kinder dieser Welt“ ehem. Borna-West in Borna,2021-11-25,befristet teilweise geschlossen,https://www.smk.sachsen.de/ppdf/21_11_25_GS_Kinder_dieser_Welt.pdf,26.11.2021 bis 03.12.2021,2021-11-26 00:00:00,['2021-03-12 00:00:00'],False,"Deutzener Str. 25, 04552 Borna, Deutschland",51.122336,12.4856955
"Waldschule Grimma, Schule mit dem Förderschwerpunkt geistige Entwicklung in Grimma",2021-11-24,befristet vollständig geschlossen,https://www.smk.sachsen.de/ppdf/2021_11_24_FS_Waldschule_Grimma.pdf,25.11.2021 bis 03.12.2021,2021-11-25 00:00:00,['2021-03-12 00:00:00'],False,"An d. Holzecke 10, 04668 Grimma, Deutschland",51.2178286,12.7265341
Grundschule Markkleeberg-West in Markkleeberg,2021-11-24,befristet teilweise geschlossen,https://www.smk.sachsen.de/ppdf/2021_11_24_Grundschule_Markkleeberg_West.pdf,25.11.2021 bis 03.12.2021,2021-11-25 00:00:00,['2021-03-12 00:00:00'],False,"Rathausstraße 75, 04416 Markkleeberg, Deutschland",51.27854989999999,12.3609334
Löwenzahn-Grundschule Großpösna in Großpösna,2021-11-24,befristet vollständig geschlossen,https://www.smk.sachsen.de/ppdf/2021_11_24_GS_Großpoesna.pdf,25.11.2021 bis 03.12.2021,2021-11-25 00:00:00,['2021-03-12 00:00:00'],False,"Hauptstraße 8, 04463 Großpösna, Deutschland",51.269707,12.5042639
"Schule der kleinen Weltentdecker, Grundschule Brandis in Brandis",2021-11-24,befristet teilweise geschlossen,https://www.smk.sachsen.de/ppdf/2021_11_24_GS_Brandis.pdf,25.11.2021 bis 03.12.2021,2021-11-25 00:00:00,['2021-03-12 00:00:00'],False,"Poststraße 8, 04821 Brandis, Deutschland",51.33121,12.6152264
Förderzentrum mit dem Förderschwerpunkt Lernen Burkartshain in Wurzen,2021-11-24,befristet teilweise geschlossen,https://www.smk.sachsen.de/ppdf/21_11_24_Foerderzentrum_Burkhartshain.pdf,25.11.2021 bis 06.12.2021,2021-11-25 00:00:00,['2021-06-12 00:00:00'],False,"Fremdiswalder Str. 2, 04808 Wurzen, Deutschland",51.32752,12.8038
August-Hermann-Francke Grundschule in Leipzig,2021-11-24,befristet teilweise geschlossen,https://www.smk.sachsen.de/ppdf/2021_11_24_AHF_GS_Leipzig.pdf,25.11.2021 bis 03.12.2021,2021-11-25 00:00:00,['2021-03-12 00:00:00'],False,"Puschstraße 9, 04103 Leipzig, Deutschland",51.3166746,12.400099
Gymnasium Engelsdorf in Leipzig,2021-11-24,befristet teilweise geschlossen,https://www.smk.sachsen.de/ppdf/21_11_24_Gymnasium_Engelsdorf.pdf,25.11.2021 bis 03.12.2021,2021-11-25 00:00:00,['2021-03-12 00:00:00'],False,"Arthur-Winkler-Straße 6, 04319 Leipzig, Deutschland",51.3351465,12.4811229
Oberschule Grimma in Grimma,2021-11-24,befristet teilweise geschlossen,https://www.smk.sachsen.de/ppdf/2021_11_24_OS_Grimma.pdf,25.11.2021 bis 26.11.2021,2021-11-25 00:00:00,['2021-11-26 00:00:00'],False,"Wallgraben 23, 04668 Grimma, Deutschland",51.2382774,12.7253506
Lebenswelt Zwenkau in Zwenkau,2021-11-24,befristet teilweise geschlossen,https://www.smk.sachsen.de/ppdf/2021_11_24_GS_Lebenswelt_Zwenkau.pdf,25.11.2021 bis 03.12.2021,2021-11-25 00:00:00,['2021-03-12 00:00:00'],False,"Geschwister-Scholl-Weg 1, 04442 Zwenkau, Deutschland",51.192431,12.303215
Grundschule Hausdorf in Colditz,2021-11-23,befristet vollständig geschlossen,https://www.smk.sachsen.de/ppdf/21_11_23_GS_Hausdorf.pdf,24.11.2021 bis 03.12.2021,2021-11-24 00:00:00,['2021-03-12 00:00:00'],False,"Hauptstraße 34, 04680 Colditz, Deutschland",51.11749,12.83213
Schule mit dem Förderschwerpunkt Lernen Borna,2021-11-23,befristet teilweise geschlossen,https://www.smk.sachsen.de/ppdf/21_11_23_Foerderschule_Borna.pdf,24.11.2021 bis 30.11.2021,2021-11-24 00:00:00,['2021-11-30 00:00:00'],False,"Luckaer Str. 14A, 04552 Borna, Deutschland",51.1201532,12.4830291
Grundschule Markkleeberg-Ost in Markkleeberg,2021-11-23,befristet teilweise geschlossen,https://www.smk.sachsen.de/ppdf/2021_11_22_Grundschule Marklkeeberg-Ost.pdf,23.11.2021 bis 26.11.2021,2021-11-23 00:00:00,['2021-11-26 00:00:00'],False,"Rilkestraße 11, 04416 Markkleeberg, Deutschland",51.2753977,12.4003242
Paul-Guenther-Oberschule Geithain in Geithain,2021-11-23,befristet vollständig geschlossen,https://www.smk.sachsen.de/ppdf/2021_11_22_OS_Geithain.pdf,24.11.2021 bis 03.12.2021,2021-11-24 00:00:00,['2021-03-12 00:00:00'],False,"Schillerstraße 13, 04643 Geithain, Deutschland",51.0585304,12.6918447
Dr.-Margarete-Blank-Grundschule Borsdorf in Borsdorf,2021-11-22,befristet teilweise geschlossen,https://www.smk.sachsen.de/ppdf/21_11_22_GS_Borsdorf.pdf,23.11.2021 bis 30.11.2021,2021-11-23 00:00:00,['2021-11-30 00:00:00'],False,"Sommerfelder Str. 6, 04451 Borsdorf, Deutschland",51.3625835,12.5280016
Grundschule Parthenstein in Parthenstein,2021-11-22,befristet teilweise geschlossen,https://www.smk.sachsen.de/ppdf/2021_11_22_Grundschule_Parthenstein.pdf,23.11.2021 bis 01.12.2021,2021-11-23 00:00:00,['2021-01-12 00:00:00'],False,"Werner-Seelenbinder-Straße 7, 04668 Parthenstein, Deutschland",51.2527256,12.6349353
Oberschule Böhlen in Grimma,2021-11-22,befristet teilweise geschlossen,https://www.smk.sachsen.de/ppdf/2021_11_22_OS_Boehlen_Grimma.pdf,23.11.2021 bis 26.11.2021,2021-11-23 00:00:00,['2021-11-26 00:00:00'],False,"Zur Schule 11, 04668 Grimma, Deutschland",51.1861234,12.8639832
"Grundschule ""Pfiffikus"" Böhlen in Böhlen",2021-11-22,befristet teilweise geschlossen,https://www.smk.sachsen.de/ppdf/2021_11_22_Grundschule_Pfiffikus_Boehlen.pdf,23.11.2021 bis 26.11.2021,2021-11-23 00:00:00,['2021-11-26 00:00:00'],False,"Fröbelstraße 10, 04564 Böhlen, Deutschland",51.202081,12.3867326
Bildungszentrum Püchau e.V.- Grundschule in freier Trägerschaft in Püchau,2021-11-19,befristet vollständig geschlossen,https://www.smk.sachsen.de/ppdf/21_11_19_BZ_Puechau.pdf,20.11.2021 bis 26.11.2021,2021-11-20 00:00:00,['2021-11-26 00:00:00'],False,"Hauptstraße 4, 04828 Machern, Deutschland",51.3965903,12.6501512
Grundschule Kulkwitz in Markranstädt OT Gärnitz,2021-11-19,befristet vollständig geschlossen,https://www.smk.sachsen.de/ppdf/21_11_19_GS_Kulkwitz.pdf,20.11.2021 bis 30.11.2021,2021-11-20 00:00:00,['2021-11-30 00:00:00'],False,"Ernst-Thälmann-Straße 8, 04420 Markranstädt, Deutschland",51.2790081,12.2295318
Grundschule Bad Lausick in Bad Lausick,2021-11-19,befristet vollständig geschlossen,https://www.smk.sachsen.de/ppdf/2021_11_19_Grundschule_Bad_Lausick.pdf,20.11.2021 bis 01.12.2021,2021-11-20 00:00:00,['2021-01-12 00:00:00'],False,"Friedrich-von-Schiller-Straße 1A, 04651 Bad Lausick, Deutschland",51.1461201,12.6568801
Oberschule Böhlen in Grimma OT Böhlen,2021-11-19,befristet teilweise geschlossen,https://www.smk.sachsen.de/ppdf/2021_11_19_Oberschule_Boehlen.pdf,22.11.2021 bis 26.11.2021,2021-11-22 00:00:00,['2021-11-26 00:00:00'],False,"Zur Schule 11, 04668 Grimma, Deutschland",51.1861234,12.8639832
Grundschule Kitzscher in Kitzscher,2021-11-19,befristet vollständig geschlossen,https://www.smk.sachsen.de/ppdf/2021_11_19_Grundschule_Kitzscher.pdf,20.11.2021 bis 03.12.2021,2021-11-20 00:00:00,['2021-03-12 00:00:00'],False,"Robert-Koch-Straße 25, 04567 Kitzscher, Deutschland",51.16140919999999,12.5578229
Grundschule Frohburg in Frohburg,2021-11-19,befristet teilweise geschlossen,https://www.smk.sachsen.de/ppdf/21_11_19_GS_Frohburg.pdf,20.11.2021 bis 26.11.2021,2021-11-20 00:00:00,['2021-11-26 00:00:00'],False,"August-Bebel-Straße 32, 04654 Frohburg, Deutschland",51.05604880000001,12.5543138
Dr.-Margarete-Blank-Grundschule in Borsdorf OT Panitzsch,2021-11-19,befristet teilweise geschlossen,https://www.smk.sachsen.de/ppdf/2021_11_19_GS_Dr.-Margarete-Blank_Borsdorf.pdf,20.11.2021 bis 26.11.2021,2021-11-20 00:00:00,['2021-11-26 00:00:00'],False,"Sommerfelder Str. 6, 04451 Borsdorf, Deutschland",51.3625835,12.5280016
Grundschule Regis-Breitingen in Regis-Breitingen,2021-11-19,befristet teilweise geschlossen,https://www.smk.sachsen.de/ppdf/2021_11_19_GS_Regis-Breitingen.pdf,22.11.2021 bis 01.12.2021,2021-11-22 00:00:00,['2021-01-12 00:00:00'],False,"Am Stadion 31, 04565 Regis-Breitingen, Deutschland",51.0900401,12.4358846
Grundschule Markranstädt in Markranstädt,2021-11-19,befristet vollständig geschlossen,https://www.smk.sachsen.de/ppdf/2021_11_19_Grundschule_Markranstaedt.pdf,20.11.2021 bis 26.11.2021,2021-11-20 00:00:00,['2021-11-26 00:00:00'],False,"Neue Str. 31, 04420 Markranstädt, Deutschland",51.3036228,12.2242685
Grundschule Nils Holgersson Großlehna in Markranstädt,2021-11-18,befristet teilweise geschlossen,https://www.smk.sachsen.de/ppdf/21_11_18_GS_Grosslehna.pdf,19.11.2021 bis 26.11.2021,2021-11-19 00:00:00,['2021-11-26 00:00:00'],False,"Schwedenstraße 1, 04420 Markranstädt, Deutschland",51.31040609999999,12.1680254
Internationales Gymnasium Geithain in Geithain,2021-11-18,befristet teilweise geschlossen,https://www.smk.sachsen.de/ppdf/21_11_18_Gymnasium_Geithain.pdf,19.11.2021 bis 26.11.2021,2021-11-19 00:00:00,['2021-11-26 00:00:00'],False,"Friedrich-Fröbel-Straße 1, 04643 Geithain, Deutschland",51.057918,12.6866722
Oberschule „Werner Seelenbinder“ Bad Lausick in Bad Lausick,2021-11-18,befristet vollständig geschlossen,https://www.smk.sachsen.de/ppdf/21_11_18_OS_Bad_Lausick.pdf,20.11.2021 bis 26.11.2021,2021-11-20 00:00:00,['2021-11-26 00:00:00'],False,"Frohburger Str. 9, 04651 Bad Lausick, Deutschland",51.1425979,12.6390027
Grundschule Belgershain in Belgershain,2021-11-18,befristet vollständig geschlossen,https://www.smk.sachsen.de/ppdf/21_11_18_GS_Belgershain.pdf,19.11.2021 bis 26.11.2021,2021-11-19 00:00:00,['2021-11-26 00:00:00'],False,"Feldstraße 7, 04683 Belgershain, Deutschland",51.2352552,12.5472443
Grundschule Markkleeberg Mitte in Markkleeberg,2021-11-18,befristet vollständig geschlossen,https://www.smk.sachsen.de/ppdf/2021_11_18_Grundschule_Markkleeberg-Mitte.pdf,20.11.2021 bis 26.11.2021,2021-11-20 00:00:00,['2021-11-26 00:00:00'],False,"Raschwitzer Str. 42, 04416 Markkleeberg, Deutschland",51.2798661,12.3766841
Grundschule Markleeberg - Großstädteln in Markleeberg,2021-11-16,befristet teilweise geschlossen,https://www.smk.sachsen.de/ppdf/21_11_16_GS_Markkl_GS.pdf,18.11.2021 bis 26.11.2021,2021-11-18 00:00:00,['2021-11-26 00:00:00'],False,"Rathausstraße 75, 04416 Markkleeberg, Deutschland",51.27854989999999,12.3609334
Clemens-Thieme-Grundschule Borna in Borna,2021-11-16,befristet vollständig geschlossen,https://www.smk.sachsen.de/ppdf/21_11_16_GS_Clemens_Thieme_Borna.pdf,18.11.2021 bis 26.11.2021,2021-11-18 00:00:00,['2021-11-26 00:00:00'],False,"Sauerbruchstraße 1, 04552 Borna, Deutschland",51.13394,12.49758
Oberschule Groitzsch in Groitzsch,2021-11-16,befristet vollständig geschlossen,https://www.smk.sachsen.de/ppdf/21_11_16_OS_Groitzsch.pdf,19.11.2021 bis 26.11.2021,2021-11-19 00:00:00,['2021-11-26 00:00:00'],False,"Südstraße 30, 04539 Groitzsch, Deutschland",51.15447,12.2832382
Freies Gymnasium Borsdorf in Borsdorf,2021-11-15,befristet vollständig geschlossen,https://www.smk.sachsen.de/ppdf/21_11_15_Gymnasium_Borsdorf.pdf,18.11.2021 bis 26.11.2021,2021-11-18 00:00:00,['2021-11-26 00:00:00'],False,"Heinrich-Heine-Straße 33, 04451 Borsdorf, Deutschland",51.34471620000001,12.5392068
Gymnasium Coswig in Coswig,2021-11-26,befristet teilweise geschlossen,https://www.smk.sachsen.de/ppdf/21_11_26_Gymnasium_Coswig.pdf,29.11.2021 bis 03.12.2021,2021-11-29 00:00:00,['2021-03-12 00:00:00'],True,"Melanchthonstraße 10, 01640 Coswig, Deutschland",51.1255834,13.5860329
Gymnasium „Luisenstift“ in Radebeul,2021-11-26,befristet teilweise geschlossen,https://www.smk.sachsen.de/ppdf/2021_11_26_GYLuisenstift.pdf,29.11.2021 bis 09.12.2021,2021-11-29 00:00:00,['2021-09-12 00:00:00'],True,"Str. d. Jugend 3, 01445 Radebeul, Deutschland",51.1119899,13.6550769
Trinitatisschule Riesa in Riesa,2021-11-26,befristet vollständig geschlossen,https://www.smk.sachsen.de/ppdf/2021_11_26_GS_Trinitatis_Riesa.pdf,27.11.2021 bis 07.12.2021,2021-11-27 00:00:00,['2021-07-12 00:00:00'],True,"Schillerstraße 11, 01589 Riesa, Deutschland",51.3009,13.30603
3. Grundschule Riesa in Riesa,2021-11-26,befristet teilweise geschlossen,https://www.smk.sachsen.de/ppdf/21_11_26_3_GS_Riesa.pdf,27.11.2021 bis 03.12.2021,2021-11-27 00:00:00,['2021-03-12 00:00:00'],True,"Magdeburger Str. 5, 01587 Riesa, Deutschland",51.30451,13.25744
Städtisches Gymnasium Riesa in Riesa,2021-11-25,befristet teilweise geschlossen,https://www.smk.sachsen.de/ppdf/21_11_25_Staedtisches_Gymnasium_Riesa.pdf,26.11.2021 bis 03.12.2021,2021-11-26 00:00:00,['2021-03-12 00:00:00'],False,"Joseph-Haydn-Straße 4, 01589 Riesa, Deutschland",51.30192479999999,13.3006164
Grundschule Brockwitz in Coswig,2021-11-25,befristet teilweise geschlossen,https://www.smk.sachsen.de/ppdf/21_11_25_GS_Brockwitz.pdf,26.11.2021 bis 03.12.2021,2021-11-26 00:00:00,['2021-03-12 00:00:00'],False,"Dresdner Str. 170, 01640 Coswig, Deutschland",51.12979,13.55048
Triebischtalschule - 1. Oberschule Meißen in Meißen,2021-11-25,befristete Beschulung im Wechselmodell,https://www.smk.sachsen.de/ppdf/2021_11_25_OS_Triebischtal.pdf,29.11.2021 bis 10.12.2021,2021-11-29 00:00:00,['2021-10-12 00:00:00'],False,"Wettinstraße 19, 01662 Meißen, Deutschland",51.1534856,13.4629415
Pestalozzi-Grundschule Nossen in Nossen,2021-11-24,befristet teilweise geschlossen,https://www.smk.sachsen.de/ppdf/21_11_24_Pestalozzi_GS_Nossen.pdf,25.11.2021 bis 30.11.2021,2021-11-25 00:00:00,['2021-11-30 00:00:00'],False,"Schulstraße 19, 01683 Nossen, Deutschland",51.05715989999999,13.2955911
Wilhelm-Schneller-Grundschule Kalkreuth in Ebersbach,2021-11-24,befristet teilweise geschlossen,https://www.smk.sachsen.de/ppdf/21_11_24_Wilhelm_Schneller_Grundschule.pdf,25.11.2021 bis 03.12.2021,2021-11-25 00:00:00,['2021-03-12 00:00:00'],False,"Großenhainer Str. 2, 01561 Ebersbach, Deutschland",51.27442430000001,13.6394152
4. Grundschule Riesa in Riesa,2021-11-24,befristet vollständig geschlossen,https://www.smk.sachsen.de/ppdf/2021_11_24_4_GS_Riesa.pdf,25.11.2021 bis 03.12.2021,2021-11-25 00:00:00,['2021-03-12 00:00:00'],False,"Rudolf-Breitscheid-Straße 27, 01587 Riesa, Deutschland",51.3045268,13.2937173
Oberschule Radebeul-Mitte in Radebeul,2021-11-24,befristet teilweise geschlossen,https://www.smk.sachsen.de/ppdf/21_11_24_OS_Radebeul_Mitte.pdf,25.11.2021 bis 03.12.2021,2021-11-25 00:00:00,['2021-03-12 00:00:00'],False,"Wasastraße 21, 01445 Radebeul, Deutschland",51.1000911,13.6662143
Grundschule Friedrich Schiller in Radebeul,2021-11-24,befristet teilweise geschlossen,https://www.smk.sachsen.de/ppdf/2021_11_24_Friedrich_Schiller.pdf,25.11.2021 bis 30.11.2021,2021-11-25 00:00:00,['2021-11-30 00:00:00'],False,"Hauptstraße 10, 01445 Radebeul, Deutschland",51.100226,13.6783256
3. Grundschule Riesa in Riesa,2021-11-24,befristet teilweise geschlossen,https://www.smk.sachsen.de/ppdf/21_11_24_3_GS_Riesa.pdf,26.11.2021,2021-11-26 00:00:00,2021-11-26 00:00:00,False,"Magdeburger Str. 5, 01587 Riesa, Deutschland",51.30451,13.25744
"Gymnasium ""Geschwister Scholl"" Nossen in Nossen",2021-11-24,befristet teilweise geschlossen,https://www.smk.sachsen.de/ppdf/2021_11_24_GY_Scholl_Nossen.pdf,25.11.2021 bis 03.12.2021,2021-11-25 00:00:00,['2021-03-12 00:00:00'],False,"Seminarweg 4, 01683 Nossen, Deutschland",51.05760919999999,13.309009
Oberschule „Am Merzdorfer Park“ in Riesa,2021-11-24,befristet teilweise geschlossen,https://www.smk.sachsen.de/ppdf/21_11_24_OS_Am_Merzdorfer_Park_Riesa.pdf,25.11.2021 bis 30.11.2021,2021-11-25 00:00:00,['2021-11-30 00:00:00'],False,"Merzdorfer Str. 48, 01591 Riesa, Deutschland",51.3167587,13.2564061
Grundschule Burkhardswalde in Klipphausen,2021-11-23,befristet vollständig geschlossen,https://www.smk.sachsen.de/ppdf/2021_11_23_Grundschule_Burkhardswalde.pdf,24.11.2021 bis 03.12.2021,2021-11-24 00:00:00,['2021-03-12 00:00:00'],False,"Schulstraße 3, 01665 Klipphausen, Deutschland",51.0734268,13.4294669
Oberschule Lommatzscher Pflege in Lommatzsch,2021-11-23,befristet vollständig geschlossen,https://www.smk.sachsen.de/ppdf/2021_11_23_OS_Lommatzsch.pdf,25.11.2021 bis 08.12.2021,2021-11-25 00:00:00,['2021-08-12 00:00:00'],False,"Domselwitzer Str. 21, 01623 Lommatzsch, Deutschland",51.19884829999999,13.3114121
Pestalozzi-Grundschule Nossen in Nossen,2021-11-23,befristet teilweise geschlossen,https://www.smk.sachsen.de/ppdf/2021_11_23_Pestalozzi_GS_Nossen.pdf,24.11.2021 bis 30.11.2021,2021-11-24 00:00:00,['2021-11-30 00:00:00'],False,"Schulstraße 19, 01683 Nossen, Deutschland",51.05715989999999,13.2955911
3. Grundschule Riesa in Riesa,2021-11-23,befristet teilweise geschlossen,https://www.smk.sachsen.de/ppdf/2021_11_23_3_GS_Riesa.pdf,24.11.2021 bis 25.12.2021,2021-11-24 00:00:00,['2021-12-25 00:00:00'],False,"Magdeburger Str. 5, 01587 Riesa, Deutschland",51.30451,13.25744
Grundschule Zabeltitz in Großenhain,2021-11-23,befristet teilweise geschlossen,https://www.smk.sachsen.de/ppdf/21_11_23_GS_Zabeltitz.pdf,27.11.2021 bis 03.12.2021,2021-11-27 00:00:00,['2021-03-12 00:00:00'],False,"Unter den Linden 11, 01561 Großenhain, Deutschland",51.35213,13.4991499
Grundschule „Im Jahnatal“ Ragewitz in Stauchitz,2021-11-23,befristet teilweise geschlossen,https://www.smk.sachsen.de/ppdf/21_11_23_GS_Jahnatal_Ragewitz.pdf,24.11.2021 bis 03.12.2021,2021-11-24 00:00:00,['2021-03-12 00:00:00'],False,"Schulberg 4, 01594 Stauchitz, Deutschland",51.2652811,13.2385197
Gymnasium Coswig in Coswig,2021-11-23,befristet teilweise geschlossen,https://www.smk.sachsen.de/ppdf/21_11_23_Gymnasium_Coswig.pdf,24.11.2021 bis 03.12.2021,2021-11-24 00:00:00,['2021-03-12 00:00:00'],False,"Melanchthonstraße 10, 01640 Coswig, Deutschland",51.1255834,13.5860329
Grundschule Radebeul-Naundorf in Radebeul,2021-11-23,befristet vollständig geschlossen,https://www.smk.sachsen.de/ppdf/21_11_23_GS_Radebeul_Naundorf.pdf,27.11.2021 bis 03.12.2021,2021-11-27 00:00:00,['2021-03-12 00:00:00'],False,"Bertheltstraße 10, 01445 Radebeul, Deutschland",51.1115809,13.6084536
1. Grundschule Riesa „Käthe Kollwitz“ in Riesa,2021-11-23,befristet teilweise geschlossen,https://www.smk.sachsen.de/ppdf/21_11_23_1_GS_Riesa.pdf,24.11.2021 bis 03.12.2021,2021-11-24 00:00:00,['2021-03-12 00:00:00'],False,"Rathauspl. 3, 01589 Riesa, Deutschland",51.30226,13.312838
Grundschule Lommatzscher Pflege in Lommatzsch,2021-11-23,befristet teilweise geschlossen,https://www.smk.sachsen.de/ppdf/2021_11_23_GS_Lommatzscher_Pflege.pdf,24.11.2021 bis 03.12.2021,2021-11-24 00:00:00,['2021-03-12 00:00:00'],False,"Domselwitzer Str. 21, 01623 Lommatzsch, Deutschland",51.19884829999999,13.3114121
Berufliches Schulzentrum für Technik und Wirtschaft Riesa in Riesa,2021-11-22,befristet teilweise geschlossen,https://www.smk.sachsen.de/ppdf/2021_11_22_BSZ_Riesa.pdf,23.11.2021 bis 26.11.2021,2021-11-23 00:00:00,['2021-11-26 00:00:00'],False,"Paul-Greifzu-Straße 51, 01591 Riesa, Deutschland",51.3155545,13.2693007
Arita-Grundschule Meißen in Meißen,2021-11-22,befristet vollständig geschlossen,https://www.smk.sachsen.de/ppdf/21_11_22_Arita_GS_Meissen.pdf,23.11.2021 bis 26.11.2021,2021-11-23 00:00:00,['2021-11-26 00:00:00'],False,"Aritaring 29, 01662 Meißen, Deutschland",51.1697458,13.5055831
Grundschule Raußlitz in Nossen,2021-11-19,befristet vollständig geschlossen,https://www.smk.sachsen.de/ppdf/21_11_19_GS_Rausslitz.pdf,22.11.2021 bis 26.11.2021,2021-11-22 00:00:00,['2021-11-26 00:00:00'],False,"Hermann-Schaeffer-Str 10, 01683 Nossen, Deutschland",51.10927479999999,13.3165669
"Dr.-Eberle-Schule Nossen, Oberschule in Nossen",2021-11-19,befristet teilweise geschlossen,https://www.smk.sachsen.de/ppdf/2021_11_19_Dr.-Eberle-Schule_Nossen.pdf,20.11.2021 bis 26.11.2021,2021-11-20 00:00:00,['2021-11-26 00:00:00'],False,"Zum Kirschberg 10, 01683 Nossen, Deutschland",51.0627964,13.3034524
Trinitatisschule Riesa in Riesa,2021-11-19,befristet teilweise geschlossen,https://www.smk.sachsen.de/ppdf/2021_11_19_Trinitatissschule_Riesa.pdf,20.11.2021 bis 26.11.2021,2021-11-20 00:00:00,['2021-11-26 00:00:00'],False,"Schillerstraße 11, 01589 Riesa, Deutschland",51.3009,13.30603
Grundschule Weinböhla in Weinböhla,2021-11-19,befristet teilweise geschlossen,https://www.smk.sachsen.de/ppdf/2021_11_19_Widerruf_GS_Weinboehla.pdf,Widerruf,,,False,"Köhlerstraße 32, 01689 Weinböhla, Deutschland",51.1506609,13.5700035
Grundschule Weinböhla in Weinböhla,2021-11-19,befristet vollständig geschlossen,https://www.smk.sachsen.de/ppdf/2021_11_19_Grundschule_Weinboehla.pdf,20.11.2021 bis 26.11.2021,2021-11-20 00:00:00,['2021-11-26 00:00:00'],False,"Köhlerstraße 32, 01689 Weinböhla, Deutschland",51.1506609,13.5700035
Grundschule Niederlößnitz in Radebeul,2021-11-19,befristet vollständig geschlossen,https://www.smk.sachsen.de/ppdf/2021_11_19_GS_Niederloessnitz.pdf,20.11.2021 bis 3.12.2021,2021-11-20 00:00:00,['2021-03-12 00:00:00'],False,"Ledenweg 35, 01445 Radebeul, Deutschland",51.1117165,13.6390677
Grundschule Kötzschenbroda in Radebeul,2021-11-19,befristet teilweise geschlossen,https://www.smk.sachsen.de/ppdf/2021_11_19_GS_Koetzschenbroda.pdf,20.11.2021 bis 26.11.2021,2021-11-20 00:00:00,['2021-11-26 00:00:00'],False,"Harmoniestraße 7, 01445 Radebeul, Deutschland",51.1061685,13.6326326
Evangelische Schule Coswig in Coswig,2021-11-19,befristet vollständig geschlossen,https://www.smk.sachsen.de/ppdf/2021_11_19_Ev. GS_OS_Coswig.pdf,20.11.2021 bis 26.11.2021,2021-11-20 00:00:00,['2021-11-26 00:00:00'],False,"Weststraße 42, 01640 Coswig, Deutschland",51.1401002,13.5832484
Triebischtalschule - 1. Oberschule Meißen in Meißen,2021-11-19,befristet vollständig geschlossen,https://www.smk.sachsen.de/ppdf/2021_11_19_OS_Triebischtal_Meissen.pdf,20.11.2021 bis 26.11.2021,2021-11-20 00:00:00,['2021-11-26 00:00:00'],False,"Wettinstraße 19, 01662 Meißen, Deutschland",51.1534856,13.4629415
Grundschule Mitte Coswig in Coswig,2021-11-18,befristet teilweise geschlossen,https://www.smk.sachsen.de/ppdf/21_11_18_GS_Mitte_Coswig.pdf,19.11.2021 bis 26.11.2021,2021-11-19 00:00:00,['2021-11-26 00:00:00'],False,"Radebeuler Str. 10, 01640 Coswig, Deutschland",51.1283736,13.588316
Grundschule Naundorf in Radebeul,2021-11-18,befristet vollständig geschlossen,https://www.smk.sachsen.de/ppdf/21_11_18_GS_Naundorf.pdf,19.11.2021 bis 26.11.2021,2021-11-19 00:00:00,['2021-11-26 00:00:00'],False,"Bertheltstraße 10, 01445 Radebeul, Deutschland",51.1115809,13.6084536
Grundschule Zabeltitz in Großenhain OT Zabeltitz,2021-11-18,befristet teilweise geschlossen,https://www.smk.sachsen.de/ppdf/2021_11_18_Grundschule_Zabeltitz.pdf,19.11.2021 bis 26.11.2021,2021-11-19 00:00:00,['2021-11-26 00:00:00'],False,"Unter den Linden 11, 01561 Großenhain, Deutschland",51.35213,13.4991499
Kalkbergschule Meißen Schule mit dem Förderschwerpunkt Lernen in Meißen,2021-11-18,befristet vollständig geschlossen,https://www.smk.sachsen.de/ppdf/21_11_18_Kalkbergschule.pdf,19.11.2021 bis 26.11.2021,2021-11-19 00:00:00,['2021-11-26 00:00:00'],False,"Max-Dietel-Straße 18 a, 01662 Meißen, Deutschland",51.1556946,13.499298
"2. Oberschule ""Am Schacht"" Großenhain in Großenhain",2021-11-18,befristet teilweise geschlossen,https://www.smk.sachsen.de/ppdf/2021_11_18_2_Oberschule_Am_Schacht_Grossenhain.pdf,20.11.2021 bis 26.11.2021,2021-11-20 00:00:00,['2021-11-26 00:00:00'],False,"Am Schacht 2, 01558 Großenhain, Deutschland",51.2961942,13.5170952
Grundschule „Friedrich Schiller“ Radebeul in Radebeul,2021-11-18,befristet teilweise geschlossen,https://www.smk.sachsen.de/ppdf/2021_11_18_Grundschule_Schiller_Radebeul.pdf,20.11.2021 bis 26.11.2021,2021-11-20 00:00:00,['2021-11-26 00:00:00'],False,"Hauptstraße 10, 01445 Radebeul, Deutschland",51.100226,13.6783256
Grundschule Weinböhla in Weinböhla,2021-11-18,befristet teilweise geschlossen,https://www.smk.sachsen.de/ppdf/21_11_18_GS_Weinboehla.pdf,22.11.2021 bis 26.11.2021,2021-11-22 00:00:00,['2021-11-26 00:00:00'],False,"Köhlerstraße 32, 01689 Weinböhla, Deutschland",51.1506609,13.5700035
Gymnasium „Luisenstift“ Radebeul in Radebeul,2021-11-18,befristet teilweise geschlossen,https://www.smk.sachsen.de/ppdf/21_11_18_Gym_Luisenstift.pdf,19.11.2021 bis 26.11.2021,2021-11-19 00:00:00,['2021-11-26 00:00:00'],False,"Str. d. Jugend 3, 01445 Radebeul, Deutschland",51.1119899,13.6550769
1. Grundschule Großenhain in Großenhain,2021-11-16,befristet vollständig geschlossen,https://www.smk.sachsen.de/ppdf/21_11_16_1_GS_Grossenhain.pdf,18.11.2021 bis 26.11.2021,2021-11-18 00:00:00,['2021-11-26 00:00:00'],False,"Franz-Schubert-Allee 4, 01558 Großenhain, Deutschland",51.2938018,13.5305419
Grundschule West Coswig in Coswig,2021-11-16,befristet vollständig geschlossen,https://www.smk.sachsen.de/ppdf/21_11_16_GS_West_Coswig.pdf,18.11.2021 bis 26.11.2021,2021-11-18 00:00:00,['2021-11-26 00:00:00'],False,"Heinrich-Heine-Weg 23, 01640 Coswig, Deutschland",51.1404055,13.5835983
Gymnasium Luisenstift Radebeul in Radebeul,2021-11-15,befristet teilweise geschlossen,https://www.smk.sachsen.de/ppdf/21_11_15_Luisenstift_Radebeul.pdf,16.11.2021 bis 23.11.2021,2021-11-16 00:00:00,['2021-11-23 00:00:00'],False,"Str. d. Jugend 3, 01445 Radebeul, Deutschland",51.1119899,13.6550769
"Grundschule ""Theodor Körner"" in Freiberg",2021-11-26,befristet teilweise geschlossen,https://www.smk.sachsen.de/ppdf/21_11_26_GS_Theodor_Koerner_Freiberg.pdf,29.11.2021 bis 01.12.2021,2021-11-29 00:00:00,['2021-01-12 00:00:00'],True,"Turnerstraße 1, 09599 Freiberg, Deutschland",50.9133216,13.3415039
"Oberschule ""Clara Zetkin"" in Freiberg",2021-11-26,befristet teilweise geschlossen,https://www.smk.sachsen.de/ppdf/21_11_26_OS_Clara_Zetkin.pdf,27.11.2021 bis 03.12.2021,2021-11-27 00:00:00,['2021-03-12 00:00:00'],True,"Dörnerzaunstraße 2, 09599 Freiberg, Deutschland",50.9127,13.3422642
Schule mit dem Förderschwerpunkt Lernen „Albert Schweitzer“ Roßwein in Roßwein,2021-11-26,befristet teilweise geschlossen,https://www.smk.sachsen.de/ppdf/21_11_26_FS_Albert_Schweitzer.pdf,29.11.2021 bis 03.12.2021,2021-11-29 00:00:00,['2021-03-12 00:00:00'],True,"Kadorf 31, 04741 Roßwein, Deutschland",51.0718684,13.1924612
"Grundschule ""Bernhard Hantzsch"" Kurort Hartha in Tharandt",2021-11-26,befristet teilweise geschlossen,https://www.smk.sachsen.de/ppdf/21_11_26_GS_Bernhard_Hantzsch.pdf,29.11.2021 bis 03.12.2021,2021-11-29 00:00:00,['2021-03-12 00:00:00'],True,"Friedrich-Schiller-Straße 21, 01737 Tharandt, Deutschland",50.9840613,13.5446109
Freie Gemeinschaftliche Schule „Maria Montessori“ in Freiberg,2021-11-26,befristet teilweise geschlossen,https://www.smk.sachsen.de/ppdf/2021_11_26_Freie_GemSch_Montessori_Freiberg.pdf,29.11.2021 bis 03.12.2021,2021-11-29 00:00:00,['2021-03-12 00:00:00'],True,"Tschaikowskistraße 4, 09599 Freiberg, Deutschland",50.9058602,13.332363
Grundschule Großbauchlitz in Döbeln,2021-11-26,befristet vollständig geschlossen,https://www.smk.sachsen.de/ppdf/2021_11_26_GS_Grossbauchlitz.pdf,29.11.2021 bis 03.12.2021,2021-11-29 00:00:00,['2021-03-12 00:00:00'],True,"Schulstraße 7, 04720 Döbeln, Deutschland",51.1319001,13.0978353
Grundschule Grünlichtenberg in Kriebstein,2021-11-26,befristet teilweise geschlossen,https://www.smk.sachsen.de/ppdf/21_11_26_GS_Gruenlichtenberg.pdf,29.11.2021 bis 03.12.2021,2021-11-29 00:00:00,['2021-03-12 00:00:00'],True,"Mittlere Dorfstraße 7, 09648 Kriebstein, Deutschland",51.0416,13.0616
Oberschule Oederan in Oederan,2021-11-26,befristet teilweise geschlossen,https://www.smk.sachsen.de/ppdf/2021_11_26_OS_Oederan.pdf,27.11.2021 bis 03.12.2021,2021-11-27 00:00:00,['2021-03-12 00:00:00'],True,"19, Frankenberger Str., 09569 Oederan, Deutschland",50.8629997,13.1646491
Oberschule Halsbrücke in Halsbrücke,2021-11-26,befristet teilweise geschlossen,https://www.smk.sachsen.de/ppdf/2021_11_26_OS_Halsbruecke.pdf,29.11.2021 bis 03.12.2021,2021-11-29 00:00:00,['2021-03-12 00:00:00'],True,"Geschwister-Scholl-Straße 8, 09633 Halsbrücke, Deutschland",50.95403,13.3451401
Seeber-Grundschule Niederwiesa in Niederwiesa,2021-11-25,befristet teilweise geschlossen,https://www.smk.sachsen.de/ppdf/21_11_25_Seeber_GS_Niederwiesa.pdf,29.11.2021 bis 03.12.2021,2021-11-29 00:00:00,['2021-03-12 00:00:00'],False,"Mühlenstraße 21, 09577 Niederwiesa, Deutschland",50.867547,13.0192585
Oberschule Brand-Erbisdorf in Brand-Erbisdorf,2021-11-25,befristet teilweise geschlossen,https://www.smk.sachsen.de/ppdf/21_11_25_OS_Brand_Erbisdorf.pdf,26.11.2021 bis 08.12.2021,2021-11-26 00:00:00,['2021-08-12 00:00:00'],False,"August-Bebel-Straße 28, 09618 Brand-Erbisdorf, Deutschland",50.8658387,13.3183654
Grundschule „Friedrich Kaden“ Großschirma in Großschirma,2021-11-25,befristet teilweise geschlossen,https://www.smk.sachsen.de/ppdf/21_11_25_GS_Grossschirma.pdf,26.11.2021 bis 03.12.2021,2021-11-26 00:00:00,['2021-03-12 00:00:00'],False,"Hauptstraße 83 A, 09603 Großschirma, Deutschland",50.9654861,13.2827306
Friedrich-Gottlob-Keller-Oberschule in Hainichen,2021-11-24,befristet teilweise geschlossen,https://www.smk.sachsen.de/ppdf/2021_11_24_Friedrich_Gottlob_Keller_Oberschule.pdf,25.11.2021 bis 30.11.2021,2021-11-25 00:00:00,['2021-11-30 00:00:00'],False,"Lutherpl. 6, 09661 Hainichen, Deutschland",50.97094,13.1231
"Grundschule zur Grabentour Neukirchen in Reinsberg, OT Neukirchen",2021-11-24,befristet teilweise geschlossen,https://www.smk.sachsen.de/ppdf/21_11_24_GS_Neukirchen.pdf,25.11.2021 bis 03.12.2021,2021-11-25 00:00:00,['2021-03-12 00:00:00'],False,"Dittmannsdorfer Str. 9, 09629 Reinsberg, Deutschland",51.0269394,13.4014456
Grundschule „Friedrich Kaden“ Großschirma in Großschirma,2021-11-24,befristet teilweise geschlossen,https://www.smk.sachsen.de/ppdf/21_11_24_GS_Friedrich_Kaden.pdf,25.11.2021 bis 03.12.2021,2021-11-25 00:00:00,['2021-03-12 00:00:00'],False,"Hauptstraße 83 A, 09603 Großschirma, Deutschland",50.9654861,13.2827306
"Grundschule ""Georgius Agricola"" in Freiberg/Loßnitz",2021-11-24,befristet teilweise geschlossen,https://www.smk.sachsen.de/ppdf/21_11_24_GS_Georgius_Agricola.pdf,25.11.2021 bis 08.12.2021,2021-11-25 00:00:00,['2021-08-12 00:00:00'],False,"Agricolastraße 35, 09599 Freiberg, Deutschland",50.93025,13.33666
"Schule mit dem Förderschwerpunkt Lernen ""Pestalozzi"" in Rochlitz",2021-11-24,befristet teilweise geschlossen,https://www.smk.sachsen.de/ppdf/2021_11_24_Schule_mit_dem_Foerderschwerpunkt_Lernen_Pestalozzi.pdf,25.11.2021 bis 03.12.2021,2021-11-25 00:00:00,['2021-03-12 00:00:00'],False,"Ob. Lindenbergstraße 1, 09306 Rochlitz, Deutschland",51.0507806,12.7903501
Oberschule Niederbobritzsch in Bobritzsch-Hilbersdorf,2021-11-24,befristet teilweise geschlossen,https://www.smk.sachsen.de/ppdf/2021_11_24_Oberschule_Niederbobritzsch.pdf,25.11.2021 bis 03.12.2021,2021-11-25 00:00:00,['2021-03-12 00:00:00'],False,"Am bhf 5, 09627 Bobritzsch-Hilbersdorf, Deutschland",50.9000084,13.4356956
Grundschule Mulda in Mulda,2021-11-24,befristet teilweise geschlossen,https://www.smk.sachsen.de/ppdf/2021_11_24_GS_Mulda.pdf,gestaffelt 25.11.2021 bis 03.12.2021,,['2021-03-12 00:00:00'],False,"Str. zum Neubaugebiet 11, 09619 Mulda/Sachsen, Deutschland",50.8054606,13.4081668
Grundschule Langenleuba-Oberhain in Penig,2021-11-24,befristet vollständig geschlossen,https://www.smk.sachsen.de/ppdf/2021_11_24_Grundschule_Langenleuba_Oberhain.pdf,25.11.2021 bis 03.12.2021,2021-11-25 00:00:00,['2021-03-12 00:00:00'],False,"Schulstraße 16, 09322 Penig, Deutschland",50.96666,12.6578299
Oberschule Rechenberg-Bienenmühle in Rechenberg-Bienenmühle,2021-11-24,befristet teilweise geschlossen,https://www.smk.sachsen.de/ppdf/21_11_24_OS_Rechenberg_Bienenmuehle.pdf,25.11.2021 bis 30.11.2021,2021-11-25 00:00:00,['2021-11-30 00:00:00'],False,"Am Schulberg 9, 09623 Rechenberg-Bienenmühle, Deutschland",50.7360925,13.5404867
Städtisches Gymnasium Mittweida in Mittweida,2021-11-23,befristet teilweise geschlossen,https://www.smk.sachsen.de/ppdf/2021_11_23_Gymnasium_Mittweida.pdf,24.11.2021 bis 29.11.2021,2021-11-24 00:00:00,['2021-11-29 00:00:00'],False,"Am Schwanenteich 16, 09648 Mittweida, Deutschland",50.99066999999999,12.96749
Städtisches Gymnasium Mittweida in Mittweida,2021-11-23,befristet teilweise geschlossen,https://www.smk.sachsen.de/ppdf/2021_11_23_Oberschule_Koenigstein.pdf,24.11.2021 bis 29.11.2021,2021-11-24 00:00:00,['2021-11-29 00:00:00'],False,"Am Schwanenteich 16, 09648 Mittweida, Deutschland",50.99066999999999,12.96749
Grundschule Tiefenbach in Striegistal,2021-11-23,befristet teilweise geschlossen,https://www.smk.sachsen.de/ppdf/2021_11_23_GS Tiefenbach.pdf,24.11.2021 bis 03.12.2021,2021-11-24 00:00:00,['2021-03-12 00:00:00'],False,"Hauptstraße 138a, 09661 Striegistal, Deutschland",51.0462638,13.2327271
Grundschule Seifersbach in Rossau OT Seifersbach,2021-11-23,befristet teilweise geschlossen,https://www.smk.sachsen.de/ppdf/2021_11_23_Grundschule_Seifersbach.pdf,24.11.2021 bis 30.11.2021,2021-11-24 00:00:00,['2021-11-30 00:00:00'],False,"Rossauer Str. 4, 09661 Rossau, Deutschland",50.9737424,13.035341
Diesterwegschule Burgstädt - Oberschule in Burgstädt,2021-11-23,befristet vollständig geschlossen,https://www.smk.sachsen.de/ppdf/2021_11_23_Diesterwegschule_Burgstaedt_Oberschule.pdf,24.11.2021 bis 03.12.2021,2021-11-24 00:00:00,['2021-03-12 00:00:00'],False,"Burkersdorfer Str. 103, 09217 Burgstädt, Deutschland",50.9227366,12.8044041
Evangelische Grundschule „St. Katharina“ in Frankenberg,2021-11-23,befristet teilweise geschlossen,https://www.smk.sachsen.de/ppdf/2021_11_23_Ev_GS_Frankenberg.pdf,24.11.2021 bis 30.11.2021,2021-11-24 00:00:00,['2021-11-30 00:00:00'],False,"21, Max-Kästner-Straße, 09669 Frankenberg/Sa., Deutschland",50.9143589,13.0456217
Schule mit dem Förderschwerpunkt geistige Entwicklung „Max Kästner“ Frankenberg in Frankenberg,2021-11-23,befristet teilweise geschlossen,https://www.smk.sachsen.de/ppdf/2021_11_23_AFSG_Max_Kaestner_Frankenberg.pdf,24.11.2021 bis 03.12.2021,2021-11-24 00:00:00,['2021-03-12 00:00:00'],False,"Parkstraße 12, 09669 Frankenberg/Sa., Deutschland",50.9109,13.03634
Friedrich-Gottlob-Keller-Oberschule in Hainichen,2021-11-23,befristet teilweise geschlossen,https://www.smk.sachsen.de/ppdf/21_11_23_OS_Hainichen.pdf,24.11.2021 bis 26.11.2021,2021-11-24 00:00:00,['2021-11-26 00:00:00'],False,"Lutherpl. 6, 09661 Hainichen, Deutschland",50.97094,13.1231
Grundschule Claußnitz in Claußnitz,2021-11-23,befristet teilweise geschlossen,https://www.smk.sachsen.de/ppdf/21_11_23_GS_Claussnitz.pdf,25.11.2021 bis 03.12.2021,2021-11-25 00:00:00,['2021-03-12 00:00:00'],False,"Am Anger 4, 09236 Claußnitz, Deutschland",50.936401,12.8840473
Goethegrundschule Burgstädt in Burgstädt,2021-11-23,befristet teilweise geschlossen,https://www.smk.sachsen.de/ppdf/21_11_23_Goethe_GS_Burgstaedt.pdf,24.11.2021 bis 03.12.2021,2021-11-24 00:00:00,['2021-03-12 00:00:00'],False,"Göppersdorfer Str. 68, 09217 Burgstädt, Deutschland",50.9057353,12.8027915
Grundschule Niederlichtenau in Lichtenau,2021-11-23,befristet teilweise geschlossen,https://www.smk.sachsen.de/ppdf/21_11_23_GS_Niederlichtenau.pdf,24.11.2021 bis 03.12.2021,2021-11-24 00:00:00,['2021-03-12 00:00:00'],False,"Merzdorfer Str. 1, 09244 Lichtenau, Deutschland",50.90899,13.00309
Freien Gemeinschaftlichen Schule „Maria Montessori“ in Freiberg,2021-11-23,befristet teilweise geschlossen,https://www.smk.sachsen.de/ppdf/2021_11_23_Freie_Montessori_Freiberg.pdf,24.11.2021 bis 26.11.2021,2021-11-24 00:00:00,['2021-11-26 00:00:00'],False,"Tschaikowskistraße 4, 09599 Freiberg, Deutschland",50.9058602,13.332363
"Grundschule ""Georgius Agricola"" in Freiberg/Loßnitz",2021-11-23,befristet teilweise geschlossen,https://www.smk.sachsen.de/ppdf/2021_11_23_Grundschule_Georgius_Agricola.pdf,24.11.2021 bis 03.12.2021,2021-11-24 00:00:00,['2021-03-12 00:00:00'],False,"Agricolastraße 35, 09599 Freiberg, Deutschland",50.93025,13.33666
Grundschule Waldheim in Waldheim,2021-11-23,befristet vollständig geschlossen,https://www.smk.sachsen.de/ppdf/2021_11_23_GS_Waldheim.pdf,25.11.2021 bis 03.12.2021,2021-11-25 00:00:00,['2021-03-12 00:00:00'],False,"Am Schulberg 3, 04736 Waldheim, Deutschland",51.06903,13.0237501
Oberschule „Clara Zetkin“ in Freiberg,2021-11-22,befristet teilweise geschlossen,https://www.smk.sachsen.de/ppdf/21_11_22_OS_Clara_Zetkin_Freiberg.pdf,23.11.2021 bis 26.11.2021,2021-11-23 00:00:00,['2021-11-26 00:00:00'],False,"Dörnerzaunstraße 2, 09599 Freiberg, Deutschland",50.9127,13.3422642
Grundschule „Friedrich Kaden“ Großschirma in Großschirma,2021-11-22,befristet teilweise geschlossen,https://www.smk.sachsen.de/ppdf/21_11_22_GS_Kaden_Grossschirma.pdf,23.11.2021 bis 03.12.2021,2021-11-23 00:00:00,['2021-03-12 00:00:00'],False,"Hauptstraße 83 A, 09603 Großschirma, Deutschland",50.9654861,13.2827306
"Grundschule ""Georgius Agricola"" in Freiberg/Loßnitz",2021-11-22,befristet teilweise geschlossen,https://www.smk.sachsen.de/ppdf/21_11_22_GS_Georgius_Agricola.pdf,23.11.2021 bis 03.12.2021,2021-11-23 00:00:00,['2021-03-12 00:00:00'],False,"Agricolastraße 35, 09599 Freiberg, Deutschland",50.93025,13.33666
Grundschule „Friedrich Schiller“ Flöha in Flöha,2021-11-22,befristet teilweise geschlossen,https://www.smk.sachsen.de/ppdf/21_11_22_GS_Floeha.pdf,23.11.2021 bis 03.12.2021,2021-11-23 00:00:00,['2021-03-12 00:00:00'],False,"Augustusburger Str. 2, 09557 Flöha, Deutschland",50.8614127,13.0667308
Grundschule Langenleuba-Oberhain in Penig,2021-11-22,befristet teilweise geschlossen,https://www.smk.sachsen.de/ppdf/2021_11_22_Grundschule_Oberhain.pdf,23.11.2021 bis 30.11.2021,2021-11-23 00:00:00,['2021-11-30 00:00:00'],False,"Schulstraße 16, 09322 Penig, Deutschland",50.96666,12.6578299
Grundschule am Weinberg Roßwein in Roßwein,2021-11-22,befristet vollständig geschlossen,https://www.smk.sachsen.de/ppdf/2021_11_22_GS_Rosswein.pdf,23.11.2021 bis 03.12.2021,2021-11-23 00:00:00,['2021-03-12 00:00:00'],False,"Str. d. Einheit 12, 04741 Roßwein, Deutschland",51.06948999999999,13.1779999
Grundschule Niederschöna in Halsbrücke,2021-11-22,befristet teilweise geschlossen,https://www.smk.sachsen.de/ppdf/21_11_22_GS_Niederschoena.pdf,23.11.2021 bis 03.12.2021,2021-11-23 00:00:00,['2021-03-12 00:00:00'],False,"Schulgasse 1, 09600 Halsbrücke, Deutschland",50.965484,13.4216364
Oberschule Halsbrücke in Halsbrücke,2021-11-22,befristet teilweise geschlossen,https://www.smk.sachsen.de/ppdf/21_11_22_OS_Halsbruecke.pdf,23.11.2021 bis 03.12.2021,2021-11-23 00:00:00,['2021-03-12 00:00:00'],False,"Geschwister-Scholl-Straße 8, 09633 Halsbrücke, Deutschland",50.95403,13.3451401
Grundschule „Theodor Körner“ Freiberg in Freiberg,2021-11-22,befristet teilweise geschlossen,https://www.smk.sachsen.de/ppdf/2021_11_22GS_Koerner_Freiberg.pdf,23.11.2021 bis 30.11.2021,2021-11-23 00:00:00,['2021-11-30 00:00:00'],False,"Turnerstraße 1, 09599 Freiberg, Deutschland",50.9133216,13.3415039
Grundschule Brand-Erbisdorf in Brand-Erbisdorf,2021-11-19,befristet teilweise geschlossen,https://www.smk.sachsen.de/ppdf/21_11_19_Bewegte_GS_Brand_Erbisdorf.pdf,22.11.2021 bis 26.11.2021,2021-11-22 00:00:00,['2021-11-26 00:00:00'],False,"Haasenweg 1, 09618 Brand-Erbisdorf, Deutschland",50.867788,13.3285185
Pestalozzi-Grundschule Mittweida in Mittweida,2021-11-19,befristet teilweise geschlossen,https://www.smk.sachsen.de/ppdf/21_11_19_Pestalozzi_GS_Mittweida.pdf,20.11.2021 bis 26.11.2021,2021-11-20 00:00:00,['2021-11-26 00:00:00'],False,"Kirchstraße 20, 09648 Mittweida, Deutschland",50.98402,12.98293
Oberschule „Clara Zetkin“ in Freiberg,2021-11-18,befristet teilweise geschlossen,https://www.smk.sachsen.de/ppdf/2021_11_18_Oberschule _Clara_Zetkin.pdf,19.11.2021 bis 24.11.2021,2021-11-19 00:00:00,['2021-11-24 00:00:00'],False,"Dörnerzaunstraße 2, 09599 Freiberg, Deutschland",50.9127,13.3422642
Regenbogen-Grundschule Rochlitz in Rochlitz,2021-11-18,befristet teilweise geschlossen,https://www.smk.sachsen.de/ppdf/21_11_18_Regenbogen_GS_Rochlitz.pdf,19.11.2021 bis 26.11.2021,2021-11-19 00:00:00,['2021-11-26 00:00:00'],False,"Bismarckstraße 23, 09306 Rochlitz, Deutschland",51.04907,12.79714
Peter-Apian-Oberschule Leisnig in Leisnig,2021-11-18,befristet teilweise geschlossen,https://www.smk.sachsen.de/ppdf/21_11_18_Peter_Apian_OS.pdf,19.11.2021 bis 26.11.2021,2021-11-19 00:00:00,['2021-11-26 00:00:00'],False,"Franziskus-Nagler-Straße 3, 04703 Leisnig, Deutschland",51.1584431,12.9292627
Schule mit dem Förderschwerpunkt Lernen Schloßbergschule Döbeln in Döbeln,2021-11-18,befristet vollständig geschlossen,https://www.smk.sachsen.de/ppdf/21_11_18_Schlossbergschule_Doebeln.pdf,20.11.2021 bis 26.11.2021,2021-11-20 00:00:00,['2021-11-26 00:00:00'],False,"Schloßberg 2, 04720 Döbeln, Deutschland",51.1218,13.12571
Grundschule Langenleuba-Oberhain in Penig OT Langenleuba-Oberhain,2021-11-18,befristet teilweise geschlossen,https://www.smk.sachsen.de/ppdf/2021_11_18_Grundschule_Oberhain.pdf,19.11.2021 bis 26.11.2021,2021-11-19 00:00:00,['2021-11-26 00:00:00'],False,"Schulstraße 16, 09322 Penig, Deutschland",50.96666,12.6578299
Grundschule Bärenstein in Bärenstein,2021-11-18,befristet teilweise geschlossen,https://www.smk.sachsen.de/ppdf/2021_11_18_GS_Baerenstein.pdf,19.11.2021 bis 26.11.2021,2021-11-19 00:00:00,['2021-11-26 00:00:00'],False,"Max-Harnisch-Straße 6, 09471 Bärenstein, Deutschland",50.49701,13.02407
Grundschule „Theodor Körner“ Freiberg in Freiberg,2021-11-18,befristet teilweise geschlossen,https://www.smk.sachsen.de/ppdf/2021_11_18_GS_Theodor_Koerner.pdf,19.11.2021 bis 26.11.2021,2021-11-19 00:00:00,['2021-11-26 00:00:00'],False,"Turnerstraße 1, 09599 Freiberg, Deutschland",50.9133216,13.3415039
Grundschule Großweitzschen in Großweitzschen,2021-11-18,befristet vollständig geschlossen,https://www.smk.sachsen.de/ppdf/21_11_18_GS_Großweitzschen.pdf,20.11.2021 bis 26.11.2021,2021-11-20 00:00:00,['2021-11-26 00:00:00'],False,"Schulstraße 12, 04720 Großweitzschen, Deutschland",51.1603272,13.0486021
Geschwister-Scholl-Gymnasium Freiberg in Freiberg,2021-11-18,befristet teilweise geschlossen,https://www.smk.sachsen.de/ppdf/2021_11_18_Geschwister-Scholl-Gymnasium_Freiberg.pdf,19.11.2021 bis 26.11.2021,2021-11-19 00:00:00,['2021-11-26 00:00:00'],False,"Albertinum, Albertinum, Geschwister-Scholl-Straße 1, 09599 Freiberg, Deutschland",50.9212991,13.3423129
Erich-Viehweg-Oberschule in Frankenberg,2021-11-16,befristet teilweise geschlossen,https://www.smk.sachsen.de/ppdf/21_11_16_OS_EViehweg_Frankenberg.pdf,18.11.2021 bis 23.11.2021,2021-11-18 00:00:00,['2021-11-23 00:00:00'],False,"Altenhainer Str. 34, 09669 Frankenberg/Sa., Deutschland",50.905807,13.033728
Oberschule Lichtenau in Lichtenau OT Oberlichtenau,2021-11-16,befristet teilweise geschlossen,https://www.smk.sachsen.de/ppdf/21_11_16_OS_Lichtenau.pdf,18.11.2021 bis 26.11.2021,2021-11-18 00:00:00,['2021-11-26 00:00:00'],False,"Bahnhofstraße 11, 09244 Lichtenau, Deutschland",50.9069663,12.9604645
Heinrich-Hoffmann-Schule – Schule mit dem Förderschwerpunkt emotionale und soziale Entwicklung in Erlau,2021-11-16,befristet vollständig geschlossen,https://www.smk.sachsen.de/ppdf/21_11_16_Hoffmann_Erlau.pdf,18.11.2021 bis 26.11.2021,2021-11-18 00:00:00,['2021-11-26 00:00:00'],False,"Zur Mühle 4, 09306 Erlau, Deutschland",51.0474881,12.9505247
Grundschule Waldheim in Waldheim,2021-11-16,befristet vollständig geschlossen,https://www.smk.sachsen.de/ppdf/21_11_16_AV_GS_Waldheim.pdf,18.11.2021 bis 24.11.2021,2021-11-18 00:00:00,['2021-11-24 00:00:00'],False,"Am Schulberg 3, 04736 Waldheim, Deutschland",51.06903,13.0237501
Grundschule Erlau in Erlau,2021-11-16,befristet vollständig geschlossen,https://www.smk.sachsen.de/ppdf/21_11_16_GS_Erlau.pdf,18.11.2021 bis 26.11.2021,2021-11-18 00:00:00,['2021-11-26 00:00:00'],False,"Rochlitzer Str. 48, 09306 Erlau, Deutschland",51.0066723,12.9296307
Grundschule „Am Wasserturm“ Siebenlehn in Siebenlehn,2021-11-15,befristet teilweise geschlossen,https://www.smk.sachsen.de/ppdf/21_11_15_GS_Am_Wasserturm.pdf,16.11.2021 bis 23.11.2021,2021-11-16 00:00:00,['2021-11-23 00:00:00'],False,"Nossener Str. 11, 09603 Großschirma, Deutschland",51.0307264,13.3059013
Grundschule Weidenhain in Dreiheide,2021-11-25,befristet vollständig geschlossen,https://www.smk.sachsen.de/ppdf/21_11_25_GS_Weidenhain.pdf,29.11.2021 bis 03.12.2021,2021-11-29 00:00:00,['2021-03-12 00:00:00'],False,"Schulstraße 4, 04860 Dreiheide, Deutschland",51.5690697,12.8481379
Grundschule Am Park in Taucha,2021-11-25,befristet teilweise geschlossen,https://www.smk.sachsen.de/ppdf/21_11_25_GS_Am_Park_Taucha.pdf,26.11.2021 bis 03.12.2021,2021-11-26 00:00:00,['2021-03-12 00:00:00'],False,"An d. Parthe 24, 04425 Taucha, Deutschland",51.3793874,12.5034394
Förderzentrum an der Promenade Torgau mit den Förderschwerpunkten Lernen und geistige Entwicklung in Torgau,2021-11-25,befristet teilweise geschlossen,https://www.smk.sachsen.de/ppdf/21_11_25_Foerderzentrum_Torgau.pdf,26.11.2021 bis 03.12.2021,2021-11-26 00:00:00,['2021-03-12 00:00:00'],False,"Promenade 3/4, 04860 Torgau, Deutschland",51.5560688,13.0024694
Maria-Merian-Gymnasium Schkeuditz in Schkeuditz,2021-11-24,befristet teilweise geschlossen,https://www.smk.sachsen.de/ppdf/2021_11_24_GY_Schkeuditz.pdf,25.11.2021 bis 01.12.2021,2021-11-25 00:00:00,['2021-01-12 00:00:00'],False,"Lessingstraße 10, 04435 Schkeuditz, Deutschland",51.39461739999999,12.2239855
Christian-Gottfried-Ehrenberg-Gymnasium Delitzsch in Delitzsch,2021-11-24,befristet teilweise geschlossen,https://www.smk.sachsen.de/ppdf/21_11_24_Christian_Gottfried_Ehrenberg_Gymnasium.pdf,25.11.2021 bis 30.11.2021,2021-11-25 00:00:00,['2021-11-30 00:00:00'],False,"Dübener Str. 20, 04509 Delitzsch, Deutschland",51.526849,12.3410667
Gellert-Grundschule Schönwölkau in Schönwölkau,2021-11-23,befristet teilweise geschlossen,https://www.smk.sachsen.de/ppdf/2021_11_23_GS_Schoenwoelkau.pdf,23.11.2021 bis 03.12.2021,2021-11-23 00:00:00,['2021-03-12 00:00:00'],False,"Parkstraße 11, 04509 Schönwölkau, Deutschland",51.49379,12.49727
Gellert-Grundschule Wölkau in Schönwölkau,2021-11-22,befristet teilweise geschlossen,https://www.smk.sachsen.de/ppdf/21_11_22_Gellert_GS_Woelkau.pdf,23.11.2021 bis 03.11.2021,2021-11-23 00:00:00,['2021-03-11 00:00:00'],False,"Parkstraße 11, 04509 Schönwölkau, Deutschland",51.49379,12.49727
"Robert-Härtwig-Schule Oschatz, Oberschule der Stadt Oschatz in Oschatz",2021-11-22,befristet teilweise geschlossen,https://www.smk.sachsen.de/ppdf/2021_11_22_OS_Haertwig_Oschatz.pdf,23.11.2021 bis 03.12.2021,2021-11-23 00:00:00,['2021-03-12 00:00:00'],False,"Bahnhofstraße 5, 04758 Oschatz, Deutschland",51.3020752,13.1062761
Heide-Grundschule Bad Düben in Bad Düben,2021-11-19,befristet teilweise geschlossen,https://www.smk.sachsen.de/ppdf/2021_11_19_Bad_Dueben.pdf,20.11.2021 bis 26.11.2021,2021-11-20 00:00:00,['2021-11-26 00:00:00'],False,"Schmiedeberger Str. 13, 04849 Bad Düben, Deutschland",51.5966306,12.58857
Pumphut-Grundschule Mockrehna in Mockrehna,2021-11-19,befristet vollständig geschlossen,https://www.smk.sachsen.de/ppdf/2021_11_19_Pumphut-GS-Mockrehna.pdf,20.11.2021 bis 26.11.2021,2021-11-20 00:00:00,['2021-11-26 00:00:00'],False,"Schulstraße 8, 04862 Mockrehna, Deutschland",51.50624699999999,12.8094691
Oberschule Mockrehna in Mockrehna,2021-11-19,befristet vollständig geschlossen,https://www.smk.sachsen.de/ppdf/2021_11_19_Oberschule_Mockrehna.pdf,20.11.2021 bis 26.11.2021,2021-11-20 00:00:00,['2021-11-26 00:00:00'],False,"Schulstraße 8, 04862 Mockrehna, Deutschland",51.5062624,12.8099675
Oberschule Taucha in Taucha,2021-11-16,befristet teilweise geschlossen,https://www.smk.sachsen.de/ppdf/21_11_16_OS_Taucha.pdf,18.11.2021 bis 23.11.2021,2021-11-18 00:00:00,['2021-11-23 00:00:00'],False,"Friedrich-Engels-Straße 19, 04425 Taucha, Deutschland",51.3743259,12.4878647
Grundschule „Schlossschule“ Hof in Naundorf/Hof,2021-11-15,befristet vollständig geschlossen,https://www.smk.sachsen.de/ppdf/21_11_15_Schlossschule_Hof_Erweiterung.pdf,16.11.2021 bis 26.11.2021,2021-11-16 00:00:00,['2021-11-26 00:00:00'],False,"Am Dorfpl. 2, 04769 Naundorf, Deutschland",51.2375476,13.1904929
Oberschule Bad Düben in Bad Düben,2021-11-15,befristet teilweise geschlossen,https://www.smk.sachsen.de/ppdf/15_11_2021_OS Bad_Dueben.pdf,16.11.2021 bis 23.11.2021,2021-11-16 00:00:00,['2021-11-23 00:00:00'],False,"Windmühlenweg 19, 04849 Bad Düben, Deutschland",51.59742,12.58831
Friedrich-Schiller-Oberschule in Neustadt in Sachsen,2021-11-26,befristet vollständig geschlossen,https://www.smk.sachsen.de/ppdf/21_11_26_Friedrich_Schiller_OS.pdf,29.11.2021 bis 10.12.2021,2021-11-29 00:00:00,['2021-10-12 00:00:00'],True,"Rosa-Luxemburg-Straße 11, 01844 Neustadt in Sachsen, Deutschland",51.02601,14.2079548
Grundschule Dürrröhrsdorf-Dittersbach in Dürrröhrsdorf-Dittersbach,2021-11-26,befristet teilweise geschlossen,https://www.smk.sachsen.de/ppdf/21_11_26_GS_Duerrroehrsdorf.pdf,27.11.2021 bis 03.12.2021,2021-11-27 00:00:00,['2021-03-12 00:00:00'],True,"Schulstraße 3, 01833 Dürrröhrsdorf-Dittersbach, Deutschland",51.0341914,13.9931851
"Wilhelmine-Reichard-Schule, Schule mit dem Förderschwerpunkt Lernen in Freital",2021-11-26,befristet teilweise geschlossen,https://www.smk.sachsen.de/ppdf/21_11_26__Foerderschule_Wilhelmine_Reichard.pdf,27.11.2021 bis 03.12.2021,2021-11-27 00:00:00,['2021-03-12 00:00:00'],True,"Zauckeroder Str. 4A, 01705 Freital, Deutschland",51.009066,13.6457431
Grundschule Kreischa in Kreischa,2021-11-26,befristet teilweise geschlossen,https://www.smk.sachsen.de/ppdf/2021_11_26_Grundschule_Kreischa.pdf,29.11.2021 bis 10.12.2021,2021-11-29 00:00:00,['2021-10-12 00:00:00'],True,"Kirchweg 1A-C, 01731 Kreischa, Deutschland",50.9435362,13.7576273
"Grundschule ""G.-E.-Lessing"" Freital-Potschappel in Freital",2021-11-25,befristet vollständig geschlossen,https://www.smk.sachsen.de/ppdf/2021_11_25_Grundschule_Freital_Potschappel.pdf,26.11.2021 bis 03.12.2021,2021-11-26 00:00:00,['2021-03-12 00:00:00'],False,"Zur Lessingschule, 01705 Freital, Deutschland",51.0109123,13.6592397
Astrid-Lindgren-Grundschule Heidenau in Heidenau,2021-11-25,befristet teilweise geschlossen,https://www.smk.sachsen.de/ppdf/21_11_25_Astrid_Lindgren_GS_Heidenau.pdf,26.11.2021 bis 03.12.2021,2021-11-26 00:00:00,['2021-03-12 00:00:00'],False,"Dresdner Str. 62, 01809 Heidenau, Deutschland",50.9838819,13.8635656
Grundschule Königstein in Königstein,2021-11-25,befristet vollständig geschlossen,https://www.smk.sachsen.de/ppdf/21_11_25_GS_Koenigstein.pdf,26.11.2021 bis 03.12.2021,2021-11-26 00:00:00,['2021-03-12 00:00:00'],False,"Schreiberberg 1, 01824 Königstein, Germany",50.91796189999999,14.0721565
Grundschule Königstein in Königstein,2021-11-25,Widerruf,https://www.smk.sachsen.de/ppdf/21_11_25_GS_Koenigstein_Widerruf.pdf,26.11.2021,2021-11-26 00:00:00,2021-11-26 00:00:00,False,"Schreiberberg 1, 01824 Königstein, Germany",50.91796189999999,14.0721565
Grundschule Pirna-Neundorf in Pirna,2021-11-25,befristet teilweise geschlossen,https://www.smk.sachsen.de/ppdf/2021_11_25_Grundschule_Pirna_Neundorf.pdf,26.11.2021 bis 03.12.2021,2021-11-26 00:00:00,['2021-03-12 00:00:00'],False,"Alt-Neundorf 24, 01796 Pirna, Deutschland",50.9169177,13.979638
F.-A.-W.-Diesterweg-Grundschule in Pirna,2021-11-25,befristet vollständig geschlossen,https://www.smk.sachsen.de/ppdf/2021_11_25_FAW_Diesterweg_GS_Pirna.pdf,29.11.2021 bis 10.12.2021,2021-11-29 00:00:00,['2021-10-12 00:00:00'],False,"Prof.-Roßmäßler-Straße 42, 01796 Pirna, Deutschland",50.97111779999999,13.9277368
Grundschule Dürrröhrsdorf-Dittersbach in Dürrröhrsdorf-Dittersbach,2021-11-24,befristet teilweise geschlossen,https://www.smk.sachsen.de/ppdf/2021_11_24_GS_Duerrroehrsdorf_Dittersbach.pdf,26.11.2021 bis 07.12.2021,2021-11-26 00:00:00,['2021-07-12 00:00:00'],False,"Schulstraße 3, 01833 Dürrröhrsdorf-Dittersbach, Deutschland",51.0341914,13.9931851
Grundschule „Gotthold Ephraim Lessing“ Pirna in Pirna,2021-11-24,befristet teilweise geschlossen,https://www.smk.sachsen.de/ppdf/2021_11_24_Lessing_Grundschule_Pirna.pdf,25.11.2021 bis 03.12.2021,2021-11-25 00:00:00,['2021-03-12 00:00:00'],False,"Königsteiner Str. 22 a, 01796 Pirna, Deutschland",50.9576597,13.9332941
Grundschule Berggießhübel in Bad Gottleuba-Berggießhübel,2021-11-24,befristet vollständig geschlossen,https://www.smk.sachsen.de/ppdf/2021_11_24_GS_Berggiesshuebel.pdf,25.11.2021 bis 09.12.2021,2021-11-25 00:00:00,['2021-09-12 00:00:00'],False,"Makarenkostraße 15, 01819 Bad Gottleuba-Berggießhübel, Deutschland",50.87505729999999,13.9555738
Pestalozzi-Oberschule in Pirna,2021-11-24,befristet vollständig geschlossen,https://www.smk.sachsen.de/ppdf/21_11_24_Pestalozzi_OS_Pirna.pdf,25.11.2021 bis 03.12.2021,2021-11-25 00:00:00,['2021-03-12 00:00:00'],False,"10, Schulstraße, 01796 Pirna, Deutschland",50.96834459999999,13.9364097
Pestalozzi-Oberschule in Pirna,2021-11-24,Widerruf,https://www.smk.sachsen.de/ppdf/21_11_24_Pestalozzi_OS_Pirna_Widerruf.pdf,25.11.2021,2021-11-25 00:00:00,2021-11-25 00:00:00,False,"10, Schulstraße, 01796 Pirna, Deutschland",50.96834459999999,13.9364097
Friedrich-Schiller-Gymnasium in Pirna,2021-11-23,befristet teilweise geschlossen,https://www.smk.sachsen.de/ppdf/2021_11_23_Friedrich_Schiller_Gymnasium_Pirna.pdf,24.11.2021 bis 26.11.2021,2021-11-24 00:00:00,['2021-11-26 00:00:00'],False,"Seminarstraße 3, 01796 Pirna, Deutschland",50.95679,13.9419101
Oberschule Königstein in Königstein/Sächs. Schw.,2021-11-23,befristet teilweise geschlossen,https://www.smk.sachsen.de/ppdf/2021_11_23_OS_Eppendorf.pdf,24.11.2021 bis 03.12.2021,2021-11-24 00:00:00,['2021-03-12 00:00:00'],False,"Mühlgasse 1, 01824 Königstein, Deutschland",50.917611,14.0723353
Grundschule „Bruno Gleißberg“ Heidenau in Heidenau,2021-11-23,befristet teilweise geschlossen,https://www.smk.sachsen.de/ppdf/2021_11_23_GS_Gleissberg_Heidenau.pdf,24.11.2021 bis 01.12.2021,2021-11-24 00:00:00,['2021-01-12 00:00:00'],False,"Ernst-Schneller-Straße 12, 01809 Heidenau, Deutschland",50.9704562,13.8625163
Grundschule Rosenstraße Sebnitz in Sebnitz,2021-11-23,befristet teilweise geschlossen,https://www.smk.sachsen.de/ppdf/2021_11_23_Grundschule_Rosenstraße_Sebnitz.pdf,24.11.2021 bis 03.12.2021,2021-11-24 00:00:00,['2021-03-12 00:00:00'],False,"Rosenstraße 13, 01855 Sebnitz, Deutschland",50.972745,14.2744667
Grundschule Oelsa in Rabenau,2021-11-23,befristet teilweise geschlossen,https://www.smk.sachsen.de/ppdf/21_11_23_GS_Oelsa.pdf,24.11.2021 bis 03.12.2021,2021-11-24 00:00:00,['2021-03-12 00:00:00'],False,"Hauptstraße 71, 01734 Rabenau, Deutschland",50.95007820000001,13.665132
Grundschule Oberhermsdorf in Wilsdruff,2021-11-23,befristet teilweise geschlossen,https://www.smk.sachsen.de/ppdf/21_11_23_GS_Oberhermsdorf.pdf,24.11.2021 bis 03.12.2021,2021-11-24 00:00:00,['2021-03-12 00:00:00'],False,"Hauptstraße 24, 01737 Wilsdruff, Deutschland",51.0198511,13.5915524
Oberschule Wilsdruff in Wilsdruff,2021-11-23,befristet vollständig geschlossen,https://www.smk.sachsen.de/ppdf/2021_11_23_Oberschule_Wilsdruff.pdf,24.11.2021 bis 08.12.2021,2021-11-24 00:00:00,['2021-08-12 00:00:00'],False,"Gezinge 12, 01723 Wilsdruff, Deutschland",51.04995,13.5366301
Freie Oberschule der Sabel Freital gAG in Freital,2021-11-23,befristet teilweise geschlossen,https://www.smk.sachsen.de/ppdf/2021_11_23_OS_Sabel.pdf,24.11.2021 bis 26.12.2021,2021-11-24 00:00:00,['2021-12-26 00:00:00'],False,"Kirchstraße 1, 01705 Freital, Deutschland",50.98200749999999,13.6331916
Grundschule Kreischa in Kreischa,2021-11-22,befristet teilweise geschlossen,https://www.smk.sachsen.de/ppdf/21_11_22_GS_Kreischa.pdf,23.11.2021 bis 03.12.2021,2021-11-23 00:00:00,['2021-03-12 00:00:00'],False,"Kirchweg 1A-C, 01731 Kreischa, Deutschland",50.9435362,13.7576273
Grundschule „Bernhard Hantzsch“ Kurort Hartha im Kurort Hartha,2021-11-22,befristet teilweise geschlossen,https://www.smk.sachsen.de/ppdf/2021_11_22_GS_KO_Hartha.pdf,23.11.2021 bis 26.11.2021,2021-11-23 00:00:00,['2021-11-26 00:00:00'],False,"Friedrich-Schiller-Straße 21, 01737 Tharandt, Deutschland",50.9840613,13.5446109
Berufliches Schulzentrum „Friedrich Siemens“ Pirna in Pirna,2021-11-22,befristet teilweise geschlossen,https://www.smk.sachsen.de/ppdf/2021_11_22_BSZ_Siemens_Pirna.pdf,gestaffelt 23.11.2021 bis 30.11.2021,,['2021-11-30 00:00:00'],False,"Pillnitzer Str. 13, 01796 Pirna, Deutschland",50.97674379999999,13.9332283
Oberschule „Geschwister Scholl“ in Freital-Hainsberg,2021-11-22,befristet vollständig geschlossen,https://www.smk.sachsen.de/ppdf/2021_11_22_Freital_Hainsberg.pdf,23.11.2021 bis 26.11.2021,2021-11-23 00:00:00,['2021-11-26 00:00:00'],False,"Richard-Wolf-Straße 1, 01705 Freital, Deutschland",50.9786569,13.6225388
Astrid-Lindgren-Grundschule Heidenau in Heidenau,2021-11-22,befristet teilweise geschlossen,https://www.smk.sachsen.de/ppdf/2021_11_22_Astrid_Lingren_Grundschule.pdf,23.11.2021 bis 03.12.2021,2021-11-23 00:00:00,['2021-03-12 00:00:00'],False,"Dresdner Str. 62, 01809 Heidenau, Deutschland",50.9838819,13.8635656
Grundschule Berggießhübel in Bad Gottleuba-Berggießhübel,2021-11-22,befristet teilweise geschlossen,https://www.smk.sachsen.de/ppdf/21_11_22_GS_Berggiesshuebel.pdf,23.11.2021 bis 01.12.2021,2021-11-23 00:00:00,['2021-01-12 00:00:00'],False,"Makarenkostraße 15, 01819 Bad Gottleuba-Berggießhübel, Deutschland",50.87505729999999,13.9555738
Oberschule Bad Gottleuba in Bad Gottleuba-Berggießhübel,2021-11-22,befristet teilweise geschlossen,https://www.smk.sachsen.de/ppdf/21_11_22_OS_Bad_Gottleuba.pdf,23.11.2021 bis 01.12.2021,2021-11-23 00:00:00,['2021-01-12 00:00:00'],False,"Hellendorfer Str. 32, 01816 Bad Gottleuba-Berggießhübel, Deutschland",50.84627,13.94386
Oberschule „Johann Wolfgang von Goethe“ Pirna in Pirna,2021-11-22,befristet vollständig geschlossen,https://www.smk.sachsen.de/ppdf/21_11_22_OS_Johann_Wolfgang_von_Goethe_Pirna.pdf,25.11.2021 bis 03.12.2021,2021-11-25 00:00:00,['2021-03-12 00:00:00'],False,"Dohnaischer Pl. 1, 01796 Pirna, Deutschland",50.96066,13.9395987
Grundschule Mohorn in Wilsdruff,2021-11-22,befristet teilweise geschlossen,https://www.smk.sachsen.de/ppdf/2021_11_22_GS_Mohorn.pdf,23.11.2021 bis 01.12.2021,2021-11-23 00:00:00,['2021-01-12 00:00:00'],False,"Schulberg 10, 01723 Wilsdruff, Deutschland",50.9997701,13.4608201
Johann-Heinrich-Pestalozzi-Oberschule in Pirna,2021-11-22,befristet teilweise geschlossen,https://www.smk.sachsen.de/ppdf/2021_11_22_OS_Pirna.pdf,23.11.2021 bis 30.11.2021,2021-11-23 00:00:00,['2021-11-30 00:00:00'],False,"10, Schulstraße, 01796 Pirna, Deutschland",50.96834459999999,13.9364097
Grundschule Königstein in Königstein,2021-11-22,befristet teilweise geschlossen,https://www.smk.sachsen.de/ppdf/21_11_22_GS_Koenigstein.pdf,23.11.2021 bis 26.11.2021,2021-11-23 00:00:00,['2021-11-26 00:00:00'],False,"Schreiberberg 1, 01824 Königstein, Germany",50.91796189999999,14.0721565
Evangelischen Grundschule Grumbach in Wilsdruff OT Grumbach,2021-11-19,befristet vollständig geschlossen,https://www.smk.sachsen.de/ppdf/19_11_2021_Ev_GS_Grumbach.pdf,20.11.2021 bis 26.11.2021,2021-11-20 00:00:00,['2021-11-26 00:00:00'],False,"Tharandter Str. 8, 01723 Wilsdruff, Deutschland",51.02898889999999,13.5501177
Grundschule Pretzschendorf in Pretzschendorf,2021-11-19,befristet vollständig geschlossen,https://www.smk.sachsen.de/ppdf/2021_11_19_Grundschule_Pretzschendorf.pdf,20.11.2021 bis 26.11.2021,2021-11-20 00:00:00,['2021-11-26 00:00:00'],False,"Erich-Weinert-Straße 9, 01774 Klingenberg, Deutschland",50.8741402,13.5252197
Grundschule Ruppendorf in Ruppendorf,2021-11-19,befristet vollständig geschlossen,https://www.smk.sachsen.de/ppdf/2021_11_19_Grundschule_Ruppendorf.pdf,20.11.2021 bis 26.11.2021,2021-11-20 00:00:00,['2021-11-26 00:00:00'],False,"Freiberger Str. 18, 01774 Höckendorf, Deutschland",50.9076591,13.5989443
Grundschule Wilsdruff in Wilsdruff,2021-11-19,befristet vollständig geschlossen,https://www.smk.sachsen.de/ppdf/21_11_19_GS_Wilsdruff.pdf,20.11.2021 bis 03.12.2021,2021-11-20 00:00:00,['2021-03-12 00:00:00'],False,"Nossener Str. 21 a, 01723 Wilsdruff, Deutschland",51.0510092,13.5334263
Grundschule Lohmen in Lohmen,2021-11-19,befristet teilweise geschlossen,https://www.smk.sachsen.de/ppdf/21_11_19_GS_Lohmen.pdf,22.11.2021 bis 26.11.2021,2021-11-22 00:00:00,['2021-11-26 00:00:00'],False,"Stolpener Str. 6, 01847 Lohmen, Deutschland",50.9896859,13.99926
Grundschule „Bruno Gleißberg“ in Heidenau,2021-11-18,befristet teilweise geschlossen,https://www.smk.sachsen.de/ppdf/2021_11_18_GS_Gleissberg_Heidenau.pdf,19.11.2021 bis 26.11.2021,2021-11-19 00:00:00,['2021-11-26 00:00:00'],False,"Ernst-Schneller-Straße 12, 01809 Heidenau, Deutschland",50.9704562,13.8625163
Oberschule „J. W. v. Goethe“ in Heidenau,2021-11-18,befristet vollständig geschlossen,https://www.smk.sachsen.de/ppdf/2021_11_18_Goethe_Heidenau.pdf,20.11.2021 bis 26.11.2021,2021-11-20 00:00:00,['2021-11-26 00:00:00'],False,"Ernst-Thälmann-Straße 22, 01809 Heidenau, Deutschland",50.9770856,13.8677781
Grundschule „Am Marienschacht“ in Bannewitz,2021-11-18,eingeschränkter Regelbetrieb,https://www.smk.sachsen.de/ppdf/2021_11_18_Grundschule_Bannewitz.pdf,19.11.2021 bis 26.11.2021,2021-11-19 00:00:00,['2021-11-26 00:00:00'],False,"Neues Leben 26, 01728 Bannewitz, Deutschland",50.99169029999999,13.7095844
Grundschule Poisental in Freital,2021-11-18,befristet vollständig geschlossen,https://www.smk.sachsen.de/ppdf/21_11_18_GS_Poisental.pdf,19.11.2021 bis 26.11.2021,2021-11-19 00:00:00,['2021-11-26 00:00:00'],False,"Poisentalstraße 79, 01705 Freital, Deutschland",50.9887524,13.6660333
Grundschule Possendorf in Possendorf,2021-11-18,befristet vollständig geschlossen,https://www.smk.sachsen.de/ppdf/21_11_18_GS_Possendorf.pdf,20.11.2021 bis 26.11.2021,2021-11-20 00:00:00,['2021-11-26 00:00:00'],False,"Schulstraße 6, 01728 Bannewitz, Deutschland",50.9650203,13.714234
Grundschule „Ludwig Richter“ in Freital,2021-11-18,eingeschränkter Regelbetrieb,https://www.smk.sachsen.de/ppdf/2021_11_18_GS Ludwig_Richter.pdf,20.11.2021 bis 03.12.2021,2021-11-20 00:00:00,['2021-03-12 00:00:00'],False,"Ludwig-Richter-Straße 1, 01705 Freital, Deutschland",51.0110793,13.6786296
"Grundschule ""Am Albertschacht"" Freital-Wurgwitz in Freital",2021-11-18,eingeschränkter Regelbetrieb,https://www.smk.sachsen.de/ppdf/2021_11_18_GS_Wurgwitz.pdf,20.11.2021 bis 03.12.2021,2021-11-20 00:00:00,['2021-03-12 00:00:00'],False,"Zur Quäne 11, 01705 Freital, Deutschland",51.01974300000001,13.6228111
Benjamin-Geißler-Grundschule Liebstadt in Liebstadt,2021-11-18,befristet vollständig geschlossen,https://www.smk.sachsen.de/ppdf/21_11_18_Ben_Geissler_GS.pdf,19.11.2021 bis 26.11.2021,2021-11-19 00:00:00,['2021-11-26 00:00:00'],False,"Schulstraße 13, 01825 Liebstadt, Deutschland",50.8537944,13.8520826
Grundschule Kreischa in Kreischa,2021-11-18,eingeschränkter Regelbetrieb,https://www.smk.sachsen.de/ppdf/21_11_18_GS_Kreischa.pdf,22.11.2021 bis 03.12.2021,2021-11-22 00:00:00,['2021-03-12 00:00:00'],False,"Kirchweg 1A-C, 01731 Kreischa, Deutschland",50.9435362,13.7576273
"Berufliches Schulzentrum ""Friedrich Siemens"" Pirna in Pirna",2021-11-16,befristet teilweise geschlossen,https://www.smk.sachsen.de/ppdf/21_11_16_BSZ_Friedrich_Siemens_Pirna.pdf,18.11.2021 bis 24.11.2021,2021-11-18 00:00:00,['2021-11-24 00:00:00'],False,"Pillnitzer Str. 13, 01796 Pirna, Deutschland",50.97674379999999,13.9332283
Oberschule „Johann Wolfgang v. Goethe“ Pirna in Pirna,2021-11-15,befristet vollständig geschlossen,https://www.smk.sachsen.de/ppdf/15_11_2021_Goethe_OS_Pirna.pdf,16.11.2021 bis 24.11.2021,2021-11-16 00:00:00,['2021-11-24 00:00:00'],False,"Dohnaischer Pl. 1, 01796 Pirna, Deutschland",50.96066,13.9395987
Grundschule „Am Stadion“ in Oelsnitz,2021-11-26,befristet teilweise geschlossen,https://www.smk.sachsen.de/ppdf/2021_11_26_GS_Am_Station_Oelsnitz.pdf,27.11.2021 bis 03.12.2021,2021-11-27 00:00:00,['2021-03-12 00:00:00'],True,"Otto-Riedel-Straße 2, 08606 Oelsnitz/Vogtl., Deutschland",50.422863,12.1669464
Grundschule Reusa in Plauen,2021-11-26,befristet vollständig geschlossen,https://www.smk.sachsen.de/ppdf/21_11_26_GS_Reusa.pdf,27.11.2021 bis 03.12.2021,2021-11-27 00:00:00,['2021-03-12 00:00:00'],True,"Am Weinberg 28, 08529 Plauen, Deutschland",50.493385,12.1602621
Goethe-Gymnasium Auerbach in Auerbach/Vogtl.,2021-11-25,befristet teilweise geschlossen,https://www.smk.sachsen.de/ppdf/2021_11_25_GY_Goethe_Auerbach.pdf,26.11.2021 bis 03.12.2021,2021-11-26 00:00:00,['2021-03-12 00:00:00'],False,"Bertolt-Brecht-Straße 1, 08209 Auerbach/Vogtland, Deutschland",50.5062055,12.395556
Grundschule Bad Elster in Bad Elster,2021-11-25,befristet teilweise geschlossen,https://www.smk.sachsen.de/ppdf/21_11_25_GS_Bad_Elster.pdf,27.11.2021 bis 03.12.2021,2021-11-27 00:00:00,['2021-03-12 00:00:00'],False,"Hagerstraße 1, 08645 Bad Elster, Deutschland",50.2810976,12.2334765
"Förderzentrum „Oberes Vogtland“, Schulteil Markneukirchen, in Markneukirchen",2021-11-24,befristet vollständig geschlossen,https://www.smk.sachsen.de/ppdf/21_11_24_Foerderzentrum_Oberes_Vogtland.pdf,25.11.2021 bis 08.12.2021,2021-11-25 00:00:00,['2021-08-12 00:00:00'],False,"Wohlhausener Str. 9/10, 08258 Markneukirchen, Deutschland",50.3122323,12.3361364
Oberschule Oelsnitz in Oelsnitz,2021-11-24,befristet teilweise geschlossen,https://www.smk.sachsen.de/ppdf/2021_11_24_OS_Oelsnitz.pdf,25.11.2021 bis 01.12.2021,2021-11-25 00:00:00,['2021-01-12 00:00:00'],False,"Karl-Marx-Platz 12, 08606 Oelsnitz/Vogtl., Deutschland",50.4140449,12.173707
Grundschule Neumark in Neumark,2021-11-23,befristet vollständig geschlossen,https://www.smk.sachsen.de/ppdf/2021_11_23_Grundschule_Neumark.pdf,24.11.2021 bis 03.12.2021,2021-11-24 00:00:00,['2021-03-12 00:00:00'],False,"Oberneumarker Str. 3, 08496 Neumark, Deutschland",50.65589,12.35591
Grundschule „Gebrüder Grimm“ in Auerbach/Vogtland,2021-11-23,befristet vollständig geschlossen,https://www.smk.sachsen.de/ppdf/2021_11_23_GS_Gebrueder_Grimm.pdf,25.11.2021 bis 01.12.2021,2021-11-25 00:00:00,['2021-01-12 00:00:00'],False,"Robert-Blum-Straße 1, 08209 Auerbach/Vogtland, Deutschland",50.51285799999999,12.394572
Lessing-Gymnasium Plauen in Plauen,2021-11-23,befristet teilweise geschlossen,https://www.smk.sachsen.de/ppdf/21_11_23_Lessing_Gymnasium_Plauen.pdf,24.11.2021 bis 26.11.2021,2021-11-24 00:00:00,['2021-11-26 00:00:00'],False,"Jößnitzer Str. 88, 08525 Plauen, Deutschland",50.5081438,12.1452478
Grundschule Jößnitz in Plauen,2021-11-22,befristet vollständig geschlossen,https://www.smk.sachsen.de/ppdf/21_11_22_GS_Joessnitz.pdf,23.11.2021 bis 26.11.2021,2021-11-23 00:00:00,['2021-11-26 00:00:00'],False,"Gerhart-Hauptmann-Straße 6, 08547 Plauen, Deutschland",50.5401471,12.1372469
Oberschule „Geschwister Scholl“ in Auerbach/Vogtland,2021-11-22,befristet vollständig geschlossen,https://www.smk.sachsen.de/ppdf/2021_11_22_OS_Scholl_Auerbach.pdf,23.11.2021 bis 01.12.2021,2021-11-23 00:00:00,['2021-01-12 00:00:00'],False,"Bertolt-Brecht-Straße 17, 08209 Auerbach/Vogtland, Deutschland",50.50923,12.39447
Grundschule Bad Elster in Bad Elster,2021-11-22,befristet teilweise geschlossen,https://www.smk.sachsen.de/ppdf/21_11_22_GS_Bad_Elster.pdf,23.11.2021 bis 26.11.2021,2021-11-23 00:00:00,['2021-11-26 00:00:00'],False,"Hagerstraße 1, 08645 Bad Elster, Deutschland",50.2810976,12.2334765
Geschwister Scholl Oberschule in Auerbach/Vogtland,2021-11-19,befristet teilweise geschlossen,https://www.smk.sachsen.de/ppdf/2021_11_19_Geschwister-Scholl-Oberschule.pdf,20.11.2021 bis 01.12.2021,2021-11-20 00:00:00,['2021-01-12 00:00:00'],False,"Bertolt-Brecht-Straße 17, 08209 Auerbach/Vogtland, Deutschland",50.50923,12.39447
"Grundschule ""Rosenbach"" in Rosenbach/Vogtland OT Mehltheuer",2021-11-19,befristet vollständig geschlossen,https://www.smk.sachsen.de/ppdf/2021_11_19_Grundschule_Rosenbach.pdf,20.11.2021 bis 01.12.2021,2021-11-20 00:00:00,['2021-01-12 00:00:00'],False,"Friedensstraße 19, 08539 Rosenbach, Deutschland",50.54227,12.03398
"Grundschule „Otto Schüler“, Ellefeld in Ellefeld",2021-11-19,befristet teilweise geschlossen,https://www.smk.sachsen.de/ppdf/2021_11_19_GS_Ellefeld.pdf,20.11.2021 bis 26.11.2021,2021-11-20 00:00:00,['2021-11-26 00:00:00'],False,"Schulstraße 8, 08236 Ellefeld, Deutschland",50.48442,12.3873
Grundschule Eichigt in Eichigt,2021-11-16,befristet vollständig geschlossen,https://www.smk.sachsen.de/ppdf/21_11_16_GS_Eichigt.pdf,18.11.2021 bis 24.11.2021,2021-11-18 00:00:00,['2021-11-24 00:00:00'],False,"Dorfstraße 60, 08626 Eichigt, Deutschland",50.348223,12.1732566
"Grundschule ""Gebrüder Grimm"" in Auerbach/Vogtland",2021-11-16,befristet vollständig geschlossen,https://www.smk.sachsen.de/ppdf/21_11_16_GS_Geb_Grimm.pdf,18.11.2021 bis 24.11.2021,2021-11-18 00:00:00,['2021-11-24 00:00:00'],False,"Robert-Blum-Straße 1, 08209 Auerbach/Vogtland, Deutschland",50.51285799999999,12.394572
Grundschule Schöneck in Schöneck,2021-11-12,befristet teilweise geschlossen,https://www.smk.sachsen.de/ppdf/21_11_15_GS_Schoeneck.pdf,16.11.2021 bis 23.11.2021,2021-11-16 00:00:00,['2021-11-23 00:00:00'],False,"Neue Schulstraße 1, 08261 Schöneck/Vogtland, Deutschland",50.3931423,12.3340578
Anne-Frank-Schule Förderzentrum mit dem Förderschwerpunkt Sprache in Zwickau,2021-11-26,befristet teilweise geschlossen,https://www.smk.sachsen.de/ppdf/21_11_26_FZ_Anne_Frank_Zwickau.pdf,29.11.2021 bis .12.2021,2021-11-29 00:00:00,['2021-12-28 00:00:00'],True,"Neuplanitzer Str. 86, 08062 Zwickau, Deutschland",50.6929168,12.4637853
Grundschule Frankenhausen in Crimmitschau,2021-11-25,befristet teilweise geschlossen,https://www.smk.sachsen.de/ppdf/2021_11_25_GS_Frankenhausen.pdf,29.11.2021 bis 03.12.2021,2021-11-29 00:00:00,['2021-03-12 00:00:00'],False,"Leipziger Str. 215A, 08451 Crimmitschau, Deutschland",50.83975,12.38973
DPFA-Regenbogen Grundschule Zwickau „Carl Friedrich Benz“ in Zwickau,2021-11-25,befristet teilweise geschlossen,https://www.smk.sachsen.de/ppdf/2021_11_25_DPFA_Regenbogen_GS_Zwickau.pdf,29.11.2021 bis 03.12.2021,2021-11-29 00:00:00,['2021-03-12 00:00:00'],False,"Salutstraße 4 A, 08066 Zwickau, Deutschland",50.7337927,12.5223454
"Umweltschule Werdau, Grundschule in Werdau",2021-11-25,befristet teilweise geschlossen,https://www.smk.sachsen.de/ppdf/2021_11_25_Umweltschule_Werdau.pdf,26.11.2021 bis 03.12.2021,2021-11-26 00:00:00,['2021-03-12 00:00:00'],False,"Str. d. Jugend 21, 08412 Werdau, Deutschland",50.7264721,12.3843939
"Gymnasium ""Prof. Dr. Max Schneider"" in Lichtenstein/Sachsen",2021-11-24,befristet teilweise geschlossen,https://www.smk.sachsen.de/ppdf/21_11_24_Prof_Dr_Max_Schneider_Gymnasium.pdf,25.11.2021 bis 29.11.2021,2021-11-25 00:00:00,['2021-11-29 00:00:00'],False,"Lutherpl. 3, 09350 Lichtenstein/Sachsen, Deutschland",50.7542194,12.6304655
Sachsenalleeschule Grundschule in Glauchau,2021-11-24,befristet vollständig geschlossen,https://www.smk.sachsen.de/ppdf/2021_11_24_Sachsenalleeschule.pdf,29.11.2021 bis 03.12.2021,2021-11-29 00:00:00,['2021-03-12 00:00:00'],False,"Am Hochhaus 7, 08371 Glauchau, Deutschland",50.82331000000001,12.51713
"Pestalozzischule Zwickau, Oberschule in Zwickau",2021-11-22,befristet Wechselmodell,https://www.smk.sachsen.de/ppdf/2021_11_22_Pesta_OS_Zwickau.pdf,24.11.2021 bis 03.12.2021,2021-11-24 00:00:00,['2021-03-12 00:00:00'],False,"Seminarstraße 3, 08058 Zwickau, Deutschland",50.7306696,12.484476
Grundschule Wildenfels in Wildenfels,2021-11-22,befristet vollständig geschlossen,https://www.smk.sachsen.de/ppdf/2021_11_22_GS_Wildenfels.pdf,25.11.2021 bis 26.11.2021,2021-11-25 00:00:00,['2021-11-26 00:00:00'],False,"Schulstraße 5, 08134 Wildenfels, Deutschland",50.6662686,12.6114683
Bergschule St. Egidien - Grundschule in St. Egidien,2021-11-22,befristet vollständig geschlossen,https://www.smk.sachsen.de/ppdf/21_11_22_Bergschule_St_Egidien.pdf,23.11.2021 bis 03.12.2021,2021-11-23 00:00:00,['2021-03-12 00:00:00'],False,"Glauchauer Str. 22, 09356 St. Egidien, Deutschland",50.78519559999999,12.6127268
Gymnasium „Am Sandberg“ Wilkau-Haßlau in Wilkau-Haßlau,2021-11-19,befristet teilweise geschlossen,https://www.smk.sachsen.de/ppdf/21_11_19_Gymnasium_am_Sandberg.pdf,22.11.2021 bis 26.11.2021,2021-11-22 00:00:00,['2021-11-26 00:00:00'],False,"Albert-Schweitzer-Ring 77, 08112 Wilkau-Haßlau, Deutschland",50.68154999999999,12.5113801
"Erich-Weinert-Schule, Grundschule in Glauchau",2021-11-18,befristet vollständig geschlossen,https://www.smk.sachsen.de/ppdf/21_11_18_Erich_Weinert_GS.pdf,19.11.2021 bis 26.11.2021,2021-11-19 00:00:00,['2021-11-26 00:00:00'],False,"Schlachthofstraße 68, 08371 Glauchau, Deutschland",50.8256507,12.5510212
Grundschule Wildenfels in Wildenfels,2021-11-16,befristet vollständig geschlossen,https://www.smk.sachsen.de/ppdf/21_11_16_AV_GS_Wildenfels.pdf,18.11.2021 bis 24.11.2021,2021-11-18 00:00:00,['2021-11-24 00:00:00'],False,"Schulstraße 5, 08134 Wildenfels, Deutschland",50.6662686,12.6114683
